city_name,title,address,latitude,longitude,comment
Paris,Agrology,"15 Rue de Prague, 75012 Paris, France",48.849747,2.3757248,"Info coronavirus 
üìÖNous sommes ouvert du mardi au samedi de 11h √† 19h
üöölivraisons dans un rayon de 10km
‚òéÔ∏ècommandes sur info@agrology et au 01 58 51 05 49.
Arrivages toutes les semaines de produits frais de nos producteurs chouchous pour les soutenir!
#agrology #lefooding #paris12 #restezchezvous #goodfood
#goodproducts #mediterraneanspirit #jesoutiensmesproducteurs"
Paris,La Vie Claire,"53 Rue Custine, 75018 Paris, France",48.88947,2.343599,"Horaires exceptionnels: 
Mardi au Dimanche de 9h00 √† 13h30 et de 15h30 √† 19h00 
Ferme le Lundi"
Paris,Bio c' Bon Paris Poteau,"60 Rue du Poteau, 75018 Paris, France",48.8952,2.3404121,"Horaires exceptionnels: 
Lundi au Samedi de 10h √† 19h 
Dimanche de 10h √† 13h30"
Paris,Paris Bio,"50 Rue des Plantes, 75014 Paris, France",48.828796,2.3221338,
Paris,J' M LE BIO,"45 Boulevard Saint-Germain, 75005 Paris, France",48.84959,2.3497133,"Horaires exceptionnels: 
Ouverture de 8h45 √† 18h"
Paris,Altervojo,"127 Avenue Parmentier, 75011 Paris, France",48.86921,2.3714652,"Horaires exceptionnels: 
Ouverture de 9h17 √† 19h15"
Paris,Biocoop Lancry,"45 Rue de Lancry, 75010 Paris, France",48.871326,2.3617682,"Ch√®res clientes, chers clients,
Afin de garantir votre s√©curit√© et celle de nos salari√©s, notre magasin du 45 rue de Lancry est ferm√© jusqu‚Äô√† nouvel ordre.
Nous prenons le temps de r√©organiser l‚Äô√©quipe et nous vous pr√©viendrons de la r√©ouverture du magasin et des nouveaux horaires bient√¥t. 
Prenez soin de vous et de vos proches.
L‚Äô√©quipe Biocoop Lancry"
Paris,Biocoop La R√©publique,"19 Avenue de la R√©publique, 75011 Paris, France",48.866188,2.3705387,"Horaires exceptionnels: 
Lundi au Samedi de 10h √† 18h"
Paris,Bio c' Bon Paris Parmentier,"52 Avenue Parmentier, 75011 Paris, France",48.862385,2.3769186,"[IMPORTANT] L'ensemble de nos magasins (SAUF IDF) adaptent leurs horaires jusqu'√† nouvel ordre afin de vous servir dans les meilleures conditions possibles. Nous serons ouverts du lundi au samedi de 10h √† 14h et de 15h √† 18h afin de vous servir au mieux ! Les horaires restent inchang√©s le dimanche.
Nous suivons de pr√®s l‚Äô√©volution de la situation et nous vous tiendrons au courant des √©ventuels changements. Restons bienveillants et solidaires en cette p√©riode difficile ! "
