city_name,title,address,latitude,longitude,comment
Cannes,AJC Primeur Anne,"7 Boulevard Victor Tuby, 06400 Cannes, France",43.55274,7.011925,"ğŸ›µ Secteurs de livraison : Cannes, Cannes La Bocca

â˜ï¸ 06 09 95 81 69
commande @ atelier-delice.fr "
Cannes,L'essentiel,"32 Avenue MarÃ©chal Juin, 06400 Cannes, France",43.55026,7.033619,"Pain, Ã©picerie 1re nÃ©cessitÃ©, fruits et lÃ©gumes, boissons 
32 Avenue MarÃ©chal juin

Secteurs de livraison : Cannes

04 93 43 75 38 
lessentiel06400 @ orange.fr 
"
Cannes,SOS Pizza Poulet,"2 Avenue de Madrid, 06400 Cannes, France",43.54649,7.0342445,"Livraison de pizzas, poulets rÃ´tis, sandwichs, salades, burgers
2 Avenue de Madrid

Secteurs de livraison : Carnot, Centre-ville, Suquet, RÃ©publique, Californie, Basse Californie, Pointe Croisette

04 93 43 01 88
sospizza06400@gmail.com
www.sospizza06.com"
Cannes,Papa Nino II,"23 Avenue MarÃ©chal Juin, 06400 Cannes, France",43.550224,7.0339613,"Secteurs de livraison : Grasse/Riou/Petit Juas, Carnot, Centre-ville, Suquet, RÃ©publique, Californie, Basse Californie, Pointe Croisette

04 93 43 62 82
cheznouscannes@sfr.fr
Page Uber Eats "
Cannes,Le Boucher d'Antan,"66 Avenue MarÃ©chal Juin, 06400 Cannes, France",43.548306,7.038695,"Boucherie charcuterie traiteur
66 avenue MarÃ©chal Juin

Secteurs de livraison : Basse Californie, Californie

04 93 46 55 19  
www.boucher-dantan.fr
"
Cannes,APERO JET 7,"Impasse Denans, 06400 Cannes, France",43.556805,7.020596,"Livraisons boissons
8 impasse Denans

Secteurs de livraison : Cannes et Cannes La Bocca

04 83 44 44 01 
aperojet7 @ gmail.com "
Cannes,Le Panier Vrac,"66 Boulevard de la Republique, 06400 Cannes, France",43.5577,7.02248,"Ã‰picerie bio vrac
66 Boulevard de la RÃ©publique

Secteur de livraison : Cannes

06 41 13 23 91
lepaniervrac@gmail.com "
Cannes,GREEN PIZZA,"61 Boulevard de la Republique, 06400 Cannes, France",43.55627,7.023326,"Pizzeria bio
61 Boulevard de la RÃ©publique

04 93 68 44 75

"
Cannes,Chick'N Chic,"167 Boulevard de la Republique, 06400 Cannes, France",43.561703,7.0212255,"RÃ´tisserie volailles
167 Boulevard de la RÃ©publique

04 28 70 10 90
www.chick-n-chic.fr
"
Cannes,Rebibo Gabriel Cannes Cacher,"9 Rue Marceau, 06400 Cannes, France",43.55312,7.0237045,"Secteurs de livraison : Cannes, Cannes La Bocca

04 92 98 80 80
cannescacher @ hotmail.fr"
Cannes,Cave Riviera Cannes,"7 Rue Teisseire, 06400 Cannes, France",43.552696,7.0231094,"Secteur de livraison : Cannes

06 79 65 32 55
cave.riviera.cannes @ orange.fr"
Cannes,Pomms Amsterdam Â®,"4 Rue des Belges, 06400 Cannes, France",43.55196,7.019084,"Restauration (frites, croquettes, hamburger, etc.)

Secteur de livraison : Cannes

06 43 91 18 60 
info @ pomms-amsterdam.com
http://www.pomms-amsterdam.com"
Cannes,CannOlive,"20 Rue Venizelos 16 et, 06400 Cannes, France",43.553444,7.01759,"Secteur de livraison : Cannes, Cannes La Bocca

04 93 39 08 19
cannolive @ orange.fr
www.cannolive.fr"
Cannes,Boucherie de L'Orient,"18 Rue Merle, 06400 Cannes, France",43.555042,7.023343,"Boucherie â€“ alimentation


Secteurs de livraison : Cannes, Cannes La Bocca

04 93 30 19 64
orient.itran06 @ gmail.com"
Cannes,La broche de LÃ©onard,"3 Rue d'Oran, 06400 Cannes, France",43.55213,7.0271373,"RÃ´tisserie viandes et volailles, accompagnements maison
Secteur de livraison : Cannes

06 22 59 46 05
lblcobcannes @ gmail.com
www.labrochedeleonard.fr"
Cannes,Ernest Traiteur,"52 Rue Meynadier, 06400 Cannes, France",43.552277,7.013399,"Secteurs de livraison : Cannes, Cannes La Bocca

04 93 06 23 00
commercial @ ernest-traiteur.com
www.ernest-traiteur.com"
Cannes,Mala,"28 Rue Jean Jaures, 06400 Cannes, France",43.553516,7.021519,"SpÃ©cialitÃ©s thaÃ¯landaises
04 93 38 71 25
Page Deliveroo
"
Cannes,Speedy tacos Cannes,"5 Boulevard de la Ferrage, 06400 Cannes, France",43.55369,7.016514,04 97 06 17 81
Cannes,Pizza Shop,"29 Rue Jean Jaures, 06400 Cannes, France",43.553642,7.0244117,"Secteurs de livraison : Cannes, Cannes La Bocca

04 93 99 51 80
www.livraisonpizzashop.com
"
Cannes,Mister Pizza,"36 Boulevard de Lorraine, 06400 Cannes, France",43.55269,7.0280547,"Secteur de livraison : Cannes centre-ville

04 93 68 10 30
www.mister-pizza.com
"
Cannes,Asiakeo,"41 bis Rue Hoche, 06400 Cannes, France",43.553127,7.022082,"Secteur de livraison : Cannes, Cannes La Bocca

04 93 38 31 80
www.asiakeo.com 
"
Cannes,1862 Wines & Spirits,"5 Rue du MarÃ©chal Joffre, 06400 Cannes, France",43.5527,7.01595,"Secteur de livraison : Cannes

04 93 39 44 56

Commande livraison groupÃ©e
avec d'autres commerÃ§ants :
04 93 38 04 38

contact @ 1862wines.com
www.1862wines.com"
Cannes,La PÃªcherie Cannoise,"16 Rue Meynadier, 06400 Cannes, France",43.552853,7.0150056,"Secteur de livraison : Cannes

07 85 52 77 65

Commande livraison groupÃ©e
avec d'autres commerÃ§ants :
04 93 38 04 38

pecherie.cannoise @ gmail.com
"
Cannes,Ceneri Cannes cheese,"22 Rue Meynadier, 06400 Cannes, France",43.552685,7.0145035,"Secteur de livraison : Cannes

04 93 39 63 68

Commande livraison groupÃ©e
avec d'autres commerÃ§ants :
04 93 38 04 38

www.fromagerie-ceneri.com

 "
Cannes,Maison Fleury Boucherie et Traiteur,"rÃ©sid Etoile Ens, 111 Boulevard Carnot bÃ¢t A, 06400 Cannes, France",43.56465,7.016431,"Secteur de livraison : Cannes

04 93 68 30 57
maisonfleurycannes @ gmail.com"
Cannes,Mister Pizza Cannes Carnot,"7 Boulevard Carnot, 06400 Cannes, France",43.55481,7.016858,"Secteur de livraison : Carnot

04 93 99 99 60
www.mister-pizza.com
"
Cannes,Gusti Italiani,"3 Boulevard Carnot, 06400 Cannes, France",43.55449,7.016877,"Secteur de livraison : Cannes

04 93 99 47 82

Commande livraison groupÃ©e
avec d'autres commerÃ§ants :
04 93 38 04 38

www.gustiitaliani.com
"
Cannes,"Copenhagen Coffee Lab - Cannes, Blvd Carnot","1 Boulevard Carnot, 06400 Cannes, France",43.55433,7.0168447,"Secteur de livraison : Cannes

04 97 06 51 66

Commande livraison groupÃ©e
avec d'autres commerÃ§ants :
04 93 38 04 38
 
birgitte @ cphcoffeelab.com
"
Cannes,Bio c' Bon Cannes,"9 place Vauban, 06400 Cannes, France",43.555096,7.01703,"Secteur de livraison : Cannes

04 93 99 32 50

Commande livraison groupÃ©e
avec d'autres commerÃ§ants :
04 93 38 04 38
 
www.bio-c-bon.eu
"
Cannes,Poissonnerie Forville,"6 Rue du Dr Pierre Gazagnaire, 06400 Cannes, France",43.551662,7.0117545,"Poissons, plateaux de fruits de mer
Secteurs de livraison : Cannes

06 28 92 91 77 

Commande livraison groupÃ©e
avec d'autres commerÃ§ants :
04 93 38 04 38

poissonnerieforville @ orange.fr "
Cannes,JÃ©rÃ©mie Darmigny,"3 Rue du MarchÃ© Forville, 06400 Cannes, France",43.552162,7.0114064,"Secteurs de livraison : Cannes, Cannes La Bocca

06 16 98 21 80 
Jeremie06 @ hotmail.fr"
Cannes,Sandrine Events,"17 Boulevard Victor Tuby, 06400 Cannes, France",43.552517,7.011047,"07 86 73 40 14 
etienne @ cannesaddictevents.com 
www.cannesaddictevents.com"
Cannes,La Boutique de la Truffe Italienne,"13 Boulevard Victor Tuby, 06400 Cannes, France",43.552727,7.0115914,"Secteurs de livraison : Centre Ville, Suquet.

09 88 01 16 41
Info @ laboutiquedelatruffeitalienne.com 
www.laboutiquedelatruffeitalienne.com"
Cannes,Le Comptoir des PÃ¢tes,"Rue du MarchÃ© Forville, 06400 Cannes, France",43.55214,7.0118136,"Secteurs de livraison : Cannes, Cannes La Bocca

06 11 20 54 94
Darmigny.julien @ gmail.com 
"
Cannes,CAVAVIN CANNES,"12 Rue Louis Blanc, 06400 Cannes, France",43.552437,7.0130734,"Secteur de livraison : Cannes

04 93 99 28 37
cannes @ cavavin.fr 
www.cavavincannes.com"
Cannes,Le Bistrot Gourmand,"10 rue Doct Pierre Gazagnaire Mar, Rue du MarchÃ© Forville, 06400 Cannes, France",43.552258,7.0113106,"ğŸ›µ Secteur de livraison : Cannes

â˜ï¸ 04 93 68 72 02
Bistrotgourmandcannes @ gmail.com 
www.bistrotgourmandcannes.fr"
Cannes,La RÃ´tisserie Christophe,"4 Place du MarchÃ© Forville, 06400 Cannes, France",43.5518,7.0120244,"ğŸ›µ Secteur de livraison : Cannes

â˜ï¸ 04 93 68 00 23

Commande livraison groupÃ©e
avec d'autres commerÃ§ants :
04 93 38 04 38"
Cannes,Boucherie Agricole : Boucherie Ã  Cannes,"9 Rue du MarchÃ© Forville, 06400 Cannes, France",43.552364,7.0121193,"ğŸ›µ Secteurs de livraison : Cannes, Cannes La Bocca
â˜ï¸ 04 93 39 18 05

Commande livraison groupÃ©e
avec d'autres commerÃ§ants :
â˜ï¸ 04 93 38 04 38
boucherie_agricole@yahoo.fr "
Cannes,Pizza World,"32 Boulevard Vallombrosa, 06400 Cannes, France",43.552914,7.0066924,"Secteur de livraison : Cannes

04 93 38 32 72
sarlcyro06 @ gmail.com "
Cannes,HAPPYFOOD,"81 Avenue de Grasse, 06400 Cannes, France",43.555134,7.0118985,"ğŸ›µ Secteurs de livraison : Cannes, Cannes La Bocca

â˜ï¸ 04 93 45 20 00 
www.happyfood06.fr
"
Cannes,Cafe Pico,"26 Avenue du Dr Raymond Picaud, 06400 Cannes, France",43.550888,6.999752,"ğŸ›µ Secteurs de livraison : Croix des Gardes/Picaud

â˜ï¸ TÃ©l. commande : 04 93 93 17 44
olivier @ cafepico.fr"
Cannes,Restaurant l'Etoile,"60 Avenue du Dr Raymond Picaud, 06150 Cannes, France",43.550434,6.991161,"ğŸ›µ Secteurs de livraison : Cannes La Bocca, Croix-des-Gardes/Picaud

â˜ï¸ 06 07 01 16 23 
ribriouxtony@yahoo.fr"
Cannes,Chocolats De Neuville Cannes - La Bocca,"73 Avenue Francis Tonner, 06150 Cannes, France",43.54947,6.9779778,"ğŸ›µ Secteurs de livraison : Cannes, Cannes La Bocca

â˜ï¸ 06 70 15 60 78
deneuville.canneslabocca@orange.fr "
Cannes,Gusto Italiano,"127 Avenue Francis Tonner, 06150 Cannes, France",43.549538,6.973933,"ğŸ›µ Secteur de livraison : Cannes La Bocca

â˜ï¸ 04 92 19 08 14 "
Cannes,NJ Pizza,"7 Rue Paul NÃ©grin, 06150 Cannes, France",43.549225,6.972342,"ğŸ›µSecteur de livraison : Cannes La Bocca

â˜ï¸04 93 49 75 24 
pizza.angelina @ outlook.fr 
www.nj-pizza.com"
Cannes,Mister Pizza Cannes La Bocca,"67 Avenue Francis Tonner, 06150 Cannes, France",43.549377,6.9783397,"ğŸ›µ Secteur de livraison : Cannes La Bocca

â˜ï¸ 04 93 47 05 46

www.mister-pizza.com
"
Cannes,Couscous Express Cannes,"58 Avenue Michel Jourdan, 06150 Cannes, France",43.552654,6.9769855,"ğŸ›µ Secteur de livraison : Cannes, Cannes La Bocca

â˜ï¸ 04 93 48 93 39
www.couscousexpress.fr
"
Cannes,La VinothÃ¨que,"6 Avenue Michel Jourdan, 06150 Cannes, France",43.549908,6.9795637,"ğŸ›µ Secteur de livraison : Cannes La Bocca

â˜ï¸ 04 93 47 89 95
lavinothequecannes @ orange.fr"
Cannes,Pizza One,"56 Avenue Michel Jourdan, 06150 Cannes, France",43.55259,6.9771357,"ğŸ›µ Secteur de livraison : Cannes La Bocca

â˜ï¸ 04 93 47 16 40 "
Cannes,Tredici,"13 Rue Louis Perrissol, 06400 Cannes, France",43.550312,7.0098033,"Secteurs de livraison : Cannes, Cannes La Bocca

06 52 54 64 63
tredici.cannes @ gmail.com
www.tredici-cannes.eatbu.com "
Cannes,Carrefour Market,"6 Rue Meynadier, 06400 Cannes, France",43.553467,7.015885,"Secteur de livraison : Cannes

04 93 39 62 13
www.carrefour.fr"
Cannes,Aux Bons Raviolis,"31 Rue Meynadier, 06400 Cannes, France",43.552433,7.013931,"Secteurs de livraison : Cannes, Bocca Nord, Bocca Ouest, Bocca Centre

06 13 45 03 25 
04 93 39 36 63
pasta-tosca @ wanadoo.fr"
Cannes,MarchÃ© Forville,"06400 Cannes, France",43.55191,7.0114384,"LA RÃ”TISSERIE DU MARCHÃ‰

RÃ´tisserie
MarchÃ© Forville

Secteur de livraison : Cannes

07 78 38 82 42
scocciafranck @ hotmail.fr
"
Cannes,El RÃ©gal,"3 Place Bernard Cornut Gentille, 06400 Cannes, France",43.550934,7.0114193,"Secteurs de livraison : Cannes, Cannes La Bocca

04 93 68 62 05 
Page Uber Eats
"
Cannes,Jorainbow,"22 Rue Jean Jaures, 06400 Cannes, France",43.55353,7.0209293,"04 93 75 01 25
Page Deliveroo
"
Cannes,La Tarte TropÃ©zienne,"5 Rue Louis Blanc, 06400 Cannes, France",43.552177,7.0130005,"Secteurs de livraison : Cannes, Bocca Ouest, Bocca Centre

elliott @ me.com"
Cannes,KFC Cannes gare,"8 Rue Jean Jaures, 06400 Cannes, France",43.55351,7.0199537,04 93 68 85 28
