"city_name","title","address","latitude","longitude","comment"
Nantes,Basilic & Co Nantes (Strasbourg),"16 Rue de Strasbourg, 44000 Nantes, France",47.21626,-1.5512857,
Nantes,Carrefour City,"16 Bis Mail Pablo Picasso, 44000 Nantes, France",47.21594,-1.5354701,
Nantes,Carrefour City,"3 Rue Cassini, 44000 Nantes, France",47.214985,-1.5651686,
Nantes,Carrefour City,"6-8, 10 Avenue Carnot, 44000 Nantes, France",47.21405,-1.5456009,
Nantes,Biocoop Nantes Cit√© des congr√®s,"18-20 Rue de Mayence, 44000 Nantes, France",47.211266,-1.5453084,
Nantes,BIOCOOP NANTES PLACE BRETAGNE,"14 Rue de Budapest, 44000 Nantes, France",47.21671,-1.5595247,
Nantes,NATURALIA,"23 All√©e d'Orl√©ans, 44000 Nantes, France",47.21728,-1.5574738,
Nantes,SPEED BURGER NANTES,"182 Rue Paul Bellamy, 44000 Nantes, France",47.230976,-1.5637835,
Nantes,Pizza Hut Express,"Boulevard G√©n√©ral de Gaulle, 44272 Nantes, France",47.205257,-1.5365577,
Nantes,Big Fernand,"5/7 Rue des Halles, 44000 Nantes, France",47.21558,-1.55529,
Nantes,La Grande Muraille,"18 Rue des Petites √âcuries, 44000 Nantes, France",47.21538,-1.5523349,
Nantes,Basilic & Co Nantes (Clisson),"110 Route de Clisson, 44200 Nantes, France",47.189674,-1.5191145,
Nantes,Basilic & Co Nantes (Schuman),"1 Boulevard Robert Schuman, 44300 Nantes, France",47.233387,-1.5661544,
Nantes,Pizza Hut,"64 Quai de la Fosse, 44000 Nantes, France",47.209763,-1.5654352,
Nantes,Big Fernand,"8 Rue Jean Jacques Rousseau, 44000 Nantes, France",47.2126,-1.5604945,
Marseille,NATURALIA,"75 Rue de la R√©publique, 13002 Marseille, France",43.30182,5.3692894,
Marseille,KFC Marseille Plombi√®res,"114 Boulevard de Plombi√®res, 13014 Marseille, France",43.317284,5.3823814,
Marseille,Bio c' Bon Marseille Blancarde,"17 Boulevard de la Blancarde, 13004 Marseille, France",43.302826,5.397892,
Marseille,NATURALIA,"46 Avenue du Prado, 13006 Marseille, France",43.28342,5.384647,
Marseille,THE GOOD grocery,"103 Boulevard Notre Dame, 13006 Marseille, France",43.285206,5.3747325,
Marseille,Lidl,"69-71 Rue Sainte, 13001 Marseille, France",43.29171,5.3723464,
Marseille,Biocoop Endoume,"21 Rue Sauveur Tobelem, 13007 Marseille, France",43.28822,5.364442,
Marseille,Bio c' Bon Marseille cours Julien,"85 Cours Julien, 13006 Marseille, France",43.292683,5.3840785,
Marseille,Bio c' Bon Marseille Breteuil,"43 Rue Breteuil, 13006 Marseille, France",43.290646,5.375749,
Marseille,Snack le 444,"444 Boulevard National, 13003 Marseille, France",43.314724,5.3708334,
Marseille,Pizza UP,"137 Rue du Rouet, 13008 Marseille, France",43.279305,5.3916316,
Marseille,C√¥t√© Sushi Marseille Joliette,"109 Rue de la R√©publique, 13002 Marseille, France",43.304268,5.367334,
Marseille,"Snack Pitchou's Snack Sur Place, Emporter, Tacos, Burger hallal a Marseille","6 Boulevard d'Ath√®nes, 13001 Marseille, France",43.299583,5.3810453,
Marseille,Biocoop Castellane,"87 Rue d'Italie, 13006 Marseille, France",43.287388,5.3840227,
Marseille,Chez Riz,"23 Rue Sauveur Tobelem, 13007 Marseille, France",43.288,5.3636127,
Marseille,Le temps d'une Pizza,"84 Rue Perrin Solliers, 13006 Marseille, France",43.28763,5.3863072,
Marseille,Le V√©nitien,"51 Rue Sainte-C√©cile, 13005 Marseille, France",43.287666,5.3931794,
Bordeaux,Cave BRIAU,"94 Rue David Johnston, 33000 Bordeaux, France",44.85166,-0.587214,"Reconnue comme une des grandes adresses de Bordeaux, nous vous proposons une large s√©lection de vins √† petits prix jusqu‚Äôaux plus grands crus prestigieux, en passant des bulles d‚Äôun champagne √† la tourbe d‚Äôun whisky.
La Cave BRIAU poss√®de plus de 700 r√©f√©rences, vins, champagnes, bi√®res et spiritueux.

Face √† la situation exceptionnelle, nous mettons en place un service minimum.
1. Demandez notre tarif sur info@briau.com ou au 05 56 79 25 71 
2. R√©glez votre commande √† distance
3. Venez la r√©cup√©rer sur notre parking ou faites-vous livrer !

Cave Briau 94 rue David Johnston 33000 Bordeaux, 05 56 79 25 71
Horaires d'ouverture du lundi au samedi de 10h √† 12h30 et de 15h √† 18h.
Parking gratuit √† disposition."
Bordeaux,Laverie Cenon Floirac,"114 Cours Gambetta, 33150 Cenon, France",44.843384,-0.5322471,""
Bordeaux,Laundry L Argonne.,"57 Cours de l'Argonne, 33000 Bordeaux, France",44.828693,-0.5743837,""
Bordeaux,Laverie Les Chartrons,"111 Rue Notre Dame, 33000 Bordeaux, France",44.853107,-0.5702138,""
Bordeaux,Laverie Automatique Lib√©ration,"690 Cours de la Lib√©ration, 33400 Talence, France",44.795864,-0.6028318,""
Bordeaux,PIERRE A FEU,"32 Quai des Chartrons, 33000 Bordeaux, France",44.850792,-0.5698736,tabac cigare presse jeux vap
Bordeaux,Poke Moon Chartrons,"114 Rue Notre Dame, 33300 Bordeaux, France",44.853416,-0.5698308,"Nous sommes ouvert sur les plateformes de livraisons de 11h15 √† 14h15, et de 18h15 √† 22h30 "
Bordeaux,La Canave,"2 Rue de la Canave, 33650 Martillac, France",44.721783,-0.5306933,"Tabac presse, ouvert du lundi au samedi de 7h √† 19h"
Bordeaux,Aux Douceurs de Bacalan,"160 Boulevard Albert Brandenburg, 33300 Bordeaux, France",44.875515,-0.552762,"Boulangerie - P√¢tisserie
Du lundi au vendredi : 6h30 - 13h30 et 16h - 19h
Samedi et dimanche : 7h - 13h"
Bordeaux,Laverie Roustaing,"5 Rue Ren√© Balloux, 33400 Talence, France",44.817463,-0.5856647,""
Bordeaux,Pitaya Sainte Catherine,"275 Rue Sainte-Catherine, 33000 Bordeaux, France",44.831707,-0.5729526,"Sauf erreur de ma part il sont uniquement en livraison (Uber eats), comme a priori tous les restaus ouverts"
Bordeaux,Les Halles Bacalan,"10 Quai de Bacalan, 33300 Bordeaux, France",44.862858,-0.5512933,"Seule une partie des commerces est ouverte...y compris Balme, sp√©cialiste de la truffe :-)"
Bordeaux,Le gar√ßon boucher,"111 Rue de la Benauge, 33100 Bordeaux, France",44.840347,-0.5538529,du mardi au samedi 9H30-17H
Bordeaux,Bobi,"111 Rue de la Benauge, 33100 Bordeaux, France",44.840347,-0.5538529,"mardi au samedi 
9H30-17H"
Bordeaux,Epicerie Domergue,"24 Avenue Thiers, 33100 Bordeaux, France",44.841396,-0.558426,"du mardi au samedi 
horaire ?"
Bordeaux,Madame Fromage Bordeaux,"3 Quai Deschamps, 33100 Bordeaux, France",44.839508,-0.5596817,"Cremerie fromagerie 
Mardi au Samedi de 10H a 17H.
"
Bordeaux,Les Halles De Talence - Biltoki,"Place Alcala de Henares, 33400 Talence, France",44.811947,-0.590437,"Ouvert du mardi au dimanche de 8h √† 14h
Ouverture r√©serv√©e de 8 √† 9h aux personnes de plus de 70 ans"
Bordeaux,Station V√©lo Services,"36 Place de Stalingrad, 33100 Bordeaux, France",44.84099,-0.5594226,"Entretien, r√©paration et vente de v√©los. Ouvert du lundi au vendredi de 10h √† 17h (infos de leur page FB au 17 mars 2020)"
Bordeaux,"Maison Burgalieres, boucherie charcuterie traiteur","Tram D, arr√™t Courbet, 71 Avenue de la Lib√©ration Charles de Gaulle, 33110 Le Bouscat, France",44.856426,-0.5966281,Du mardi au samedi de 9h √† 15h
Bordeaux,Dolomites Pizzas Bordeaux,"23 Cours de la Martinique, 33000 Bordeaux, France",44.85331,-0.5698073,
Bordeaux,Burdiga Pizza,"63 Rue de Pessac, 33000 Bordeaux, France",44.83,-0.5811111,
Bordeaux,"TENDANCE BIO, pizzas et salades sur place, √† emporter, ou en livraison √† Bordeaux","76 Rue des Terres de Borde, 33800 Bordeaux, France",44.82571,-0.5543548,
Bordeaux,Planet Sushi Cl√©menceau,"7 Cours Georges Clemenceau, 33000 Bordeaux, France",44.84213,-0.5800461,
Bordeaux,Le Petit Casino,"129-131 Rue Fondaud√®ge, 33000 Bordeaux, France",44.848564,-0.5825711,
Bordeaux,Casino Shop,"38 Rue Jenny L√©preux, 33000 Bordeaux, France",44.8324,-0.6124398,
Bordeaux,Casino Shop,"9 Cours de l'Argonne, 33000 Bordeaux, France",44.830067,-0.5731907,
Bordeaux,Bio C Bon,"73 Rue Notre Dame, 33000 Bordeaux, France",44.851936,-0.5711743,
Bordeaux,Bio c' Bon Bordeaux cours d'Albret,"59 Cours d'Albret, 33000 Bordeaux, France",44.83589,-0.5810879,
Bordeaux,La Vie Saine Bordeaux,"8 Rue Ravez, 33000 Bordeaux, France",44.83726,-0.5726306,
Bordeaux,Carrefour Bio,"49 Rue du Pas-Saint-Georges, 33000 Bordeaux, France",44.838493,-0.5719535,
Bordeaux,Str'eat Burger,"70 Cours Victor Hugo, 33000 Bordeaux, France",44.835236,-0.5694199,
Bordeaux,Sushi Delight & Wok Delight,"2 Place de l'√âglise Saint-Augustin, 33000 Bordeaux, France",44.832638,-0.6100577,
Bordeaux,Basilic & Co Bordeaux,"2 Cours d'Albret, 33000 Bordeaux, France",44.838886,-0.5815337,
Bordeaux,Nobi Nobi,"262 Rue Sainte-Catherine, 33000 Bordeaux, France",44.832485,-0.5728864,
Nice,day by day - Mon √©picerie en vrac,"3 Rue Vernier, 06000 Nice, France",43.707317,7.2630515,"04 83 39 89 82"
Nice,XOCOALT - A l'origine du chocolat,"10 Rue Alberti, 06000 Nice, France",43.699303,7.2721586,"Ouverture et livraison
04 93 91 29 54"
Nice,Palais Des Arts,"144 Rue de France, 06000 Nice, France",43.693493,7.249642,
Nice,R√¥tisserie,"17 Boulevard Joseph Garnier, 06000 Nice, France",43.709946,7.259517,"Pour limiter au maximum les d√©placements et l'attente dans nos points de vente, toutes nos √©quipes de Menton √† Nice en passant par Beausoleil sont disponibles par t√©l√©phone.
Appelez les pour qu'elles vous pr√©parent vos commandes √† emporter."
Nice,R√¥tisserie,"10 Boulevard Carnot, 06300 Nice, France",43.698128,7.287653,"Pour limiter au maximum les d√©placements et l'attente dans nos points de vente, toutes nos √©quipes de Menton √† Nice en passant par Beausoleil sont disponibles par t√©l√©phone.
Appelez les pour qu'elles vous pr√©parent vos commandes √† emporter."
Nice,R√¥tisserie,"16 Boulevard Gambetta, 06000 Nice, France",43.69626,7.2563853,"Pour limiter au maximum les d√©placements et l'attente dans nos points de vente, toutes nos √©quipes de Menton √† Nice en passant par Beausoleil sont disponibles par t√©l√©phone.
Appelez les pour qu'elles vous pr√©parent vos commandes √† emporter."
Nice,KFC,"64 Avenue Jean M√©decin, 06000 Nice, France",43.70522,7.2654123,
Nice,Pizza Hut,"28 Rue Gioffredo, 06000 Nice, France",43.70068,7.2753167,
Nice,Biocoop Riviera,"104 Avenue Henry Dunant, 06100 Nice, France",43.727486,7.2656293,
Nice,Naturalia,"122-124 Boulevard Gambetta, 06000 Nice, France",43.70773,7.256195,
Nice,Biocoop Nice Grimaldi,"2 Place Grimaldi, 06000 Nice, France",43.69779,7.265382,
Nice,Bio c' Bon Nice Cl√©menceau,"1 Avenue Georges Clemenceau, 06000 Nice, France",43.70233,7.26635,
Nice,Le Petit Casino,"65 Boulevard Fran√ßois Grosso, 06000 Nice, France",43.6987,7.251063,
Nice,Le Petit Casino,"4 Bis Rue Vernier, 06000 Nice, France",43.707466,7.262517,
Nice,MOMO PIZZA,"91 Rue de France, 06300 Nice, France",43.69512,7.2560387,
Nice,Carrefour Express,"3-5 Place Saint-Fran√ßois, 06300 Nice, France",43.69882,7.2779164,
Nice,Carrefour City,"11 Rue Cassini, 06000 Nice, France",43.699795,7.2824965,
Lille,Jardin d'Ostrevant,"111 Rue Henri Bocquet, 59111 Bouchain, France",50.281654,3.3201418,""
Lille,L'Oriental,"75 Avenue du Mar√©chal de Lattre de Tassigny, 59350 Saint-Andr√©-lez-Lille, France",50.657745,3.0401561,"Kebab, tacos, panini, couscous .... Ouvert du lundi au samedi 11:30-14:00 et 18:00-23:00 et dimanche de 18:00-23:00. 
Commandes en livraison sur un rayon de 4km et √† emporter. 0320066965. "
Lille,Fruits de la Terre,"65 Rue du G√©n√©ral Leclerc, 59120 Loos, France",50.610992,3.01971,"Les horaires :
dimanche - 09:30‚Äì13:00
lundi - Ferm√©
mardi- 10:00‚Äì12:30 / 15:30‚Äì19:30
mercredi - 10:00‚Äì12:30 / 15:30‚Äì19:30
jeudi - 15:30‚Äì19:30
vendredi	- 10:00‚Äì12:30 / 15:30‚Äì19:30
samedi - 09:00‚Äì13:00 / 15:30‚Äì19:30

Num√©ro de t√©l√©phone : 03 62 26 34 14

Vous pouvez √©galement commander sur notre site www.fruitsdelaterre.com et b√©n√©ficier d'une livraison gratuite dans un rayon de 20 km autour de Lille/Lomme.

Nous permettons √† notre client√®le situ√©e √† Loos, de consommer en toute confiance des fruits et l√©gumes extra frais issus de l'agriculture biologique ou raisonn√©e, dont la qualit√© vous donnera envie d'y revenir. De plus, nous developpons une large gamme de produits vrac, pour le plus grands plaisir de nos clients. La boutique √† Loos, vous offre √©galement une large gamme de produits d'√©picerie, de vins, de fromages ainsi que des produits originaux pour √©pater vos convives ! Pour nos clients partout en France, nous livrons √† domicile nos produits les plus originaux (mini-l√©gumes, micro-v√©g√©taux, fleurs comestibles, algues bio...) via notre boutique en ligne, avec l'assurance de leur fra√Æcheur tout au long du trajet."
Lille,Pacte le drive pieton des produits locaux,"46 Rue Basse, 59800 Lille, France",50.638786,3.060216,""
Lille,Ma√Ætre Georges,"118 Rue Ferdinand de Lesseps, 59130 Lambersart, France",50.66016,3.0131345,Livraison √† domicile gratuite de toutes vos boissons sur la p√©riph√©rie Lambersartoise et Lilloise
Lille,On Part En Vrac,"2a Chemin de l'Ange Gardien, 59890 Quesnoy-sur-De√ªle, France",50.713116,2.9971616,Livraisons √† domicile gratuites sur la m√©tropole pour les commandes de plus de 50‚Ç¨ sur http://www.onpartenvrac-drive.com
Lille,Al Ritrovo,"43 Rue Sadi Carnot, 59320 Haubourdin, France",50.611526,2.985866,""
Lille,Al Fornello,"114 Avenue Saint-Maur, 59110 La Madeleine, France",50.652134,3.0810301,"Ouvert de 10h √† 13h30 et de 18h √† 20h30 
Ferme le dimanche et lundi "
Lille,TWO D,"village des voiles, 59520 Marquette-lez-Lille, France",50.68055,3.0623186,"11h √† 13h30. 
Au 09 62 51 03 48 ou sur le site www.bistrot-two-d.com"
Lille,Carrefour City Arts Lille,"1-7 Rue des Arts, 59000 Lille, France",50.637753,3.066941,""
Lille,O Ch'ti B LE COMPTOIR DES GASTRONOMES,"98 Rue Saint-Andr√©, 59800 Lille, France",50.645466,3.056555,"D√®s mardi midi, retrouvez nos üçï, ainsi qu‚Äôune carte sp√©ciale, nos fameux burgers, nos fabuleuses lasagnes aux 2 viandes, notre cochon de 9 h... etc
√Ä vous de choisir entre la livraison √† domicile via nos partenaires: @ubereats_fr ou @deliveroo_fr ou la vente √† venir chercher directement au restaurant
Sachez que nous respecterons scrupuleusement les consignes de s√©curit√© face au virus. La sant√© avant tout.
Nous vous demanderons donc de respecter les distances recommand√©es par les autorit√©s. Pour une meilleure prise en charge et fluidit√© appelez le ‚òéÔ∏è0612812786 ou 0320512502 afin de passer votre commande et √©viter l‚Äôattente."
Lille,Biola'Pizza,"8 Place Roger Salengro, 59960 Neuville-en-Ferrain, France",50.750366,3.1520216,"Vente √† emporter, appeler au  03 59 54 60 87 pour conna√Ætre les stocks."
Lille,A La Brasserie,"41 Rue d'Esquermes, 59000 Lille, France",50.623596,3.0429397,Le restaurant propose de la vente √† emporter. Appeler au 03 20 08 23 66 avant pour conna√Ætre les stocks.
Lille,Bio'Appetit !,"6 Place D√©liot, 59000 Lille, France",50.619987,3.068268,"Commandes √† emporter en respectant toutes les mesures de s√©curit√©.

Commandes √† passer par t√©l√©phone au 03 20 09 68 91."
Lille,La Fossetta Lesquin,"100 Rue du Pic au Vent, 59810 Lesquin, France",50.582314,3.110818,"La Fossetta Lesquin vous propose des plats √† emporter, le midi uniquement de 11h30 √† 14h00, dans le CRT 1-2-3-4, Ennevelin, Avelin et Pont-√†-Marcq.

üìû Commande uniquement par t√©l√©phone au 0320110435 ou par mail commande@fossetta.fr
Merci de pr√©ciser dans vos commandes mails, l'horaire de livraison, votre num√©ro de portable ainsi que l'adresse de votre soci√©t√©.

üßë‚Äçüç≥ D√©couvrez notre carte sp√©ciale :

- P√¢tes :
Spaghetti √† l‚Äôarrabiata : 12‚Ç¨
Rigatoni bolognaise : 13‚Ç¨
Rigatoni Carbonara : 13‚Ç¨

P√¢tes du jour :

Rigatoni Verselli 13‚Ç¨
Sauce cr√©m√©e, b≈ìuf hach√©, ail, cr√®me de truffe, roquette

Spaghetti Tomates semi-s√©ch√©es et jambons aux herbes : 13‚Ç¨
Sauce cr√©m√©e, ail, tomate semi-s√©ch√©es, roquette, jambon aux herbes

- Salades compos√©es
https://lafossetta.fr/specialites/

- Pizzas
https://lafossetta.fr/pizzas/

- Desserts
Tiramisu 6‚Ç¨

- Boissons
San Pellegrino 50cl 2.5‚Ç¨
Coca 33 cl 3‚Ç¨
Minute Maid Orange 33cl 3‚Ç¨
Ice Tea 25cl 3‚Ç¨
Sprite 3‚Ç¨
Fanta 33cl 3‚Ç¨
Goudale Blonde 50cl 6‚Ç¨

‚Äº Nous vous livrons pour une commande minimum de 6 plats. Pour toutes les autres commandes, notre restaurant de Lesquin vous accueille dans les meilleures conditions pour le retrait.

Pour une question de logistique, en cas de commande group√©e, nous n'acceptons qu'un seul moyen de paiement (tickets restaurant, ch√®que, CB)"
Lille,Autour de Vous Lille,"81 Rue d'Angleterre, 59800 Lille, France",50.640106,3.058205,"""Nous serons sur place demain de 11h30 √† 18h et nous verrons en fonction du stock vendu ce qui se passera les jours suivants... 
le t√©l√©phone du resto est le 0328077371 si les gens veulent savoir ce que nous proposons. 
Nous accepterons uniquement les paiement par carte bancaire! """
Lille,DREAM DINER,"248 Rue des Postes, 59000 Lille, France",50.619545,3.050772,Horaires et cartes habituels. √Ä emporter ou en livraison.
Lille,Mon Petit Tha√Ø,"228 Rue L√©on Gambetta, 59000 Lille, France",50.62878,3.0524569,"""Contactez-nous au 03.20.31.54.74 pour toute commande √† emporter ou via notre plate-forme Deliveroo pour toute commande en livraison. N'h√©sitez pas √† cocher la livraison sans contact pour une s√©curit√© maximum."""
Lille,A La Maison,"147 Rue Pierre Mauroy, 59800 Lille, France",50.633427,3.0681977,Le restaurant propose la vente √† emporter ou en livraison.
Lille,Chez Brigitte,"13 Rue des Bouchers, 59000 Lille, France",50.638382,3.0585268,"Des plats sont propos√©s √† emporter. 

Pour avoir plus d'infos sur les plats, vous pouvez appeler au 09 83 80 89 61."
Lille,Ke Tacos,"72 ter Avenue du Peuple Belge, 59800 Lille, France",50.64457,3.0623972,"Vente essentiellement de tacos 1,2 ou 3 viandes, hamburger
Paiement esp√®ce + Tr + cb en sans contact"
Lille,Pizza Gourmet,"169 Rue du G√©n√©ral de Gaulle, 59110 La Madeleine, France",50.655365,3.073421,Carte habituelle uniquement √† emporter.
Lille,IT Italian Trattoria,"65-67 Rue de B√©thune, 59800 Lille, France",50.633312,3.063156,Le restaurant propose la vente √† emporter ou en livraison.
Lille,Taobento - Lille,"8 Place de la Gare, 59800 Lille, France",50.636333,3.0689821,"Carte habituelle √† emporter ou en livraison.
De pr√©f√©rence, commander la commande sur le site internet."
Lille,Croque-Fran√ßois,"13 Rue de l'H√¥pital Militaire, 59800 Lille, France",50.633167,3.0621407,"Carte habituelle √† emporter. Paiement par carte de pr√©f√©rence.
Midi et soir √† partir de Mardi.
"
Lille,Viva Italian Pizza,"107 Rue Sadi Carnot, 59350 Saint-Andr√©-lez-Lille, France",50.661484,3.0554953,"Viva Italian Pizza

Commandes √† emporter / √Ä commander par t√©l√©phone avant : 03 20 31 70 77"
Lille,Los 3 compadres,"80 Rue Br√ªle Maison, 59000 Lille, France",50.625908,3.0611396,Toute la carte √† emporter sauf molcajete. Prix identiques.
Lille,Le Comptoir Volant,"22 Place des Patiniers, 59000 Lille, France",50.63981,3.0645936,Vente √† emporter avec paiement sans contact de pr√©f√©rence.
Lille,SPOK - Lille,"15 Rue Saint-Jacques, 59000 Lille, France",50.64057,3.065641,"Vente √† emporter et livraison.

""Sur la grande table en bois de la salle √©pur√©e ou √† emporter, des sandwiches, soupes et petits plats cr√©atifs."""
Lille,BiBoViNo Vieux-Lille,"14-16 Rue de P√©t√©rinck, 59800 Lille, France",50.641064,3.061567,"""On propose des vins de petits vignerons √† emporter en cubi ! Cela se garde deux mois apr√®s ouverture. Id√©al pour la consommation quotidienne :)
40 r√©f√©rences dispos.
Horaires : mardi au samedi : 11h-18h, dimanche 10h30-14h30"""
Lille,L'Arri√®re Pays,"47 Rue Basse, 59000 Lille, France",50.63873,3.0611904,"Vente √† emporter sur la carte du restaurant.

""Vaut mieux appeler avant pour commander, on sait pas trop ce qui sera dispo √† la carte. 0320138007"""
Lille,Daddy Cr√™pes,"32 Place de la Gare, 59800 Lille, France",50.636024,3.069528,"Bar √† Cr√™pes vente √† emporter entre 11h et 15h. 

La carte est disponible sur ce lien üôÇ https://daddycrepes.fr/creperie-lille/creperie-lille-carte/"
Lille,Sam'R√©gal,"36 Rue Saint-S√©bastien, 59800 Lille, France",50.64676,3.0576108,"Carte habituelle uniquement √† emporter.

Ouvert midi et soir sauf le lundi."
Lille,DINA LILLE Wazemmes,"19 Place Nouvelle Aventure, 59000 Lille, France",50.626637,3.049996,"Restaurant de p√¢tes fraiches.

Uniquement √† emporter."
Lille,Bierbuik- Bloemeke,"19 Rue Royale, 59000 Lille, France",50.63941,3.058262,Tous les snacks et toutes les bi√®res sont √† emporter. 
Lille,SAM & LIE,"368 Avenue du Mar√©chal de Lattre de Tassigny, 59350 Saint-Andr√©-lez-Lille, France",50.66625,3.030087,Vente √† emporter habituelle.
Lille,Pokawa Lille,"5 Rue Nationale, 59800 Lille, France",50.63691,3.0627892,Commandes √† emporter ou en livraison.
Lille,Sushi Shop,"4-6 Place Louise de Bettignies, 59000 Lille, France",50.640457,3.064681,Vente en livraison et √† emporter. Les commandes doivent √™tre r√©gl√©es avant la r√©cup√©ration.
Lille,Sushi Shop Lille Centre,"15 Place de B√©thune, 59800 Lille, France",50.632664,3.062658,Vente en livraison et √† emporter. Les commandes doivent √™tre r√©gl√©es avant la r√©cup√©ration.
Lille,Fast Pizza,"246 Rue du Faubourg d'Arras, 59000 Lille, France",50.607307,3.0589113,"Carte habituelle √† emporter.

www.fast-pizza-lille.fr"
Lille,Gusto Mio,"15 Pl. Jacquard, 59000 Lille, France",50.631504,3.0644886,Carte habituelle √† emporter ou en livraison sur Deliveroo.
Lille,Halles Modernes - Vieux Lille,"6 Rue de la Barre, 59000 Lille, France",50.639023,3.0584428,"Les halles restent ouvertes, mais information importante :

Livraison gratuite √† domicile √† partir de 19,90‚Ç¨ d'achat jusqu'√† nouvel ordre pour aider les personnes qui doivent rester √† la maison."
Lille,Pixies Bar & Burger,"33 Rue Ernest Deconynck, 59800 Lille, France",50.630604,3.056553,"Le pixies sera ouvert 7j/7 en livraison et √† emporter. 

Lundi mardi mercredi jeudi 11h30 / 14h30 - 18h3 /23h30
Vendredi 11h30 / 14h30 - 18h30 / 00h30
Samedi 12h / 00h30
Dimanche 12h / 23h"
Lille,Quai Des Bananas,"84 Rue Royale, 59800 Lille, France",50.641937,3.056636,"√Ä emporter : cocktails, bi√®res, tapas, saucisson, planche tartinable (et m√™me barman √† domicile)."
Lille,Shake'N Out Burger,"4 Rue des Manneliers, 59800 Lille, France",50.636654,3.064476,Carte habituelle √† emporter ou en livraison sur les diff√©rentes plateformes.
Lille,PANCOOK Lille,"125 Rue Colbert, 59000 Lille, France",50.631775,3.0436232,"""Pancook ouvert en carte r√©duite du lundi au vendredi midi de 11h30 √† 14h et du mercredi pour samedi soir de 19h √† 21h30.

Nous proposons √©galement un service de livraison pour toutes adresses √† 10 minutes du Pancook afin de garantir la fra√Æcheur des plats.

Pour votre choix :
‚Üí les trois 3 Pancook,
‚Üí le trio de Pancook
‚Üí le potjevleesch
‚Üí les croquettes de crevettes
‚Üí la salade du moment.

Vous pouvez √©galement passer vos commandes par avance sur le site du Pancook (https://pancook.fr/reservez-votre-table/) ou par t√©l√©phone au +33 7 82 42 24 84‚Ä¨"""
Lille,Fives Thai Coffee,"8 Rue des 7 Agaches, 59000 Lille, France",50.63716,3.064176,Vous pouvez commander les plats sur le site web : www.fivesthai.fr avant 10h30 pour le midi. Service √† emporter (devant le magasin) ou en livraison.
Lille,Fives Tha√Ø Bangkok,"186 Rue Pierre Legrand, 59800 Lille, France",50.632584,3.0915267,Vous pouvez commander les plats sur le site web : www.fivesthai.fr avant 10h30 pour le midi. Service √† emporter (devant le magasin) ou en livraison.
Lille,L'ATELIER STREET FOOD,"Stade Pierre Mauroy, Rue du Virage, 59650 Villeneuve-d'Ascq, France",50.610294,3.130603,Vente √† emporter sur la carte habituelle.
Lille,Tok Tok,"246 Rue L√©on Gambetta, 59000 Lille, France",50.628548,3.0518732,Vente √† emporter et livraison sur Deliveroo.
Lille,Wok and Sweet,"4 Rue des Ponts de Comines, 59800 Lille, France",50.636227,3.066249,Commandes √† emporter sur la carte habituelle.
Lille,Le Barboteur,"90 Quai de l'Ouest, 59000 Lille, France",50.62937,3.021381,"Une formule √† emporter √† 15‚Ç¨ : plat du jour + dessert.

Vous pouvez les appeler au 03 20 02 57 97 pour conna√Ætre les produits du jour."
Lille,L'italien,"2 Rue Faidherbe, 59136 Wavrin, France",50.573566,2.9402602,"L'italien - 2 Rue Faidherbe, 59136 Wavrin 

Ouvert pour des pizzas √† emporter (Pensez √† r√©server au 0320903641 afin d'√©viter le flux)."
Lyon,U Express et drive,"72 Rue de Marseille, 69007 Lyon, France",45.749893,4.8387094,""
Lyon,Super U et drive,"14 Rue Fr√©d√©ric Mistral, 69003 Lyon, France",45.756596,4.875078,"SUPER U LYON MISTRAL
14 rue Fr√©d√©ric Mistral
69003 LYON
T√©l : 0472918020
Horaires :
Lundi : 08h30 √† 20h30
Mardi : 08h30 √† 20h30
Mercredi : 08h30 √† 20h30
Jeudi : 08h30 √† 20h30
Vendredi : 08h30 √† 20h30
Samedi : 08h30 √† 20h30
Dimanche : 08h30 √† 12h30"
Lyon,U Express et drive,"52 Rue de la Thibaudi√®re, 69007 Lyon, France",45.74905,4.8473563,""
Lyon,La Maie du 26,"26 Rue Chevreul, 69007 Lyon, France",45.748814,4.83885,"Boulangerie.
Message du 18/03 :
Au lieu de gaspiller, Si vous voulez passer acheter des p√¢tisseries, du pain, de la viennoiserie ( croissant, pain au chocolat, kouign Amann , brioche aux pralines, sabl√©s...), on vous en offre une autre.... AVIS √Ä TOUS LES GOURMANDS !"
Lyon,LEAF MARKET,"254 Avenue Franklin Roosevelt, 69120 Vaulx-en-Velin, France",45.745506,4.9322815,"Pour l'instant pas de changement d'horaire
Ouverture de 9h00 √† 20h00"
Lyon,Supermarch√© Asie,"12 Rue Passet, 69007 Lyon, France",45.754566,4.841541,""
Lyon,Shalimar Restaurant,"39 Quai du Dr Gailleton, 69002 Lyon, France",45.751102,4.8320527,"Ouvert pour la vente a emporter.(19h-22h30)
Vous pouvez commander aussi au 04 78 42 18 20
"
Lyon,Aldo Pizza,"93 Rue Mass√©na, 69006 Lyon, France",45.76568,4.854992,"Pas de changement pour le moment
#NOUVEAUT√â : 
1 PIZZA ACHET√âE = 1 PIZZA OFFERTE !*
7 SUR 7 - JUSQU'√Ä 5 HEURE DU MATIN#
Tel : 04 37 24 06 06"
Lyon,LIBANO PIZZA,"151 Avenue F√©lix Faure, 69003 Lyon, France",45.754536,4.865331,"Pour linstant le restaurant fonctionne aux heures habituelles.
Vous pouvez commander aussi au 09.82.22.51.83 (appel NON surtax√©)"
Lyon,Maestro Pizzas,"11 Place Jules Guesde, 69007 Lyon, France",45.747204,4.8377843,"Uniquement √† emporter
tel 04 72 72 90 90"
Lyon,Chez Jules Boulangerie Victor Hugo,"39 Rue Victor Hugo, 69002 Lyon, France",45.753597,4.8296123,"Nouveaux horaires: 
Ouvert de 7h00-18h00
Vu la situation il est vivement conseill√© d'appeler avant de vous d√©placer.
tel: 09 67 13 16 88
"
Lyon,L'Epicerie Equitable,"78 Rue Montesquieu, 69007 Lyon, France",45.75136,4.8446426,"A compter du 18 mars 2020, 
- l‚Äô√©picerie √©quitable de Lyon ne sera plus accessible physiquement
- les commandes s‚Äôop√©reront uniquement par courriel, t√©l√©phone et pigeon voyageur 
Voici le processus de commande :
1. Vous pr√©parez votre commande id√©ale de chez vous 
2. Vous t√©l√©phonez au 04 37 28 07 71 ou envoyez un courriel √† commandes@epicerie-equitable.com (en laissant votre t√©l√©phone)
3. Nous pr√©parons votre commande
4. Nous vous rappelons pour faire le point
5. Nous proc√©dons √† l‚Äôencaissement s√©curis√© par CB √† distance
6. Nous convenons d‚Äôune heure de RDV entre 9h et 17h
7. Vous passez r√©cup√©rer votre commande d√©j√† r√©gl√©e
8. Vous buvez un coup √† notre sant√©"
Lyon,Biocoop Saxe Gambetta,"15 Avenue Jean Jaur√®s, 69007 Lyon, France",45.752678,4.8466215,"Attention
Nouveaux horaires
Magasin ouvert de  9h-19h30"
Lyon,La Miche Au Vieux Four,"153 Avenue Mar√©chal de Saxe, 69003 Lyon, France",45.754772,4.8470984,"Pour l'instant les horaires habituels sont maintenus. 
Conseille d'appeler avant de vous d√©placer.
tel: 04 78 62 35 55"
Lyon,Fr√©d√©ric Henon Gambetta,"14 Cours Gambetta, 69007 Lyon, France",45.75538,4.8420143,"Pour l'instant les horaires habituels sont maintenus. 
Conseille d'appeler avant de vous d√©placer.
tel: 04 72 73 38 58"
Strasbourg,Restaurant O Brazil,"13 Rue du Jeu-des-Enfants, 67000 Strasbourg, France",48.583416,7.7412286,Notre service √† EMPORTER sera disponible √† tout moment. Toute l‚Äô√©quipe du restaurant O BRAZIL vous souhaite de rester en bonne sant√© et nous tenons √† adresser une grande pens√©e toute particuli√®re au personnel soignant qui ≈ìuvre jours et nuits pour pr√©server notre sant√©.
Strasbourg,Boucherie Chez Julien,"113 Route du Polygone, 67100 Strasbourg, France",48.564507,7.760687,"Chez Julien - 10 % durant toute l‚Äô√©pid√©mie sur la Boucherie Charcuterie Traiteur maison pour nous soutenir nous petit commer√ßant et pr√©server les 5 emplois.

Nous sommes ouvert √† nos horaires habituels tout le long de l‚Äô√©pid√©mie covid 19 mais nous demandons √† notre aimable client√®le de bien vouloir respecter une distance de 1 m√®tre entre chaque personne."
Strasbourg,Mavromm√°tis,"8 Rue d'Austerlitz, 67000 Strasbourg, France",48.578735,7.751891,"Nos boutiques-traiteur (vente √† emporter et livraison √† domicile) restent ouvertes et nous serions ravis de vous accueillir aux horaires suivants :
 Ouvert du lundi au jeudi de 10h √† 20h / vendredi et samedi de 10h √† 21h"
Strasbourg,Biocoop Coquelicot,"6 Rue de la 1√®re Arm√©e, 67000 Strasbourg, France",48.578075,7.749951,"Biocoop est consciente de la situation et se mobilise pour continuer √† vous fournir des produits bio de consommation courante, tout en vous assurant les conditions de s√©curit√© optimales durant vos courses (mesures d‚Äôhygi√®ne et organisation du flux clients)."
Strasbourg,Biocoop,"6 Rue de S√©bastopol, 67000 Strasbourg, France",48.5862,7.7433305,"Biocoop est consciente de la situation et se mobilise pour continuer √† vous fournir des produits bio de consommation courante, tout en vous assurant les conditions de s√©curit√© optimales durant vos courses (mesures d‚Äôhygi√®ne et organisation du flux clients)."
Strasbourg,Maxi Zoo Strasbourg,"38 Rue Charles P√©guy, 67000 Strasbourg, France",48.589283,7.696039,"Pour la nourritures des animaux de compagnie
les horraires sont: 10h-13h / 14h-17h"
Strasbourg,Carrefour City Strasbourg Marseillaise Gallia,"30 Avenue de la Marseillaise, 67000 Strasbourg, France",48.584415,7.757858,
Strasbourg,Carrefour City Strasbourg Vosges,"63 Avenue des Vosges, 67000 Strasbourg, France",48.590145,7.7486978,
Valence,Spidzza Grand'M√®re,"119 Avenue de Romans, 26000 Valence, France",44.93427,4.9050717,""
Valence,Taklope Store Valence,"6 Avenue Victor Hugo, 26000 Valence, France",44.929955,4.8908997,"Horaires √† jour en temps r√©el sur Google. 
Pour tout renseignement : 0986349988
Ou valence@taklope.com"
Valence,BOUTIQUE LAURENT,"30 Rue Emile Augier, 26000 Valence, France",44.931072,4.8914523,"Nouveaux horaires : 9h-13h du mardi au samedi
Livraisons possibles
Commandes et conseils : 04 75 43 65 73 et boutique.laurent@orange.fr"
Valence,"15 Avenue Pierre Semard","15 Avenue Pierre Semard, 26000 Valence, France",44.92857,4.8917465,"tabac,vape,fdj,presse l'oriental"
Valence,LE PARKER,"29 Avenue F√©lix Faure, 26000 Valence, France",44.931236,4.895338,""
Valence,Caisse d'Epargne Chateauvert,"124 Rue Ch√¢teauvert, 26000 Valence, France",44.919888,4.8991094,"Attention l'agence est ouvert au public le matin seulement.
Fermeture tous les jours √† 16h30  "
Valence,Lounge and Vap,"62 Avenue Victor Hugo, 26000 Valence, France",44.92784,4.889679,"Cigarettes √©lectroniques et e-liquides
Permanences: 
mardi / jeudi / samedi -> de 14h √† 18h"
Valence,Poissonnerie Fereyre,"11 Rue de l'Universit√©, 26000 Valence, France",44.931633,4.891228,""
Valence,Fromages _ et Terroirs Valence,"206 Avenue Victor Hugo, 26000 Valence, France",44.920334,4.885746,"Fromagerie cr√®merie, glaces Terre Ad√©lice, √©picerie diverse, confitures, miels, vins, jus de fruits etc....
Horaires : du mardi au dimanche matin. Ouvert le matin et l'apr√®s-midi. Privil√©gier l'apr√®s midi car moins d'affluence. 
T√©l√©phone : 04 75 42 31 61.
Le terminal de paiement et le meuble  de caisse sont nettoy√©s √† l'alcool m√©nager apr√®s chaque client. Nettoyage des mains avant de servir chaque client. "
Valence,Clarabio,"52 Rue du Vivarais, 26320 Saint-Marcel-l√®s-Valence, France",44.96361,4.9444003,""
Valence,Monop'Station,"18 Rue Denis Papin, 26000 Valence, France",44.92803,4.893295,Magasin ferm√© pour virus 
Valence,Comme Trois Pommes,"335 Chemin de l'Olagnier, 26800 Portes-l√®s-Valence, France",44.88218,4.891686,√âpicerie
Valence,G√©ant Casino,"2 Avenue de Romans, 26000 Valence, France",44.942223,4.9202776,"Ouverture 8h
Fermeture 20h30
Hypermarch√© d'alimentation "
Valence,P√¢tisserie ChocolaterieTraiteur Paris Friand Valence - Domaine des Seigneurs COLOMB Fr√©d√©ric,"7 Avenue Pierre Semard, 26000 Valence, France",44.928677,4.891197,"Horaires :
Ouvert du Mardi au Samedi de 8h00 √† 18h45 et le Dimanche de 8h00 √† 17h00
T√©l√©phone : 04 75 44 06 76"
Valence,Casino shop,"21 Rue Madier de Montjau, 26000 Valence, France",44.933285,4.892648,"Horaires exceptionnels: 
Lundi au Samedi de 7h30 √† 20h00
Dimanche de 9h00 √† 20h00
"
Valence,TABAC Presse loto,"48 Avenue Sadi Carnot, 26000 Valence, France",44.93544,4.8970037,"tel 0475409504
du lundi au samedi : 7h-18h
dimanche : 7h-12h"
Valence,Le Sun Bay Tabac Presse Loto caf√© bar,"26000 Valence, France",44.89935,4.8879323,"7h - 13h"
Valence,CHICKENS RUN,"47 Rue Faventines, 26000 Valence, France",44.92985,4.8979306,""
Valence,Agence Dumond,"Zone Industriel des Aur√©ats, 81 Bis Rue des Mourettes, 26000 Valence, France",44.893627,4.890048,"Permanence de 9h00 √† 16h00 pour les urgences.
Evitons les d√©placements pour un entretien. Prenez soin de vous et votre familleüò∑üò∑
04 75 44 41 95"
Valence,G√©ant Casino,"Avenue de Provence Quartier, Rue de Chantecouriol, 26000 Valence, France",44.907635,4.8783174,"Ouvert 7 jours sur 7
Du lundi √† samedi de 8h √†  20h30
Le dimanche de 9h √† 21h"
Valence,Intermarch√© Super VALENCE,"362 Rue Faventines, 26000 Valence, France",44.9122,4.9130363,""
Valence,L'Objectiforme,"1 Rue des Repenties, 26000 Valence, France",44.93098,4.8882885,"Ouvert de 8h30-12h.
Attention ouvert uniquement pour les compl√©ments alimentaires et nutrition sportive"
Valence,La Poste Carre Enterprises,"69 Avenue de la Marne, 26000 Valence, France",44.933647,4.897936,"ouvert aussi aux particulier
pas plus de 2 personnes dans le local "
Valence,M√âDIAPHONE DISCOUNT,"50 Rue Madier de Montjau, 26000 Valence, France",44.932774,4.893316,"Horaires exceptionnels: 
Ouverture de 14h √† 18h

Possibilit√© de se faire livrer son telephone √† domicile"
Valence,M√âDIAPHONE DISCOUNT,"116 Avenue de Provence, 26320 Saint-Marcel-l√®s-Valence, France",44.96696,4.9484234,"Horaires exceptionnels: 
Ouverture de 14h √† 18h

Possibilit√© de se faire livrer son telephone √† domicile"
Valence,M√âDIAPHONE DISCOUNT,"Centre commercial Auchan, 1449 Avenue de la R√©publique, 07500 Guilherand-Granges, France",44.937935,4.865602,"Horaires exceptionnels: 
Ouverture de 14h √† 18h

Possibilit√© de se faire livrer son telephone √† domicile"
Valence,Officiel Mobile Service,"20 Avenue Victor Hugo, 26000 Valence, France",44.929455,4.8906307,"Horaires exceptionnels: 
Ouverture de 14h √† 18h

Possibilit√© de se faire livrer son telephone √† domicile"
Valence,La Tartine,"210 Avenue Victor Hugo, 26000 Valence, France",44.92008,4.8857036,Matin jusqu'√† 12h30 sauf le mercredi 
Valence,Auchan GUILHERAND-GRANGES,"1449 Avenue de la R√©publique, 07500 Guilherand-Granges, France",44.937653,4.86527,""
Valence,ALDI,"Angle 331 Avenue Victor Hugo et, Rue Benjamin Franklin, 26000 Valence, France",44.91621,4.8858366,"10h 13h et 14h -18h "
Valence,Cr√©dit Mutuel,"28 Avenue Victor Hugo, 26000 Valence, France",44.929207,4.890364,"CR√âDIT MUTUEL, Banque, assurances, t√©l√©phonie. ouvert du mardi au vendredi de 9h √† 12h et de 14h √† 17h, le samedi de 9h √† 12h. Vous pouvez nous contacter par mail 08903@creditmutuel.fr, t√©l√©phone 04 75 80 37 76."
Valence,Boucherie le Mistral,"126 Rue Louis Pasteur, 07500 Guilherand-Granges, France",44.933247,4.8807964,"Changement d'horaires √† partir de Lundi 23:
Boucherie charcuterie traiteur "
Valence,Au Comptoir Fruitier,"19 Place Europe, 26000 Valence, France",44.930725,4.9238353,""
Valence,Super Qi,"36 Rue Bouffier, 26000 Valence, France",44.933395,4.894732,"Horaires: 15H00-18H30
Livraison √† domicile possible sur Valence et dans un rayon de 15 kms autour de Valence.
T√©l: 04 75 55 50 67 
NB: Pour laisser un message afin d'√™tre recontact√© : 06 08 99 69 59"
Valence,Boulangerie P√¢tisserie Serre SARL,"13 Grande Rue, 26000 Valence, France",44.933716,4.891087,"Horaires exceptionnels: 
Matin de 7h15 √† 13h15
Apr√®s-midi 16h15 √† 17h15"
Valence,Boucherie Simonian,"Place du Pr√©sidial, 26000 Valence, France",44.932014,4.8895564,"Horaires exceptionnels: FERME APRESMIDI 
Ouverture de 7h √† 12h30"
Valence,Merveill'Home,"5 Rue Jeu de Paume, 26000 Valence, France",44.932377,4.894222,"Commande en ligne sur le eshop www.merveill-home.com/shop
Livraison √† domicile (d√©p√¥t des commandes dans le hall de votre immeuble ou derri√®re votre portail en maison individuelle sur rdv, envoi de sms une fois le d√©p√¥t effectu√© pour que vous r√©cup√©riez votre colis)"
Valence,Carbone Z√©ro,"24 Rue Denis Papin, 26000 Valence, France",44.928673,4.893174,"Horaires exceptionnels: 
Mardi au Vendredi de 9h √† 12h00"
Valence,day by day - Mon √©picerie en vrac,"48 Rue Madier de Montjau, 26000 Valence, France",44.93272,4.893242,""
Valence,O'CANEO,"124 Avenue de la Lib√©ration, 26000 Valence, France",44.906498,4.885457,"Alimentation chiens et chats et accessoires chiens, acc√®s r√©duit au magasin pour limiter les risques. 
Horaires du lundi au vendredi 10h-13h // 16h-19h
Samedi 10h-15h"
Valence,KALAO,"Plateau des Couleures, Place Jean Rostand, 26000 Valence, France",44.950417,4.926188,"Lundi de 14h √† 19h
Du mardi au samedi de 9h √† 19h
04 75 56 94 20"
Valence,Carrefour Express,"122 Rue Ch√¢teauvert, 26000 Valence, France",44.9201,4.8990483,""
Valence,Mairie de Valence,"1 Place de la Libert√©, 26000 Valence, France",44.933163,4.892158,"L‚ÄôH√¥tel de ville et le service d'√©tat civil sont ouverts du lundi au vendredi de 9h00 √† 17h00. Merci de privil√©gier les √©changes t√©l√©phoniques et les formulaires du site internet.
Contact : 04 75 79 20 00
Les actes trait√©s en priorit√© : actes de naissance, d√©c√®s et mariage.
+ d‚Äôinfos sur www.valence.fr et facebook
 
+ les plages horaires √† modifier :
lundi 9h ‚Äì 17h
mardi 9h ‚Äì 17h
mercredi 9h ‚Äì 17h
jeudi 9h ‚Äì 17h
vendredi 9h ‚Äì 17h"
Valence,My Little Warung Valence,"4 Grande Rue, 26000 Valence, France",44.93405,4.8909516,"PROVISOIREMENT FERME
"
Valence,"La Valentinoise, Brasserie artisanale de Valence","11 Rue Sabaterie, 26000 Valence, France",44.933723,4.890467,"Pendant la p√©riode de confinement, La Brasserie propose un service gratuit de livraison des bi√®res √† domicile pour l'agglom√©ration de Valence. Vous pouvez passer commande via le site internet : www.brasserielavalentinoise.fr ou sur FB : La Valentinoise, bi√®re de Valence."
Valence,La Ferme Maubourg,"Rue Servan, 26000 Valence, France",44.933147,4.9015517,Horaires d‚Äôouverture de 9h00 √† 19h00
Valence,Lidl,"153 Avenue de Romans, 26000 Valence, France",44.93481,4.9067645,""
Valence,Chez Gayane,"97 Rue Denis Papin, 26000 Valence, France",44.92212,4.890659,"OUVERT DU LUNDI AU SAMEDI SOIR A PARTIR DE 18H 30
SPECIALITE LIBANO ARMENIENNE A EMPORTER OU LIVRER A DOMICILE SUR UBER EAT
TEL 09 50 89 22 41 OU 06 64 09 63 66"
Valence,P√¢tisserie Chocolaterie Traiteur Paris Friand COLOMB Fr√©d√©ric Valence,"5 Rue des Alpes, 26000 Valence, France",44.92982,4.8955874,"Horaires d'ouverture:
Ouvert du Mardi au Samedi de 8h15 √† 13h30 et de 15h15 √† 19h00 et le Dimanche de 8h15 √† 13h00
T√©l√©phone : 04 75 42 37 82"
Valence,P√¢tisserie Boulangerie MOUGEL,"22 Avenue Pierre Semard, 26000 Valence, France",44.92822,4.89187,"Horaires exceptionnels: 
Ouverture de 7h √† 12h30"
Valence,Green'Box,"15 Place St Jean, 26000 Valence, France",44.93412,4.891269,Pour l'instant pas de changement. 
Valence,Carrefour City,"58 Rue Madier de Montjau, 26000 Valence, France",44.932636,4.893808,"Horaires exceptionnels: 
Ouverture de 7h √† 19h45"
Valence,Le Pain de Sucre,"95 Avenue Sadi Carnot, 26000 Valence, France",44.932964,4.8963423,"Horaires exceptionnels: 
Ouverture de 6h √† 13h tous les jours"
Valence,Carrefour City,"164 Avenue Victor Hugo, 26000 Valence, France",44.922253,4.8864355,"Horaires exceptionnels: 
Ouverture de 9h √† 20h"
Valence,Smokys Pizza,"28 Avenue Pierre Semard, 26000 Valence, France",44.92818,4.892267,"Ouverture jusqu'a minuit:
Choisissez en ligne et commandez par t√©l au 04.75.44.26.26 ou passes par les plateformes de livraisons UberEats Delivroo

"
Valence,Biocoop Victor Hugo,"333 Avenue Victor Hugo, 26000 Valence, France",44.915623,4.885506,"Nous restons OUVERT avec les m√™mes horaires!
Contact: 04 75 85 61 87"
Valence,Maison de la Presse Valence,"8 Place Aristide Briand, 26000 Valence, France",44.92876,4.8896823,"Nouveaux horaires 
Ouverture de 6h00 √† 15h00"
Valence,MONOPRIX,"2 Avenue Pierre Semard, 26000 Valence, France",44.928493,4.8907866,Pas de changement d'horaires pour le moment
Valence,Honorin Boulangerie,"10 Place Aristide Briand, 26000 Valence, France",44.92872,4.889835,Fermeture √† 15h00
Valence,Maison Pognes Nivon,"17 Avenue Pierre Semard, 26000 Valence, France",44.928505,4.891897,"Changement d'horaires
Ouverture de 6h00 √† 13h00"
Valence,gramme et kilogramme,"6 Grande Rue, 26000 Valence, France",44.93385,4.8908362," INFO - Gramme et Kilogramme reste ouvert mais sera ferm√© d√®s 18h00 !! tous les soirs (pas d'autre changement d'horaire pour le moment)
- Privil√©giez le paiement CB et sans contact.
- Pensez √† apporter vos sacs/paniers/cabas dans la mesure du possible.
- Laissez une distance d'au moins 1 m entre chaque personne.
- L'acc√®s au magasin sera limit√© sur les p√©riodes d'affluence, nous vous demanderons peut-√™tre d'attendre un peu dehors.
Il n'y a aucune rupture annonc√©e, donc pas besoin de trop stocker...
Soyons toutes et tous responsables les uns des autres pour passer ce moment difficile et nous avons confiance en vous pour que cela se fasse dans les meilleures conditions possibles.
"
Valence,Chamas Tacos¬Æ Valence,"7 Avenue du Champ de Mars, 26000 Valence, France",44.928463,4.889071,Fonctionne seulement avec les plateformes de livraisons (UberEats / Delivroo)
Valence,"Office Notarial de Ma√Ætre C√©dric VALHIER, Notaire √† VALENCE","82 Avenue de Romans, 26000 Valence, France",44.934036,4.9053593,Disponible par email & telephone
Rennes,Scarab√©e Biocoop Rennes Rue Vasselot,"10 Rue Vasselot, 35000 Rennes, France",48.108562,-1.6788349,"Pas de changement d'horaires d'ouverture.

""Bonjour √† tous, suite √† vos nombreuses questions, nos magasins seront bien approvisionn√©s pour les rayons alimentaires en priorit√©. Pas de panique donc et pas besoin de faire du stockage. Plus d'info sur notre actualit√© sur ce lien : https://scarabee-biocoop.fr/actualites-bio/lapprovisionnement-en-magasin-pas-de-panique"""
Rennes,La Vie Claire Rennes,"7 Rue Poullain Duparc, 35000 Rennes, France",48.1085,-1.6805464,"Pour l'instant pas de changement d'horaires.
Contact : 02 99 79 18 30"
Paris,Agrology,"15 Rue de Prague, 75012 Paris, France",48.849747,2.3757248,"Info coronavirus 
üìÖNous sommes ouvert du mardi au samedi de 11h √† 19h
üöölivraisons dans un rayon de 10km
‚òéÔ∏ècommandes sur info@agrology et au 01 58 51 05 49.
Arrivages toutes les semaines de produits frais de nos producteurs chouchous pour les soutenir!
#agrology #lefooding #paris12 #restezchezvous #goodfood
#goodproducts #mediterraneanspirit #jesoutiensmesproducteurs"
Paris,La Vie Claire,"53 Rue Custine, 75018 Paris, France",48.88947,2.343599,"Horaires exceptionnels: 
Mardi au Dimanche de 9h00 √† 13h30 et de 15h30 √† 19h00 
Ferme le Lundi"
Paris,Bio c' Bon Paris Poteau,"60 Rue du Poteau, 75018 Paris, France",48.8952,2.3404121,"Horaires exceptionnels: 
Lundi au Samedi de 10h √† 19h 
Dimanche de 10h √† 13h30"
Paris,Paris Bio,"50 Rue des Plantes, 75014 Paris, France",48.828796,2.3221338,
Paris,J' M LE BIO,"45 Boulevard Saint-Germain, 75005 Paris, France",48.84959,2.3497133,"Horaires exceptionnels: 
Ouverture de 8h45 √† 18h"
Paris,Altervojo,"127 Avenue Parmentier, 75011 Paris, France",48.86921,2.3714652,"Horaires exceptionnels: 
Ouverture de 9h17 √† 19h15"
Paris,Biocoop Lancry,"45 Rue de Lancry, 75010 Paris, France",48.871326,2.3617682,"Ch√®res clientes, chers clients,
Afin de garantir votre s√©curit√© et celle de nos salari√©s, notre magasin du 45 rue de Lancry est ferm√© jusqu‚Äô√† nouvel ordre.
Nous prenons le temps de r√©organiser l‚Äô√©quipe et nous vous pr√©viendrons de la r√©ouverture du magasin et des nouveaux horaires bient√¥t. 
Prenez soin de vous et de vos proches.
L‚Äô√©quipe Biocoop Lancry"
Paris,Biocoop La R√©publique,"19 Avenue de la R√©publique, 75011 Paris, France",48.866188,2.3705387,"Horaires exceptionnels: 
Lundi au Samedi de 10h √† 18h"
Paris,Bio c' Bon Paris Parmentier,"52 Avenue Parmentier, 75011 Paris, France",48.862385,2.3769186,"[IMPORTANT] L'ensemble de nos magasins (SAUF IDF) adaptent leurs horaires jusqu'√† nouvel ordre afin de vous servir dans les meilleures conditions possibles. Nous serons ouverts du lundi au samedi de 10h √† 14h et de 15h √† 18h afin de vous servir au mieux ! Les horaires restent inchang√©s le dimanche.
Nous suivons de pr√®s l‚Äô√©volution de la situation et nous vous tiendrons au courant des √©ventuels changements. Restons bienveillants et solidaires en cette p√©riode difficile ! "
Mantes-la-Jolie,Les Chocolats d'Isa,"3 Rue des Halles, 78200 Mantes-la-Jolie, France",48.990616,1.7171386,"Les Chocolats d‚ÄôIsa est ouvert √† minima les mardis mercredis et jeudis matin 
Les vendredis et samedis de 9h30 √† 13h et de 14h30 √† 17h 
Vous pouvez passer vos commandes au 0130639907"
Mantes-la-Jolie,Comme √† la Ferme,"4 Rue de l'Ard√®che, 78200 Buchelay, France",48.9922,1.6716331,"Comme √† la Ferme reste ouvert pendant cette p√©riode de confinement et vous propose d√©sormais de passer commande par t√©l√©phone 01 30 63 35 45 aux heures d‚Äôouverture du magasin et 48 heures avant le retrait de la marchandise. Heures d'ouverture : Mardi Mercredi Jeudi : 9h30 - 12h30, 14h - 19h30 / Vendredi Samedi : 9h30 - 19h30
"
Mantes-la-Jolie,Biocoop du Mantois,"2 Rue d'Alsace, 78200 Mantes-la-Jolie, France",48.99096,1.7157516,
Mantes-la-Jolie,"6 Rue la Fontaine","6 Rue la Fontaine, 78200 Mantes-la-Jolie, France",48.99899,1.6856605,"ouvert du lundi au vendredi de 9h √† 12h et de 14h √† 17h, ferm√© le samedi √† minima jusqu‚Äôau 11 avril."
Mantes-la-Jolie,Le Jardin des Hesp√©rides,"22 Rue du Vieux Pilori, 78200 Mantes-la-Jolie, France",48.990665,1.7154433,ouvert que le mardi de 10h √† 16h
Mantes-la-Jolie,Mr Bricolage,"13 Boulevard Victor Duhamel, 78200 Mantes-la-Jolie, France",48.98532,1.7171315,"9h- 12.40 / 14h-18.00 et ferm√© le dimanche"
Mantes-la-Jolie,Maison Guitton,"13 Boulevard Victor Duhamel, 78200 Mantes-la-Jolie, France",48.98528,1.7173798,"13 Boulevard Victor Duhamel / ouverte du lundi au vendredi de 7h √† 19h et le dimanche de 7h √† 14h"
Mantes-la-Jolie,Hypnosis Mantes,"10 Rue Saint-Roch, 78200 Mantes-la-Jolie, France",48.99233,1.7142274,"En cette p√©riode de crise, mon objectif est de rendre accessible l‚Äôhypnose √† toutes les personnes ayant besoin de soutien. Convaincu des bienfaits de l‚Äôhypnose, je vous offre ce tarif solidarit√© COVID-19.
‚Ä¢ Anxi√©t√©
‚Ä¢ Stress
‚Ä¢ Relaxation
‚Ä¢ Motivation & Encouragement
‚Ä¢ Renforcement du syst√®me immunitaire
‚Ä¢ Fatigue & √âpuisement
‚Ä¢ Tristesse & M√©lancolie"
Mantes-la-Jolie,"20 Rue des Merisiers","20 Rue des Merisiers, 78200 Magnanville, France",48.97885,1.6996632,"BEAU MARCHE - 20 rue des Merisiers √† Magnanville (Ex Sodeviam) : Viandes / Fromage / Fruits / L√©gumes / √âpicerie : horaires pour toute la dur√©e du confinement : du mardi au samedi ouverture de 09 heures √† 13 heures & Livraison √† domicile tout les apr√®s-midi sur les environs
Commande √† passer le matin par t√©l au 01 30 98 63 00"
Mantes-la-Jolie,Carrefour Market,"5 Rue du Lavoir, 78200 Mantes-la-Jolie, France",48.987885,1.7110794,""
Mantes-la-Jolie,La Divette,"26 Avenue de la R√©publique, 78200 Mantes-la-Jolie, France",48.989944,1.7125536,"Tabac :
Ouvert le vendredi de 10h00 √† 16h"
Mantes-la-Jolie,Bar Tabac Le Havane,"31 Rue Porte aux Saints, 78200 Mantes-la-Jolie, France",48.988037,1.7179945,"Tabac :
Ouvert le jeudi de 10h00 √† 16h"
Mantes-la-Jolie,Le Celtique,"59 Rue de Gassicourt, 78200 Mantes-la-Jolie, France",48.993324,1.7074648,"Tabac :
Ouvert le mercredi de 10h00 √† 16h"
Mantes-la-Jolie,Le Brazza,"7 Bis Rue Marie et Robert Dubois, 78200 Mantes-la-Jolie, France",48.990025,1.718469,"Tabac :
Ouvert le mardi de 10h00 √† 16h"
Mantes-la-Jolie,"43 Rue nationale","43 Rue nationale, 78200 Mantes-la-Jolie, France",48.99002,1.7168291,"Tabac - Le Balto :
Ouvert le lundi de 10h00 √† 16h"
Mantes-la-Jolie,Boucherie Chanzy,"16 Place du March√© au Bl√©, 78200 Mantes-la-Jolie, France",48.99098,1.716515,Ouvert du mardi au vendredi de 9h √†  12h30 puis de 15h √† 18h et le samedi de 9h √† 18h
Mantes-la-Jolie,"4 Rue des Carri√®res","4 Rue des Carri√®res, 78520 Limay, France",48.995827,1.7517899,"Les Halles de limay, magasins de fruits et l√©gumes et produits frais "
Mantes-la-Jolie,L' EPICURIEN,"21 Rue Chanzy, 78200 Mantes-la-Jolie, France",48.990067,1.7155921,Cave √† vins - Epicerie fine -th√©
Mantes-la-Jolie,day by day - Mon √©picerie en vrac,"32 Rue Chanzy, 78200 Mantes-la-Jolie, France",48.989853,1.715105,""
Mantes-la-Jolie,"27 Avenue de la R√©publique","27 Avenue de la R√©publique, 78200 Mantes-la-Jolie, France",48.989914,1.7117208,"JWELL (boutique de cigarettes √©lectroniques)
Ouvert du lundi au samedi de 10h √† 19h30
Livraison : oui
T√©l√©phone : 07 78 11 60 13 "
Mantes-la-Jolie,Tabac du March√©,"7 Rue de l'√éle de France, 78711 Mantes-la-Ville, France",48.979935,1.7110097,"7 Rue de l'√éle de France, 78711 Mantes-la-Ville"
Mantes-la-Jolie,Les Douceurs de Mantes,"42 Rue nationale, 78200 Mantes-la-Jolie, France",48.990364,1.7170213,
Mantes-la-Jolie,At Bread Chailli,"45 Rue nationale, 78200 Mantes-la-Jolie, France",48.990063,1.7167131,
Mantes-la-Jolie,Franprix,"37 Rue Porte aux Saints, 78200 Mantes-la-Jolie, France",48.987835,1.7179575,
Mantes-la-Jolie,Val'Prim,"Boulevard Georges Clemenceau, 78200 Mantes-la-Jolie, France",48.999866,1.685955,
Mantes-la-Jolie,Relais des Mers,"6 Rue des Halles, 78200 Mantes-la-Jolie, France",48.99064,1.7170314,
Mantes-la-Jolie,Fromagerie Cr√©merie Guilbaud,"14 Rue des Halles, 78200 Mantes-la-Jolie, France",48.990456,1.7170496,
Mantes-la-Jolie,Boucherie des Halles,"5 Rue des Halles, 78200 Mantes-la-Jolie, France",48.99063,1.7171504,
Mantes-la-Jolie,Intermarch√© SUPER Mantes la Jolie et Drive,"16 Rue Jean Ho√´t, 78200 Mantes-la-Jolie, France",48.99797,1.7109354,
Mantes-la-Jolie,MONOPRIX,"27 Rue Gambetta, 78200 Mantes-la-Jolie, France",48.989254,1.7159702,
Mantes-la-Jolie,A La Terrine,"50 Rue nationale, 78200 Mantes-la-Jolie, France",48.990276,1.7166162,
Mantes-la-Jolie,Auchan MANTES,"Chemin D√©partemental 110, 78200 Buchelay, France",48.980198,1.6842422,
Mantes-la-Jolie,Aux Fins D√©lices,"22 Rue Chanzy, 78200 Mantes-la-Jolie, France",48.990074,1.7154583,
Mantes-la-Jolie,Le Lys d'Or - Burger & Bar √† Cocktails,"3 rue de Colmar, 4 Rue Cadotte, 78200 Mantes-la-Jolie, France",48.98984,1.7167227,
Saint-P√©ray,La Baguetterie,"767 Avenue Gross Umstadt, 07130 Saint-P√©ray, France",44.94207,4.861126,"Horaires exceptionnels: 
Ouverture de 5h √† 18h
"
Saint-P√©ray,Boulangerie Marie Blach√®re,"Avenue Gross Umstadt, 07130 Saint-P√©ray, France",44.943165,4.8587575,"Horaires exceptionnels: 
Ouverture de 7h30 √† 18h30"
Saint-P√©ray,Boucherie DEMARS,"629 Avenue Gross Umstadt, 07130 Saint-P√©ray, France",44.9429,4.8602242,"Horaires exceptionnels
Ouvert seulement le matin de 7h30 √† 12h30 "
Saint-P√©ray,Vival,"10 Place de la Mairie, 07130 Saint-P√©ray, France",44.944096,4.8411713,"Nouveaux horaire a definir 
Conseill√© d'appeler avant de vous d√©placer
tel: 04 75 40 51 10"
Saint-P√©ray,Au Fournil de Nicolas,"10 Rue Ferdinand Malet, 07130 Saint-P√©ray, France",44.943367,4.8409004,"Nouveaux horaires a partir du 18 Mars
6h00 - 14h00"
Saint-P√©ray,Satoriz,"100 avenue Gross Umstadt Zone Murets Satoriz, 07130 Saint-P√©ray, France",44.944775,4.854303,Nouveaux horaires 10:00 - 17:00
Saint-P√©ray,Boucherie Charcuterie Traiteur Marlard,"70 Rue de la R√©publique, 07130 Saint-P√©ray, France",44.944542,4.841819,"""Chers clients,
En ces moments tr√®s difficiles notre priorit√© absolu est de prot√©ger nos clients et notre √©quipe afin de limiter au maximum la propagation du virus, nous avons pris les mesures qui s'imposent naturellement dans un cas aussi exceptionnel.
N‚Äôh√©sitez pas √† passer vos commandes au 04.75.40.30.52, par mail, ou par Facebook. Afin de g√©rer au mieux la situation, pour √©viter les attentes trop longue en magasin et la rupture de stock de certains produits. 
Votre boucherie traiteur est ouverte aux horaires habituels :
Mardi : 6h30 - 19h30
Mercredi : 6h30 - 12h30 
Jeudi, vendredi, samedi : 6h30-19h30
Dimanche : 7h30 - 12h15 
Notre √©quipe vous y accueillent en suivant les r√®gles d'hygi√®ne les plus strictes, nettoyer et d√©sinfecter l√† poignet de porte ainsi que l‚Äôappareil √† carte bleu r√©guli√®rement, lavage des mains et/ou d√©sinfecter avec une solution hydroalcoolique entre chaque paiements nous vous servirons (comme d‚Äôhabitude) avec des gants sur chaque mains, portant chacun un masque et limitant le nombre de clients par 2 au sein de l'√©tablissements. 
Nous vous remercions de respecter les r√®gles sanitaires pour √©viter tout risque de contagion, notamment de conserver une distance minimum de 1 m√®tre entre vous dans la file d'attente.
La boutique met en place des services de livraison sur St-peray, Guilherand-Grange, Cornas et Toulaud (uniquement produits frais pour un minimum de 10‚Ç¨) le mardi, jeudi, vendredi et samedi de 12h √† 14h et de 16h √† 18h, par t√©l√©phone/Facebook
Soyons tous responsables, prot√©geons nous, prot√©geons les plus fragiles, et nos proches. 
Bon courage √† vous dans cet √©preuve.
Morgane, Paul-Alexandre, Guillaume et Alicia."""
Grenoble,"29 Cours Jean Jaur√®s","29 Cours Jean Jaur√®s, 38000 Grenoble, France",45.18772,5.719244,"Boulangerie S√©same
6h30 - 20h00"
Vall√©e de la Dr√¥me,Domaine Distaise,"4860 Route de Loriol, 26400 Grane, France",44.755386,4.867286,charcuterie - commandes par mail : charcuterie@distaise.com  ou par SMS ou tel : 06.15.62.84.17 et 06.24.72.81.59
Vall√©e de la Dr√¥me,Du verger au panier,"37 Chemin de Pren Te Garde, 07800 La Voulte-sur-Rh√¥ne, France",44.790104,4.7798266,"Produits de la ferme -
Passez commande au port. 06 01 33 87 61 ou par Email : duvergeraupanier07@gmail.com"
Vall√©e de la Dr√¥me,Carr√© de Sc√®ne,"34 Avenue L√©on Aubin, 26250 Livron-sur-Dr√¥me, France",44.773113,4.844733,"04 82 53 00 42
Lundi 14h / 18h30- du mardi au vendredi 8h / 12h ‚Äì 14h / 18h30 - Samedi 9h / 12h ‚Äì 14h / 17h"
Vall√©e de la Dr√¥me,Epicerie MMM,"45 Avenue L√©on Aubin, 26250 Livron, France",44.774456,4.8463316,Tous les jours de 9h √† 20h - 09 50 39 23 32
Vall√©e de la Dr√¥me,Des r√™ves gourmands,"Route Nationale 7 Quartier Saint-Blaise, 26250 Livron-sur-Dr√¥me, France",44.77705,4.847329,Ouvert de 4h30 √† 19h30 tous les jours - 04 75 85 39 26
Vall√©e de la Dr√¥me,Place des Moulins,"Place des Moulins, 26400 Crest, France",44.729046,5.026723,"BioDrive de produits fermiers et bio √† Crest. Ce bioDrive permet √† chacun de commander et payer en ligne du mardi 14h au jeudi soir 22h, sur le lien suivant : https://www.openfoodfrance.org/biodrivecrest/shop - Retrait des paniers le samedi matin entre 8h et 12hsur la terrasse de la boulangerie Biodelys, place des moulins √† Crest.Tout sera mis en place pour que les mesures sanitaires soient respect√©es au moment du retrait des paniers."
Vall√©e de la Dr√¥me,"Dessine moi une brebis, Fromages & Yaourts de brebis, Viande d'agnelet, veau et cochon, charcuterie","Payoursel, 26120 La Baume-Cornillane, France",44.81666,5.039423,"Du mardi au vendredi de 17h √† 19h. T√®l : 06 59 54 11 66
Boutique en ligne : www.boutique.dessinemoiunebrebis.com "
Vall√©e de la Dr√¥me,Le Ch√¢teau,"Le Ch√¢teau, 26340 Aubenasson, France",44.671623,5.138935,Ferme des Balcons de la Dr√¥me - Commande de cabris bio √©lev√©s sous leurs m√®res par 1/2 ou entiers √† 16‚Ç¨/kg. Livraisons possibles dans un rayon de 30km autour d'Aubenasson. Fromages de ch√®vres √† partir de mi/fin avril aussi (livraisons et vente sur place sur rdv) T√®l : 06/26/37/15/20 - mariepascale.ac26@yahoo.fr
Vall√©e de la Dr√¥me,La Charrette,"188 Avenue Jean Rabot, 26400 Crest, France",44.72507,5.0216017,"Ouvert mardi, vendredi de 8h30 √† 12h30 et de 14h30 √† 19h / mercredi, jeudi, samedi de 8h30 √† 13h00
Commandes possibles par mail √† lacharrettecrest@gmail.com"
Vall√©e de la Dr√¥me,Cross-country,"ZA des Blaches, 70 70 chemin de bras de zil, 26270 Loriol-sur-Dr√¥me, France",44.740868,4.8058414,"Magasin de producteurs : mardi, mercredi, vendredi : 9h-13h et 15h-19h / Samedi de 9h √† 13h"
Vall√©e de la Dr√¥me,Aur√©l auto,"33 Rue Gustave Eiffel, 26400 Crest, France",44.732,5.0103765,Du lundi au vendredi : de 9h √† 18h sur RDV au 06 44 02 95 15   
Vall√©e de la Dr√¥me,Biodelys,"Place des Moulins, 26400 Crest, France",44.72904,5.027137,Lundi de 9h √† 13h30 et de 16h30 √† 18h 8h et du mardi au samedi de 8h √† 13h30 et de 16h30 √† 18h - Commande par t√©l√©phone au 04 26 52 72 70
Vall√©e de la Dr√¥me,SOUBEYRAND COCHET,"11 Rue Maurice Long, 26400 Crest, France",44.727737,5.0217094,"Horaires (√† partir du 24 mars) du
Mardi au dimanche de 7h 30 √† 12h30. 
Apr√®s-midis  r√©serv√©es aux livraisons.
Commande : 04 75 25 47 34
patisserie.soubeyrand.cochet@gmail.com"
Vall√©e de la Dr√¥me,L'Etincelle du Centre-ville,"10 Cours de Verdun, 26400 Crest, France",44.727352,5.022751,"Ferm√© mais commande possible avec r√©cup√©ration √† la Plaine.  Pour recevoir le catalogue et les modalit√©s de commandes √† distance, adressez-nous un mail √† bonjour@letincelle.bio (uniquement par mail, merci).
Vous pouvez nous joindre √† La Plaine Bio au 04.75.56.59.29."
Vall√©e de la Dr√¥me,La Ferme des Buis,"Les Buis, 26400 La Roche-sur-Grane, France",44.66513,4.940304,"Vente √† la ferme de produits laitiers et de viandes, du lundi au vendredi de 9h √† 12h30 et de 16h30 √† 18h - 06 33 26 26 41 - redyne121@gmail.com"
Vall√©e de la Dr√¥me,la ferme de Saint Pancrace,"les Davins, 26400 Suze, France",44.76099,5.103692,Vente √† la ferme de produits laitiers de ch√®vres tous les jours de 9h √† 12h et de 18h √† 19h - 07 60 17 26 27 - fermesaintpancrace@gmail.com
Vall√©e de la Dr√¥me,CVIA,"8 Rue Gustave Eiffel, 26400 Crest, France",44.73178,5.0095882,Ouvert du lundi au vendredi de 9h √† 12h et de 14h √† 16h - Tel : 04 75 25 02 82
Vall√©e de la Dr√¥me,Lilice Artisan Fleuriste,"28 Avenue L√©on Aubin, 26250 Livron-sur-Dr√¥me, France",44.772953,4.844386,"Suite aux d√©cisions gouvernementales, la boutique est physiquement ferm√©e, mais, nous pouvons encore prendre commande et vous livrer.
Pour nous contacter 06 98 08 32 22/ liliceartisanfleuriste@orange.fr / Facebook : Lilice Artisan Fleuriste (mise √† jour du stock, en photo, via ce r√©seau)
Profitez-en, livraison OFFERTE sur Livron - Loriol - Allex - Fiancey - Gr√¢ne - Saulce - Les Petits Robins..."
Vall√©e de la Dr√¥me,Gaec Ferme de l'auberge,"Lambres, 26400 Divajeu, France",44.707626,5.0051427,"march√© √† la ferme de Divajeu les lundis de 16h √† 18h - 04 75 80 29 34 - producteurs pr√©sents : Yann la Petite Boulange , David de la Ferme des Buis avec  fromages et yaourts de brebis, Th√©ophane de la Ferme des Bruy√®res Natacha pour le GAEC, St√©phane Chauplannaz et Galcerand Serralongue... et aussi Fanny, David et Natacha... "
Vall√©e de la Dr√¥me,Sarl Boulangerie Patisserie Rey Michel Michel,"Lieu-dit Les Petits Robins, 26250 Livron-sur-Dr√¥me, France",44.802055,4.817182,"Ouvert de 7h √† 13h (fermeture quand il n'y a plus de pain).
Tous les jours sauf le mardi. 04 75 61 60 24"
Vall√©e de la Dr√¥me,Casino Supermarche,"Rue Jean Jaur√®s, 26400 Crest, France",44.738144,5.0045724,"Lundi, Mardi, Mercredi, Jeudi et Dimanche : de 8h  √† 20h. 
Vendredi et samedi : de 8h √† 24h
Drive possible
T√®l. 04 75 79 69 00
"
Vall√©e de la Dr√¥me,GARAGE FABRICE FRAUD - PEUGEOT,"6 Rue des Fr√®res Lumi√®re, 26250 Livron-sur-Dr√¥me, France",44.78134,4.8282123,"Proc√©dure particuli√®re pendant le confinement : appeler avant au 04 74 61 61 74 -
Ouvert de 8h30 √† 12h et de 14h √† 18h30 du lundi au vendredi"
Vall√©e de la Dr√¥me,JM Traiteur,"40 Chemin des Rami√®res QUARTIER, 26160 La B√©gude-de-Mazenc, France",44.54598,4.9250174,"Ouvert du mardi au vendredi de 8h30 √† 13h00 et de 15h30 √† 18h30 et le dimanche de 9h √† 12h
Livraison gratuite au domicile √† partir de 15‚Ç¨.
04 75 54 69 44"
Vall√©e de la Dr√¥me,Carrefour Market,"Rue Georges Bovet, 26400 Crest, France",44.72895,5.02896,"Horaires :
Lundi au Samedi : de 8h √† 19h
Dimanche : de 8h30 √† 12h

T√®l ; 04 75 25 11 40

"
Vall√©e de la Dr√¥me,Place de la Fontaine,"Place de la Fontaine, 26400 Pi√©gros-la-Clastre, France",44.69919,5.097613,"MIMI March√© - March√© sur commandes au 07 66 56 17 30 et apr√®s inscription de 3‚Ç¨ sur le site mimimarche@jowana.fr
R√©cup√©ration des commandes remises par des b√©n√©voles du village le vendredi, place de la fontaine, √† Pi√©gros, entre 18h et 19h30. 
"
Vall√©e de la Dr√¥me,GARAGE EHD AUTOMOBILES,"590 CHEMIN DE PALERE, 26250 Livron-sur-Dr√¥me, France",44.771706,4.804276,Garage m√©canique  automobiles  toutes marques r√©seau eurorepar  car service  vente et r√©paration  de v√©hicules  ouvert du lundi au vendredi de 08h00 a 12h00 et de 14h00 √† 18h00 le samedi matin ouvert uniquement  sur rendez vous t√©l√©phone  0652322519 mail ehdautomobiles@outlook.fr  
Vall√©e de la Dr√¥me,Imprimerie Papeterie Veziant,"Rue Jean Jaur√®s, 26400 Crest, France",44.7353,5.0068626,"Ouvert du lundi au vendredi de 9h √† 12h.
Pour toutes demandes merci de nous contacter par mail ou t√©l√©phone avant votre venue.
T√©l: 04-75-25-10-52
Mail service papeterie : papeterie@veziant.fr 
Mail service imprimerie : imprimerie@veziant.fr"
Vall√©e de la Dr√¥me,Boucherie de la Tour,"7 Rue Lieutenant Michel Prunet, 26400 Crest, France",44.733288,5.011293,"Horaires :
Mardi au Samedi de 7h30 √† 12h30

T√®l. 04 75 57 74 18


"
Vall√©e de la Dr√¥me,Mairie de Crest,"Place Dr Maurice Rozier, 26400 Crest, France",44.72842,5.024166,"Accueil ouvert du lundi au vendredi de 8h √† 18h et samedi de 9h √† 12h
T√©l : 04 75 76 61 10 - Fax : 04 75 25 00 63
Courriel : admin@mairie-crest.fr"
Vall√©e de la Dr√¥me,La Condamine,"La Condamine, 26400 Aouste-sur-Sye, France",44.708942,5.060067,"COLLINAOU
Commandes possibles soit par mail soit par t√©l√©phone.
-collinaou@gmail.com
-06 18 27 54 61."
Vall√©e de la Dr√¥me,"36 Grande Rue","36 Grande Rue, 26340 Saillans, France",44.696617,5.1971245,"Le local des producteurs ouvert les mardi, mercredi, vendredi et samedi de 9h30 √† 12h30 et de 16h √† 19h. Produits locaux et frais "
Vall√©e de la Dr√¥me,Avenue des C√©vennes,"Avenue des C√©vennes, 26250 Livron-sur-Dr√¥me, France",44.771236,4.8359575,"Serrurerie Thierry Duriez. Maintien des urgences uniquement - sur Livron et ses environs- 7j/7 24h/24 durant la dur√©e du confinement aux tarifs habituels consultables sur tdslivron.com
06 50 14 19 81"
Vall√©e de la Dr√¥me,Lidl Avenue Albert Mazade,"18 Rue Jean Giono, 26250 Livron-sur-Dr√¥me, France",44.77853,4.833251,Du lundi au vendredi de 8h30 √† 19h et samedi de 8h30 √† 19h30 
Vall√©e de la Dr√¥me,La Carline,"21 Rue du Viaduc, 26150 Die, France",44.752262,5.37478,"Ouvert sans changement d'horaire : Lundi 15h-19h / Mardi, jeudi et vendredi 9h-12h30 et 15h-19h / Mercredi 9h-13h30 et 15h-19h / Samedi 9h-16h30
Contact au 04 75 22 08 11"
Vall√©e de la Dr√¥me,"L'etincelle,La Plaine","120 chemin de Malastre, ZI la Plaine, 26400 Crest, France",44.732376,4.9972043,"Ferm√©.
Uniquement par Drive. Pour avoir leur catalogue :
bonjour@etincelle.bio
T√®l : 04 75 56 59 29
"
Vall√©e de la Dr√¥me,Bakery Marie Blachere,"5 Avenue de Provence, 26250 Livron-sur-Dr√¥me, France",44.777855,4.8316836,Tous les jours sauf le dimanche de 7h30 √† 17h - 04 75 78 43 70
Vall√©e de la Dr√¥me,"35 Avenue Joseph Combier","35 Avenue Joseph Combier, 26250 Livron-sur-Dr√¥me, France",44.77118,4.8420777,"√âpicerie VIVAL - t√©l 04 75 83 24 33 - Portable 06 85 01 13 21
Pour les commandes √† distance par mail permingeatespeisse@gmail.com"
Vall√©e de la Dr√¥me,Morin Mat√©riaux et Brico,"2 Rue Jean Jaur√®s, 26400 Crest, France",44.73076,5.0065475,Joignable par mail : accueil@morinsa.fr
Vall√©e de la Dr√¥me,Fromagerie G√©rentes - Crest,"All√©e F√©lix Rozier, 26400 Crest, France",44.73337,5.011628,"Horaires :
Mardi au Samedi de 8h30 √† 13h

T√®l. 04 75 25 41 31
"
Vall√©e de la Dr√¥me,Chic Pizza DROME PIZZAS,"46 Avenue Joseph Combier, 26250 Livron-sur-Dr√¥me, France",44.77023,4.8414407,chic pizza ferme ses portes tous les soirs √† 20h30 pour cause de couvre-feu.
Vall√©e de la Dr√¥me,Tabac Presse Loto Varale,"Avenue de Provence, 26250 Livron-sur-Dr√¥me, France",44.777287,4.831021,Ouverture les matins du Lundi au vendredi 7h45-12h et le Samedi 8h-12h - 04 75 85 56 89
Vall√©e de la Dr√¥me,Martin Joseph,"Les-Blaches, 26400 Crest, France",44.716576,5.003735,"Adresse de Martin Fruits et L√©gumes : 88 chemin des Blaches
Mardi et Vendredi de 9h30 √† 12h et de 14h √† 18h. D'autres producteurs seront pr√©sents.
Tel : 04 75  25 47 80"
Vall√©e de la Dr√¥me,L'√©picerie,"D172, 26400 Beaufort-sur-Gervanne, France",44.777447,5.143388,"0972573808
horaires modifi√©s: 9h-12h / 14h-18h
Service de livraison pour les personnes vuln√©rables"
Vall√©e de la Dr√¥me,la ch√®vre qui sao√ªrit,"26400 Saou, France",44.6468,5.042732,"√Ä LA CH√àVRERIE :
‚Ä¢ Tous les jours (sauf le samedi) de 09h00 √† 10h00
vous pouvez nous joindre au 06 11 60 58 68.
SUR LES MARCH√âS :
‚Ä¢ Le samedi matin √† Sao√ª
‚Ä¢ Vous pouvez aussi nous r√©server les produits qui vous int√©resse
par t√©l√©phone afin que nous vous livrions sur les march√©s‚Ä¶ ou √† domicile."
Vall√©e de la Dr√¥me,Pothier Christophe,"17 Avenue Joseph Combier, 26250 Livron-sur-Dr√¥me, France",44.771774,4.8425207,Ouvert de 5h30 √† 13h15 sauf le vendredi et le lundi - 04 75 78 43 70
Vall√©e de la Dr√¥me,Artaud,"25 Place Henri Sibourg, 26250 Livron-sur-Dr√¥me, France",44.77153,4.842168,Boucherie Eric Artaud - Ouvert de 7h √† 13h tous les jours sauf le dimanche et lundi
Vall√©e de la Dr√¥me,Ferme de l'Autruche Dr√¥moise,"1120 Les Bruy√®res, 26250 Livron-sur-Dr√¥me, France",44.809868,4.8804026,"0475628233 ou 0601747314 - du mardi √† vendredi : 16h √† 19h / samedi : 10h √† 12h - 16h √† 19h - Service ¬´ Driv‚Äôautruche ¬ª qui consiste √† nous appeler, passer 
votre commande, effectuer votre paiement √† distance et retirer votre marchandise sans m√™me quitter votre voiture.
"
Vall√©e de la Dr√¥me,Le Caviste,"Centre commercial Provence, 5 Avenue de Provence, 26250 Livron-sur-Dr√¥me, France",44.777763,4.8316092,"Ouvert le matin du lundi au samedi de 8h30 √† 12h30.
Nous mettons en place un syst√®me de livraison, pour toutes commandes contactez le 06 85 01 11 91. Attention changement d'adresse r√©cent au centre commercial Provence."
Vall√©e de la Dr√¥me,Au Florentin,"93 Avenue Joseph Combier, 26250 Livron-sur-Dr√¥me, France",44.769123,4.8412743,"Tous les jours sauf le mercredi - de 6h30 √† 18h - ferme d√®s qu'il n'a plus de pain...
04 75 85 55 69"
Vall√©e de la Dr√¥me,Ar√¥mes Attitude,"11 Place Jean Jaur√®s, 26250 Livron-sur-Dr√¥me, France",44.771774,4.8414297,"Commandes possible par t√©l√©phone au 06 01 83 60 51, 
mail aromes.attitude@fre.fr ou via la page Facebook/aromesattitude 
"
Vall√©e de la Dr√¥me,Pharmacie Centrale de Livron,"19 Avenue Joseph Combier, 26250 Livron-sur-Dr√¥me, France",44.771767,4.842415,"Du lundi au samedi 8h-12h / 14h-19h - le samedi fermeture √† 18h
"
Vall√©e de la Dr√¥me,Pharmacie Blanchard,"10 Avenue L√©on Aubin, 26250 Livron-sur-Dr√¥me, France",44.772366,4.8435035,"du lundi au samedi de 8h30-12 / 14h-19h - 04 75 61 61 50 pharmacieblanchard@gmail.com - Commande en ligne avec r√®glement possible - Livraison
"
Vall√©e de la Dr√¥me,Grande Pharmacie de Livron - Hello Pharmacie,"5 Avenue de Provence, 26250 Livron-sur-Dr√¥me, France",44.77751,4.8315454,"Du lundi au samedi de 8h30-12h / 14h-19h : 04 75 85 56 91 - Pr√©paration et livraison gratuites pour les personnes fragiles et de plus de 70 ans
"
Vall√©e de la Dr√¥me,La Popote Gourmande,"All√©e de Charponnet, 26400 Allex, France",44.764442,4.90321,"06 52 11 43 47 - Snacking √† emporter de 11h √† 14h
Drive plats traiteur de 14h √† 17h
Livraison 20 km maximum et gratuite d√©s 15‚Ç¨ de 17h √† 20h"
Vall√©e de la Dr√¥me,TOTAL,"60 Boulevard du Six Juin 1944, 26400 Crest, France",44.729477,5.017276,A compter du 24 mars ouvert de 8h √† 12h
Vall√©e de la Dr√¥me,La Civette,"15 Rue de L H√¥tel de ville, 26400 Crest, France",44.72825,5.0224223,"A compter du 23 mars ouvert de 8h30 √† 14h30
"
Vall√©e de la Dr√¥me,Pharmacie du Bourg,"7 Rue Sainte-Euph√©mie, 26400 Crest, France",44.730656,5.019262,"Horaires :
Lundi au vendredi : de 9h √† 12h15 et de 14h30 √† 19h
Samedi : de 9h √† 12h00


T√©l. 04 75 25 02 04"
Vall√©e de la Dr√¥me,Boulangerie Borie,"Quartier Bellevue, 26400 Mirabel-et-Blacons, France",44.712063,5.084991,"Lundi ferm√© 
Mardi au dimanche: 6h30-14h
"
Vall√©e de la Dr√¥me,"27 Grande Rue","27 Grande Rue, 26340 Saillans, France",44.696552,5.1965795,"Le magasin bio Le Coing Bio ‚Äì 09 81 65 86 73 ou 06 85 46 37 26 - Ouvert lundi, mardi, jeudi, vendredi et samedi : de 9h √† 12h30 et de 16h √† 19h et le dimanche de 10h √† 13h - Possibilit√© de livraison √† domicile apr√®s demande par mail √† : lecoingbio@hotmail.com
"
Vall√©e de la Dr√¥me,Grimaud,"Rue Doct Illaire, 26340 Saillans, France",44.696217,5.197088,"L'univers de Pascal est ouvert les mardi, jeudi et vendredi de 9h30 √† 12h et de 16h √† 19h.
Tel : 09 63 03 66 44"
Vall√©e de la Dr√¥me,Logis H√¥tel des Voyageurs,"132 Avenue Albert Mazade, 26250 Livron-sur-Dr√¥me, France",44.77882,4.8304973,"H√¥tel Restaurant Vente a emporter
Ouvert de 10 h √† 21 H  pour la vente √† emporter
https://labonnetablehay.foxorders.com/
https://www.hotel-restaurant-livron.fr/

"
Vall√©e de la Dr√¥me,Pharmacie Terrail,"53 Grande Rue, 26340 Saillans, France",44.696857,5.19827,Ouvert sans changement d'horaire
Vall√©e de la Dr√¥me,Panier Sympa,"Buffi√®res, 26460 Bourdeaux, France",44.587383,5.134378,Ouvert tous les jours sauf dimanche et lundi apr√®s-midis
Vall√©e de la Dr√¥me,L'√©picerie de Sao√ª,"1 Route de Bourdeaux, 26400 Saou, France",44.645554,5.062064,"Ouvert tous les jours, sauf jeudi et dimanche de 8h30 √† 12h30 et de 16h √† 19h. 
contact@epiceriedesaou.fr"
Vall√©e de la Dr√¥me,Garage Clement Agent Peugeot,"7 La Condamine, 26400 Aouste-sur-Sye, France",44.709503,5.060279,"M√©canique. Carrosserie. Pneumatiques. 8 h √† 12h et 14h √† 18 h t√©l√©phone 0475251434
"
Vall√©e de la Dr√¥me,SAS FAURE ET FILS et FAURE JARDINAGE Crest - Massey Ferguson - Husqvarna - Stihl - Honda - Kubota,"Route de Mont√©limar, Les-Blaches, 26400 Crest, France",44.718662,5.011029,"‚Ä¢ FAURE Et Fils ouverture restreinte 8h-12h / 14h-18h du lundi au vendredi. Concession Agricole ouverte, sur appel t√©l√©phonique au 0475250363 
‚Ä¢ Faure Jardinage pour l‚ÄôEspace Vert ferm√© au public mais informations par t√©l√©phone 0475250363"
Vall√©e de la Dr√¥me,Boucherie _ J.l.m,"25 Rue Edouard Branly, 26400 Crest, France",44.72949,5.017555,"Horaires : 
mardi au samedi :  de 7h √† 12h30 et de 14h30 √† 18h

Tel de la Boucherie du Petit Primeur : 04 75 25 20 98"
Vall√©e de la Dr√¥me,Au _ Petit Primeur,"Rue Edouard Branly, 26400 Crest, France",44.729534,5.0175433,"Horaires :
Lundi au samedi : de 7h √† 18h
Tel : 04 75 76 72 85
"
Vall√©e de la Dr√¥me,La Th√©i√®re Flottante,"7 Rue de la R√©publique, 26400 Crest, France",44.72852,5.023442,"Ouvert uniquement les jours de march√© : les mardis et samedis
aux heure habituelles"
Vall√©e de la Dr√¥me,Pharmacie Centrale,"7 Rue Lieutenant Michel Prunet, 26400 Crest, France",44.733772,5.011376,"Horaires :
Lundi au Vendredi de 9h √† 12h et de 14h30 √† 19h
Samedi de 9h √† 12h et de 14h30 √† 18h30

T√®l. 04 75 40 62 20
"
Vall√©e de la Dr√¥me,Juste Tomate,"6 Quai Henri Latune, 26400 Crest, France",44.72796,5.01983,"Ouvert de 18h30 √† 20h30
Nous vous proposons √† emporter : pizzas- burgers - gratins de ravioles-frites - desserts--boissons--vin- bi√®res artisanales "
Vall√©e de la Dr√¥me,Le Relais des Mousquetaires,"Le Village, 26400 Mirabel-et-Blacons, France",44.71104,5.0896926,Ouvert aux horaires habituels tous les jours.
Vall√©e de la Dr√¥me,Brins de terroir Magasin de producteurs,"26400 Vaunaveys-la-Rochette, France",44.775,5.022222,"Brins de Terroir sera ferm√© le dimanche pendant la p√©riode de confinement. Rappel des horaires: Du mardi au samedi inclus 10h00-19h00. L√©gumes frais, produits laitier, viande, √©picerie, vins et jus de fruits, etc."
Vall√©e de la Dr√¥me,Pharmacie du Pont,"12 Rue Maurice Long, 26400 Crest, France",44.728188,5.021761,"Horaires exceptionnels (confinement)
du lundi au Vendredi : de 9h √† 12h et de 14h √† 19h
le samedi : de 9h √† 12h et de 14h30 √† 18h30
Tel : 04 75 40 66 58
Ne pas tenir compte des horaires ci-dessous.
"
Vall√©e de la Dr√¥me,SCEA LA FERME DES BLACHES,"route des blaches, 26400 Crest, France",44.718014,4.9983974,"Horaires habituels : 
Lundi  15h-19h
Mardi  9h-12h30 et 15h-19h
Mercredi    15h-19h
Jeudi 15h-19h
Vendredi  9h-12h30 et 15h-19h
Samedi  15h-19h
Ferm√© les dimanches et les jours f√©ri√©s

"
Vall√©e de la Dr√¥me,RIPOPEE - Boulangerie p√¢tisserie artisanale,"41 Grande Rue, D493, 26340, 26340 Saillans, France",44.696697,5.1979537,Ouvert aux horaires habituels
Vall√©e de la Dr√¥me,La Savoureine,"420 mont√©e du village, 26400 Eurre, France",44.74684,4.9885416,Ouvert sans changement d'horaire
Vall√©e de la Dr√¥me,Boucherie Pascal,"42 Grande Rue, 26340 Saillans, France",44.696583,5.197862,Ouvert sans changement d'horaire
Vall√©e de la Dr√¥me,Tabac Le Dakota,"26 Rue Doct Illaire, 26340 Saillans, France",44.696533,5.19714,Ouvert sans changement d'horaire
Vall√©e de la Dr√¥me,Quai Soubeyran,"Quai Soubeyran, 26400 Crest, France",44.724617,5.0266676,"L'amap de Crest, fournie par le GAEC Caetera √† Vaunavey-la-Rochette propose une distribution de produits locaux et bio devant le boulodrome de Soubeyran les jeudis de 18h √† 19h. Pour tous ceux qui souhaitent venir tester, RV sur notre cr√©neau de distribution, sur notre site internet Amap-du-val-de-Dr√¥me ou par courriel : amap-du-val-de-drome@g3l.org"
Vall√©e de la Dr√¥me,Association Agri Court,"Ecosite P√¥le Bio, 150 Av de Jud√©e, 26400 Eurre, France",44.73693,4.9752517,Mise en place d'un syst√®me de Drive pour les particuliers qui permettra d'avoir acc√®s de mani√®re s√©curis√©e √† de bons produits bio et locaux.  Rens. et commande sur leur site http://commandes.agricourt.fr/
Vall√©e de la Dr√¥me,Vival,"Grande Rue Immeuble Cluzel, 26340 Saillans, France",44.69696,5.1988974,Ouvert aux horaires habituels avec une interrogation pour lundi par manque d'approvisionnement. Rens. au 09 62 65 87 11 / Livraison √† domicile possible : contacter par t√©l ou √† vival.daillans@orange.fr
Vall√©e de la Dr√¥me,Cap Vital Sant√© Crest / Mat√©riel M√©dical du Val de Dr√¥me,"3 Rue Jean Jaur√®s, 26400 Crest, France",44.732098,5.004738,"Ouvert du lundi au vendredi 9h-12h et 14h-17h
Ferm√© le samedi sur la p√©riode actuelle.
Attention les horaires vont √©voluer au cours de la semaine prochaine.
Contacter nous au 04.75.43.02.34 pour √™tre s√ªr de nos horaires"
Vall√©e de la Dr√¥me,Cave du Bourg,"51 Rue Emile Loubet, 26400 Crest, France",44.728764,5.0179386,R√©ouverture √† compter du 26 mars ouvert tous les matins de 9 √† 13h du mardi au samedi.
Vall√©e de la Dr√¥me,Tabac Press Du Square.Crest,"17-4 Rue Du 8 Mai 1945, 26400 Crest, France",44.731045,5.0168896,"Horaires:
Lundi au samedi : de 6h30 √† 18h
Dimanche : de 6h30 √† 12h00

Tel : 04 75 83 28 69"
Vall√©e de la Dr√¥me,La Viennoiserie Bio Val de Drome,"49 Rue Emile Loubet, 26400 Crest, France",44.728615,5.0186725,"A partir du 24 mars la viennoiserie sera ouverte de 7h √† 14h du mardi au vendredi

T√®l. 09 66 92 14 73"
Vall√©e de la Dr√¥me,ALDI,"Avenue F√©lix Rozier, 26400 Crest, France",44.733067,5.0114126,"Du 23 au 28 mars : de 8h30 √† 17h non stop. Dimanche 29 mars ferm√©.



"
Vall√©e de la Dr√¥me,La Poste,"Rue F√©lix Perrier, 26400 Crest, France",44.7291,5.0183153,"Nouveaux horaires √† partir du 24 mars : 
Du lundi au vendredi 9h-13h 
Samedi 9h-12h "
Vall√©e de la Dr√¥me,Epicerie nouvelle,"Rue Edouard Branly, 26400 Crest, France",44.729507,5.01728,"A compter du 24 mars fermeture √† 18h le soir.
Puis √† compter du 30 mars ouvert de 8h30 √† 12h30"
Vall√©e de la Dr√¥me,Poissonnerie du bourg,"33 Rue Emile Loubet, 26400 Crest, France",44.728912,5.018896,"9h-13h du mardi au samedi"
Vall√©e de la Dr√¥me,Nexio,"5 Avenue F√©lix Rozier, 26400 Crest, France",44.734367,5.010783,"Ouvert uniquement du mardi au vendredi de 9h √† 12h et de 14h √† 18h
Merci de privil√©gier les demandes techniques par le formulaire en ligne : https://support.nexio.info"
Vall√©e de la Dr√¥me,Maison de la Presse - Tabac du Pont,"18 Rue Maurice Long, 26400 Crest, France",44.727726,5.0214357,"Tous les jours de 7h √† 13h non stop.

T√®l. 04 75 25 09 01"
Vall√©e de la Dr√¥me,Petit Casino,"46-48, Rue de L'Hotel de Ville, 26400 Crest, France",44.729,5.0207043,"
Horaires :
Mardi au samedi : de 8h √† 12h et de 15h √† 18h
Dimanche  : de 8h √† 12h
"
Vall√©e de la Dr√¥me,Gamm vert,"Avenue Georges Clemenceau, 26400 Crest, France",44.730354,5.0175266,Ferme √† 18h au lieu de 19h
Vall√©e de la Dr√¥me,Au nom des plantes,"17 Rue Sadi Carnot, 26400 Crest, France",44.729916,5.0188894,"Ouvert aux horaires habituels 
Vendredi : 10h30-12h30 / 15h30-19h30
Samedi :  10h30-13h / 15h30-19h30"
Vall√©e de la Dr√¥me,Boulangerie patisserie F Chastang,"Avenue F√©lix Rozier, 26400 Crest, France",44.733303,5.0113583,"Horaires :
Lundi au Samedi de 6h30 √† 19h
Dimanche de 7h √† 13h
"
Vall√©e de la Dr√¥me,Angelique & Pascal,"Place de la Libert√©, 26400 Crest, France",44.72498,5.0212526,R√©ouverture √† compter du 26 mars. Tous les jours sauf le mercredi de 7h √† 13h.
Vall√©e de la Dr√¥me,"Honorin, pains, sandwichs & compagnie","26400 Crest, France",44.730186,5.0160847," 7h-14h du lundi au vendredi, et 7h- 13h le samedi"
Vall√©e de la Dr√¥me,Boulangerie Fouraison,"9 Rue de la R√©publique, 26400 Crest, France",44.72846,5.023528,"En service r√©duit : 

Ouvert de 7h √† 13h30

T√®l. 04 75 25 02 53"
Die,La Carline,"21 Rue du Viaduc, 26150 Die, France",44.752262,5.37478,""
Die,La Gourmandie'z,"3 Rue Camille Buffardel, 26150 Die, France",44.755253,5.3693686,"Pain, viennoiserie, sandwich, panini...
Ouvert du lundi au vendredi de 7h30 √† 18h"
Die,Les P'tits Ruisseaux,"51 Rue Camille Buffardel, 26150 Die, France",44.754395,5.3711333,""
Die,Arc En Soie,"89 Rue Camille Buffardel, 26150 Die, France",44.75368,5.372442,En raison des mesures gouvernementales de confinement l'entreprise est ferm√©e au public jusqu'√† nouvel ordre. Je peux vous r√©pondre par mail : franckcondette@arcensoie.com et par t√©l√©phone au 06 75 22 09 95. Je peux pour le moment vous chiffrer des devis et assurer tous les travaux d'imprimerie offset et signal√©tique.
Die,Association Vivre A Domicile,"5 Place du March√©, 26150 Die, France",44.753,5.37028,"Horaires habituels - 
8h30-12h00. *  
13h30-17h00"
Die,La Fromagerie,"13 Place du March√©, 26150 Die, France",44.752823,5.370356,Ouvert le matin de 8h30 √† 12h30
Die,Vival,"88 Rue Camille Buffardel, 26150 Die, France",44.753414,5.372691,
Die,Chez Yann,"93 Rue Camille Buffardel, 26150 Die, France",44.75372,5.372603,"Traiteur chez Yann 
Plats √† emporter buffet d√Ænatoire , paella ...
Ouvert tout les jours 
0475211760
au 93 rue Camille Buffardel 26 150 Die "
Die,Le Marigny Tabac Presse,"28 Rue F√©lix Germain, 26150 Die, France",44.7531,5.3699255,Ouvert tous les jours sauf le dimanche apr√®s-midi et lundi apr√®s-midi
Die,La Gourmandine,"10 Place du March√©, 26150 Die, France",44.753044,5.369881,Ferm√© le Lundi - dimanche apr√®s-midi
Die,Verisport,"Avenue de la R√©sistance, 26150 Die, France",44.760708,5.3586903,
Die,P√¢tisserie Nougatine,"5 Place de la R√©publique, 26150 Die, France",44.752716,5.3708143,"Ouvert tous les matins de 7h30 √† 13h00 - 
Ferm√© le Jeudi toute la journ√©e"
Die,Pulsat,"Vercors Regional Natural Park, 665 C Avenue de la Clairette, 26150 Die, France",44.76121,5.353356,"permanence tel 0475216797  service minimum assur√©, selon stock disponible
"
Die,Caveau Jaillance,"355 Avenue de la Clairette, 26150 Die, France",44.76016,5.3571415,"En raison des mesures gouvernementales de confinement nous adaptons l‚Äôouverture du caveau pour cette semaine comme suit :

Lundi 23 mars de 9h √† 12h et de 14h √† 18h

Mardi √† vendredi de 9h √† 12h

Samedi 29 mars de 10h √† 18 h

Dans l‚Äôattente du plaisir de vous y accueillir."
Die,Epicerie centrale-Cave √† vins du Diois,"68 Rue Camille Buffardel, 26150 Die, France",44.753727,5.3717995,"L'√©picerie vous accueille de 7h √† 12h45 et de 17h √† 19h30.
Nous effectuons √©galement des livraisons gratuites √† partir de 20‚Ç¨
Prenez soin de vous et √† bient√¥t."
Die,Le Moulin D'Enzo,"Chemin du Bez, 26410 Ch√¢tillon-en-Diois, France",44.693333,5.4855556,https://www.facebook.com/223900454484840/posts/1307884432753098/
Die,Pili Pili,"6 Rue de l'Arm√®llerie, 26150 Die, France",44.7529,5.3718324,""
Die,Chocolalala,"18 Rue de l'Arm√®llerie, 26150 Die, France",44.752853,5.3724613,"ouvert samedi 21 mars de 11h √† 12h
mise √† jour r√©guli√®re des horaires :)"
Die,LATELIER Tiers-Lieu et espace de coworking √† Die,"3 Place du March√©, 26150 Die, France",44.75309,5.370201,"mardi 24 mars de 14h √† 16h vous aurez la possibilit√© de d√©poser vos ordinateurs (uniquement ordinateurs) √† Elias.
Pour cela, merci de noter sur papier blanc vos nom, mail, t√©l√©phone et objet du d√©p√¥t. vous ferez parvenir vos mots de passe ult√©rieurement.
"
Die,L'As de Tr√®fle,"3 Rue de l'Arm√®llerie, 26150 Die, France",44.752575,5.3715954,"Ventes de jeux de soci√©t√©. 
Jeux cr√©ateurs locaux. 
Jeux en bois made in France, Made In Dr√¥me. 
Jeux de cartes, jeux traditionnels, jeux de plateau.
Location jeux g√©ants pour √©v√®nementiels. 
Animation et prestation dans les Campings, pour grands groupes.
Groupement des Boutiques Ludiques"
Die,"26 Place du March√©","26 Place du March√©, 26150 Die, France",44.75263,5.3704686,"Fruits & L√©gumes MURE
Ouvert Mercredi-Jeudi-Vendredi-Samedi matin
0475221862"
Die,Tha√Ø Food,"56 Rue Emile Laurens, 26150 Die, France",44.75326,5.3699355,""
Mont√©limar,La FABrique - Brasserie Artisanale & Bar,"Face Truffaut, 206 Route de Marseille, 26200 Mont√©limar, France",44.532967,4.7450824,"""Livraison du MARDI au SAMEDI, de 17h √† 19h en r√©pondant √† cette feuille de commande, √† envoyer par mail (lafabriquemontelimar@gmail.com) ou en MP Facebook sur notre page (La FABrique).
Livraison dans la limite des STOCKS DISPONIBLES aux alentours de Mont√©limar pour toute commande d'un minimum de 25 euros.üçª
Choses moins rigolotes :
‚≠ïÔ∏è Paiement au maximum en CB, pour √©viter tout contact et √©change de monnaie.
‚≠ïÔ∏è R√©ception de votre commande √† l‚Äôext√©rieur (nous n‚Äôentrerons dans aucune maison, ni hall d‚Äôimmeuble)
‚≠ïÔ∏è D√©sinfection des mains obligatoire avant paiement
‚≠ïÔ∏è Respecter 1 m√®tre de distance
Nous ferons de notre mieux. 
MERCI √Ä TOUS pour votre compr√©hension üòâü§ò"""
Mont√©limar,American Street,"41 Boulevard Meynot, 26200 Mont√©limar, France",44.555923,4.75187,"""Votre restaurant reste ouvert pour les livraisons Uber et les ventes √† emporter.
Appelez au : 04 75 46 88 02. """
Mont√©limar,G√©ant Casino,"24 Avenue John Kennedy, 26200 Mont√©limar, France",44.556107,4.7377353,Pas de changement au niveau des horaires d'ouverture pour le moment
Mont√©limar,Aprium Grande Pharmacie de l'Europe,"1 Route de Saint-Gervais, 26200 Mont√©limar, France",44.555435,4.7589254,Pas de changement au niveau des horaires d'ouverture pour le moment
Mont√©limar,Market,"Route de Dieulefit, 26200 Mont√©limar, France",44.551815,4.7696548,Pas de changement au niveau des horaires d'ouverture pour le moment
Mont√©limar,Carrefour City,"4 Boulevard Meynot, 26200 Mont√©limar, France",44.55542,4.7514033,"Horaires exceptionnels: 
Lundi au Samedi de 7h √† 19h30 
Dimanche de 9h √† 12h30"
Mont√©limar,"Livraison de pizza, de tacos, de burgers sur Mont√©limar - AlloPizza26.fr‚Ñ¢","1 Rue Mar√©chal Leclerc, 26200 Mont√©limar, France",44.556946,4.749496,"üö®üö®üö® Suite √† la disposition du gouvernement, ALLOPIZZA26 vous propose la livraison √† domicile üõµou √† emporter   ü•°en respectant les normes sanitaires conseill√©es par l'√âtat.
Commander en ligne 7j/7 de 11h √† 14h et de 18h √† 23h
ou au : 04 75 54 48 36"
Mont√©limar,Pizza Laurent,"2 Avenue de Rochemaure, 26200 Mont√©limar, France",44.560585,4.7476463,"Le camion Pizza Laurent 26 de nouveau pr√©sent  mercredi au dimanche soir d√®s 18h.... Penser √† venir avec votre attestation....  √† Mont√©limar.
"
Mont√©limar,Star Kebab,"12 Avenue Charles de Gaulle, 26200 Mont√©limar, France",44.556507,4.7484593,"A emporter ü•° ou  Livraison  en passant par UberEat
Numero pour commande 04 75 51 01 96"
Cagnes-sur-Mer,Casino Shop,"25 Avenue G√©n√©ral Leclerc, 06170 Saint-Laurent-du-Var, France",43.658653,7.162807,
Antibes,Utile Antibes Wilson,"72 Boulevard du Pr√©sident Wilson, 06600 Antibes, France",43.574512,7.1166816,
Cannes,AJC Primeur Anne,"7 Boulevard Victor Tuby, 06400 Cannes, France",43.55274,7.011925,"üõµ Secteurs de livraison : Cannes, Cannes La Bocca

‚òéÔ∏è 06 09 95 81 69
commande @ atelier-delice.fr "
Cannes,L'essentiel,"32 Avenue Mar√©chal Juin, 06400 Cannes, France",43.55026,7.033619,"Pain, √©picerie 1re n√©cessit√©, fruits et l√©gumes, boissons 
32 Avenue Mar√©chal juin

Secteurs de livraison : Cannes

04 93 43 75 38 
lessentiel06400 @ orange.fr 
"
Cannes,SOS Pizza Poulet,"2 Avenue de Madrid, 06400 Cannes, France",43.54649,7.0342445,"Livraison de pizzas, poulets r√¥tis, sandwichs, salades, burgers
2 Avenue de Madrid

Secteurs de livraison : Carnot, Centre-ville, Suquet, R√©publique, Californie, Basse Californie, Pointe Croisette

04 93 43 01 88
sospizza06400@gmail.com
www.sospizza06.com"
Cannes,Papa Nino II,"23 Avenue Mar√©chal Juin, 06400 Cannes, France",43.550224,7.0339613,"Secteurs de livraison : Grasse/Riou/Petit Juas, Carnot, Centre-ville, Suquet, R√©publique, Californie, Basse Californie, Pointe Croisette

04 93 43 62 82
cheznouscannes@sfr.fr
Page Uber Eats "
Cannes,Le Boucher d'Antan,"66 Avenue Mar√©chal Juin, 06400 Cannes, France",43.548306,7.038695,"Boucherie charcuterie traiteur
66 avenue Mar√©chal Juin

Secteurs de livraison : Basse Californie, Californie

04 93 46 55 19  
www.boucher-dantan.fr
"
Cannes,APERO JET 7,"Impasse Denans, 06400 Cannes, France",43.556805,7.020596,"Livraisons boissons
8 impasse Denans

Secteurs de livraison : Cannes et Cannes La Bocca

04 83 44 44 01 
aperojet7 @ gmail.com "
Cannes,Le Panier Vrac,"66 Boulevard de la Republique, 06400 Cannes, France",43.5577,7.02248,"√âpicerie bio vrac
66 Boulevard de la R√©publique

Secteur de livraison : Cannes

06 41 13 23 91
lepaniervrac@gmail.com "
Cannes,GREEN PIZZA,"61 Boulevard de la Republique, 06400 Cannes, France",43.55627,7.023326,"Pizzeria bio
61 Boulevard de la R√©publique

04 93 68 44 75

"
Cannes,Chick'N Chic,"167 Boulevard de la Republique, 06400 Cannes, France",43.561703,7.0212255,"R√¥tisserie volailles
167 Boulevard de la R√©publique

04 28 70 10 90
www.chick-n-chic.fr
"
Cannes,Rebibo Gabriel Cannes Cacher,"9 Rue Marceau, 06400 Cannes, France",43.55312,7.0237045,"Secteurs de livraison : Cannes, Cannes La Bocca

04 92 98 80 80
cannescacher @ hotmail.fr"
Cannes,Cave Riviera Cannes,"7 Rue Teisseire, 06400 Cannes, France",43.552696,7.0231094,"Secteur de livraison : Cannes

06 79 65 32 55
cave.riviera.cannes @ orange.fr"
Cannes,Pomms Amsterdam ¬Æ,"4 Rue des Belges, 06400 Cannes, France",43.55196,7.019084,"Restauration (frites, croquettes, hamburger, etc.)

Secteur de livraison : Cannes

06 43 91 18 60 
info @ pomms-amsterdam.com
http://www.pomms-amsterdam.com"
Cannes,CannOlive,"20 Rue Venizelos 16 et, 06400 Cannes, France",43.553444,7.01759,"Secteur de livraison : Cannes, Cannes La Bocca

04 93 39 08 19
cannolive @ orange.fr
www.cannolive.fr"
Cannes,Boucherie de L'Orient,"18 Rue Merle, 06400 Cannes, France",43.555042,7.023343,"Boucherie ‚Äì alimentation


Secteurs de livraison : Cannes, Cannes La Bocca

04 93 30 19 64
orient.itran06 @ gmail.com"
Cannes,La broche de L√©onard,"3 Rue d'Oran, 06400 Cannes, France",43.55213,7.0271373,"R√¥tisserie viandes et volailles, accompagnements maison
Secteur de livraison : Cannes

06 22 59 46 05
lblcobcannes @ gmail.com
www.labrochedeleonard.fr"
Cannes,Ernest Traiteur,"52 Rue Meynadier, 06400 Cannes, France",43.552277,7.013399,"Secteurs de livraison : Cannes, Cannes La Bocca

04 93 06 23 00
commercial @ ernest-traiteur.com
www.ernest-traiteur.com"
Cannes,Mala,"28 Rue Jean Jaures, 06400 Cannes, France",43.553516,7.021519,"Sp√©cialit√©s tha√Ølandaises
04 93 38 71 25
Page Deliveroo
"
Cannes,Speedy tacos Cannes,"5 Boulevard de la Ferrage, 06400 Cannes, France",43.55369,7.016514,"04 97 06 17 81"
Cannes,Pizza Shop,"29 Rue Jean Jaures, 06400 Cannes, France",43.553642,7.0244117,"Secteurs de livraison : Cannes, Cannes La Bocca

04 93 99 51 80
www.livraisonpizzashop.com
"
Cannes,Mister Pizza,"36 Boulevard de Lorraine, 06400 Cannes, France",43.55269,7.0280547,"Secteur de livraison : Cannes centre-ville

04 93 68 10 30
www.mister-pizza.com
"
Cannes,Asiakeo,"41 bis Rue Hoche, 06400 Cannes, France",43.553127,7.022082,"Secteur de livraison : Cannes, Cannes La Bocca

04 93 38 31 80
www.asiakeo.com 
"
Cannes,"1862 Wines & Spirits","5 Rue du Mar√©chal Joffre, 06400 Cannes, France",43.5527,7.01595,"Secteur de livraison : Cannes

04 93 39 44 56

Commande livraison group√©e
avec d'autres commer√ßants :
04 93 38 04 38

contact @ 1862wines.com
www.1862wines.com"
Cannes,La P√™cherie Cannoise,"16 Rue Meynadier, 06400 Cannes, France",43.552853,7.0150056,"Secteur de livraison : Cannes

07 85 52 77 65

Commande livraison group√©e
avec d'autres commer√ßants :
04 93 38 04 38

pecherie.cannoise @ gmail.com
"
Cannes,Ceneri Cannes cheese,"22 Rue Meynadier, 06400 Cannes, France",43.552685,7.0145035,"Secteur de livraison : Cannes

04 93 39 63 68

Commande livraison group√©e
avec d'autres commer√ßants :
04 93 38 04 38

www.fromagerie-ceneri.com

 "
Cannes,Maison Fleury Boucherie et Traiteur,"r√©sid Etoile Ens, 111 Boulevard Carnot b√¢t A, 06400 Cannes, France",43.56465,7.016431,"Secteur de livraison : Cannes

04 93 68 30 57
maisonfleurycannes @ gmail.com"
Cannes,Mister Pizza Cannes Carnot,"7 Boulevard Carnot, 06400 Cannes, France",43.55481,7.016858,"Secteur de livraison : Carnot

04 93 99 99 60
www.mister-pizza.com
"
Cannes,Gusti Italiani,"3 Boulevard Carnot, 06400 Cannes, France",43.55449,7.016877,"Secteur de livraison : Cannes

04 93 99 47 82

Commande livraison group√©e
avec d'autres commer√ßants :
04 93 38 04 38

www.gustiitaliani.com
"
Cannes,"Copenhagen Coffee Lab - Cannes, Blvd Carnot","1 Boulevard Carnot, 06400 Cannes, France",43.55433,7.0168447,"Secteur de livraison : Cannes

04 97 06 51 66

Commande livraison group√©e
avec d'autres commer√ßants :
04 93 38 04 38
 
birgitte @ cphcoffeelab.com
"
Cannes,Bio c' Bon Cannes,"9 place Vauban, 06400 Cannes, France",43.555096,7.01703,"Secteur de livraison : Cannes

04 93 99 32 50

Commande livraison group√©e
avec d'autres commer√ßants :
04 93 38 04 38
 
www.bio-c-bon.eu
"
Cannes,Poissonnerie Forville,"6 Rue du Dr Pierre Gazagnaire, 06400 Cannes, France",43.551662,7.0117545,"Poissons, plateaux de fruits de mer
Secteurs de livraison : Cannes

06 28 92 91 77 

Commande livraison group√©e
avec d'autres commer√ßants :
04 93 38 04 38

poissonnerieforville @ orange.fr "
Cannes,J√©r√©mie Darmigny,"3 Rue du March√© Forville, 06400 Cannes, France",43.552162,7.0114064,"Secteurs de livraison : Cannes, Cannes La Bocca

06 16 98 21 80 
Jeremie06 @ hotmail.fr"
Cannes,Sandrine Events,"17 Boulevard Victor Tuby, 06400 Cannes, France",43.552517,7.011047,"07 86 73 40 14 
etienne @ cannesaddictevents.com 
www.cannesaddictevents.com"
Cannes,La Boutique de la Truffe Italienne,"13 Boulevard Victor Tuby, 06400 Cannes, France",43.552727,7.0115914,"Secteurs de livraison : Centre Ville, Suquet.

09 88 01 16 41
Info @ laboutiquedelatruffeitalienne.com 
www.laboutiquedelatruffeitalienne.com"
Cannes,Le Comptoir des P√¢tes,"Rue du March√© Forville, 06400 Cannes, France",43.55214,7.0118136,"Secteurs de livraison : Cannes, Cannes La Bocca

06 11 20 54 94
Darmigny.julien @ gmail.com 
"
Cannes,CAVAVIN CANNES,"12 Rue Louis Blanc, 06400 Cannes, France",43.552437,7.0130734,"Secteur de livraison : Cannes

04 93 99 28 37
cannes @ cavavin.fr 
www.cavavincannes.com"
Cannes,Le Bistrot Gourmand,"10 rue Doct Pierre Gazagnaire Mar, Rue du March√© Forville, 06400 Cannes, France",43.552258,7.0113106,"üõµ Secteur de livraison : Cannes

‚òéÔ∏è 04 93 68 72 02
Bistrotgourmandcannes @ gmail.com 
www.bistrotgourmandcannes.fr"
Cannes,La R√¥tisserie Christophe,"4 Place du March√© Forville, 06400 Cannes, France",43.5518,7.0120244,"üõµ Secteur de livraison : Cannes

‚òéÔ∏è 04 93 68 00 23

Commande livraison group√©e
avec d'autres commer√ßants :
04 93 38 04 38"
Cannes,Boucherie Agricole : Boucherie √† Cannes,"9 Rue du March√© Forville, 06400 Cannes, France",43.552364,7.0121193,"üõµ Secteurs de livraison : Cannes, Cannes La Bocca
‚òéÔ∏è 04 93 39 18 05

Commande livraison group√©e
avec d'autres commer√ßants :
‚òéÔ∏è 04 93 38 04 38
boucherie_agricole@yahoo.fr "
Cannes,Pizza World,"32 Boulevard Vallombrosa, 06400 Cannes, France",43.552914,7.0066924,"Secteur de livraison : Cannes

04 93 38 32 72
sarlcyro06 @ gmail.com "
Cannes,HAPPYFOOD,"81 Avenue de Grasse, 06400 Cannes, France",43.555134,7.0118985,"üõµ Secteurs de livraison : Cannes, Cannes La Bocca

‚òéÔ∏è 04 93 45 20 00 
www.happyfood06.fr
"
Cannes,Cafe Pico,"26 Avenue du Dr Raymond Picaud, 06400 Cannes, France",43.550888,6.999752,"üõµ Secteurs de livraison : Croix des Gardes/Picaud

‚òéÔ∏è T√©l. commande : 04 93 93 17 44
olivier @ cafepico.fr"
Cannes,Restaurant l'Etoile,"60 Avenue du Dr Raymond Picaud, 06150 Cannes, France",43.550434,6.991161,"üõµ Secteurs de livraison : Cannes La Bocca, Croix-des-Gardes/Picaud

‚òéÔ∏è 06 07 01 16 23 
ribriouxtony@yahoo.fr"
Cannes,Chocolats De Neuville Cannes - La Bocca,"73 Avenue Francis Tonner, 06150 Cannes, France",43.54947,6.9779778,"üõµ Secteurs de livraison : Cannes, Cannes La Bocca

‚òéÔ∏è 06 70 15 60 78
deneuville.canneslabocca@orange.fr "
Cannes,Gusto Italiano,"127 Avenue Francis Tonner, 06150 Cannes, France",43.549538,6.973933,"üõµ Secteur de livraison : Cannes La Bocca

‚òéÔ∏è 04 92 19 08 14 "
Cannes,NJ Pizza,"7 Rue Paul N√©grin, 06150 Cannes, France",43.549225,6.972342,"üõµSecteur de livraison : Cannes La Bocca

‚òéÔ∏è04 93 49 75 24 
pizza.angelina @ outlook.fr 
www.nj-pizza.com"
Cannes,Mister Pizza Cannes La Bocca,"67 Avenue Francis Tonner, 06150 Cannes, France",43.549377,6.9783397,"üõµ Secteur de livraison : Cannes La Bocca

‚òéÔ∏è 04 93 47 05 46

www.mister-pizza.com
"
Cannes,Couscous Express Cannes,"58 Avenue Michel Jourdan, 06150 Cannes, France",43.552654,6.9769855,"üõµ Secteur de livraison : Cannes, Cannes La Bocca

‚òéÔ∏è 04 93 48 93 39
www.couscousexpress.fr
"
Cannes,La Vinoth√®que,"6 Avenue Michel Jourdan, 06150 Cannes, France",43.549908,6.9795637,"üõµ Secteur de livraison : Cannes La Bocca

‚òéÔ∏è 04 93 47 89 95
lavinothequecannes @ orange.fr"
Cannes,Pizza One,"56 Avenue Michel Jourdan, 06150 Cannes, France",43.55259,6.9771357,"üõµ Secteur de livraison : Cannes La Bocca

‚òéÔ∏è 04 93 47 16 40 "
Cannes,Tredici,"13 Rue Louis Perrissol, 06400 Cannes, France",43.550312,7.0098033,"Secteurs de livraison : Cannes, Cannes La Bocca

06 52 54 64 63
tredici.cannes @ gmail.com
www.tredici-cannes.eatbu.com "
Cannes,Carrefour Market,"6 Rue Meynadier, 06400 Cannes, France",43.553467,7.015885,"Secteur de livraison : Cannes

04 93 39 62 13
www.carrefour.fr"
Cannes,Aux Bons Raviolis,"31 Rue Meynadier, 06400 Cannes, France",43.552433,7.013931,"Secteurs de livraison : Cannes, Bocca Nord, Bocca Ouest, Bocca Centre

06 13 45 03 25 
04 93 39 36 63
pasta-tosca @ wanadoo.fr"
Cannes,March√© Forville,"06400 Cannes, France",43.55191,7.0114384,"LA R√îTISSERIE DU MARCH√â

R√¥tisserie
March√© Forville

Secteur de livraison : Cannes

07 78 38 82 42
scocciafranck @ hotmail.fr
"
Cannes,El R√©gal,"3 Place Bernard Cornut Gentille, 06400 Cannes, France",43.550934,7.0114193,"Secteurs de livraison : Cannes, Cannes La Bocca

04 93 68 62 05 
Page Uber Eats
"
Cannes,Jorainbow,"22 Rue Jean Jaures, 06400 Cannes, France",43.55353,7.0209293,"04 93 75 01 25
Page Deliveroo
"
Cannes,La Tarte Trop√©zienne,"5 Rue Louis Blanc, 06400 Cannes, France",43.552177,7.0130005,"Secteurs de livraison : Cannes, Bocca Ouest, Bocca Centre

elliott @ me.com"
Cannes,KFC Cannes gare,"8 Rue Jean Jaures, 06400 Cannes, France",43.55351,7.0199537,"04 93 68 85 28"
Saint-Marcellin,Le pain de Martin,"465 ROUTE DE PONT EN ROYANS, 38680 Saint-Andr√©-en-Royans, France",45.084423,5.338185,"Pains et autres gourmandise √† commandez le jeudi pour un retrait le vendredi au fournil ou une livraison le samedi matin sur Saint Marcellin (Chatte, Saint Sauveur). "
Saint-Marcellin,La ferme du palmier,"1745 Chemin Des Ports, 38160 Chatte, France",45.14919,5.257881,"Vente de produits laitiers de ch√®vre.
Vente √† la ferme le jeudi de 15h √† 18h30. 
Possibilit√© de livraison ou de retrait √† la demande. "
Saint-Marcellin,Le Pain de Beauvoir,"18 Rue porte d'aris, 38160 Beauvoir-en-Royans, France",45.121017,5.3374696,"Au fournil :
le mercredi et le vendredi de 17h √† 19h.

Sur les march√©s (annul√©s jusqu'√† nouvel ordre) :
Saint-Marcellin le samedi matin 
Fontaine (place Louis Maisonnat) le mercredi de 15h √† 19h

En magasin :
Biocoop de Chatte (ZC La Gloriette) ‚Äì livraison le lundi, mercredi et vendredi vers 15h30.
Biocoop de Saint-Marcellin (centre ville) ‚Äì livraison le lundi, mercredi et vendredi vers 16h00.
√âpicerie Graines d‚Äô√©pici√®res √† Tullins (2 Avenue Pierre B√©r√©govoy) ‚Äì livraison le lundi √† l‚Äôouverture du magasin.
Biocoop de Saint-Jean en Royans (Zone d‚Äôactivit√© de la Roue Est) ‚Äì livraison le mercredi et le vendredi vers 16h30."
Saint-Marcellin,Post Office,"3 Boulevard Gambetta, 38160 Saint-Marcellin, France",45.152973,5.3221498,"Horaire et disposition pour envoyer du courrier en recommander
"
Saint-Marcellin,Les Carmes,"3 Place des Carmes, 38160 Saint-Marcellin, France",45.152702,5.3205094,Du mardi au samedi : 9h00 √† 13h00 et de 15h00 √† 19h00
Saint-Marcellin,The farmer Palace,"950 A ZI la Gloriette, 38160 Chatte, France",45.141098,5.3025713,"Au Palais Fermier
Commandes au 09 64 47 38 44
Horaires de retrait :
- A partir de 16h pour toute commande pass√©e avant midi
- A partir de 11h pour toute commande pass√©e la veille avant 18h"
Saint-Marcellin,Les Truites d'Izeron / Pisciculture Murgat,"435 Chemin de la pisciculture, 38160 Izeron, France",45.157124,5.3675995,"07 87 40 53 96"
Saint-Marcellin,La Ferme de Rossat,"915 chemin du Haut, 38160 Saint-V√©rand, France",45.17228,5.360794,"04 76 64 15 02"
Saint-Marcellin,La halle fermi√®re,"20 Avenue de la Gare, 38470 Vinay, France",45.207954,5.410751,"Horaires habituels
Tel : 04 76 36 68 49"
Saint-Marcellin,Maison Brialon,"9 Avenue de Romans, 38160 Saint-Marcellin, France",45.145714,5.310095,du lundi au samedi de 6h √† 19h15 sans interruption
Saint-Marcellin,Vincent Christophe,"46 Grande Rue, 38160 Saint-Marcellin, France",45.15295,5.320271,"Livraison √† domicile offerte dans un rayon de 10km, la boutique √©tant ferm√©e pour une dur√©e ind√©termin√©e.
Liste des propositions sur le site internet et r√©seaux sociaux.
Commande par t√©l√©phone au 06.45.69.15.23 :
- Lundi et mercredi de 17h √† 19h
- Mardi et jeudi avant 9h"
Saint-Marcellin,Pharmacie Centrale Michel Girond,"7 Rue du Ch√¢teau Bayard, 38160 Saint-Marcellin, France",45.154182,5.323348,Lundi au Samedi : 8h30-12h et 14h-19h
Saint-Marcellin,Pharmacie de Saint Marcellin - Raynal,"2 Place Jean Vinay, 38160 Saint-Marcellin, France",45.153976,5.3212967,"Lundi au Vendredi : 8h30-12h15 et 14h-19h
Samedi :  8h30-12h15 et 14h-18h"
Saint-Marcellin,Pharmacie du Kiosque,"7 Place d'Armes, 38160 Saint-Marcellin, France",45.153625,5.3208637,Lundi au Samedi : 8h30-12h et 14h-19h
Saint-Marcellin,Boulangerie du Faubourg,"36 Rue du Faubourg Vinay, 38160 Saint-Marcellin, France",45.15487,5.323279,Mardi au Dimanche : 6h-12h30 et 15h30-19h
Saint-Marcellin,Le Cubanito,"33 Grande Rue, 38160 Saint-Marcellin, France",45.153637,5.321532,Du Lundi au Samedi : 7h-12h30
Saint-Marcellin,Le Duo Gourmand,"9 Rue Jean Baillet, 38160 Saint-Marcellin, France",45.1548,5.3215427,"Lundi/Mardi/Jeudi/Vendredi : 6h15-13h et 16h-19h30
Mercredi : 6h15-13h
Samedi et Dimanche : 6h15-13h
"
Saint-Marcellin,Cancade Michel Jean Gabriel,"3 Rue de Beauvoir, 38160 Saint-Marcellin, France",45.15403,5.322369,"Mardi/Jeudi/Samedi : 6h-12h30
Mercredi/ Vendredi :  6h - 19h15
Dimanche : 6h30-12h30"
Saint-Marcellin,La Boutique des Simples,"27 Grande Rue, 38160 Saint-Marcellin, France",45.153885,5.321616,"Mardi au Samedi : 9h-12h30 
Sur RDV l'apr√®s-midi si besoin urgent 
0685580995 ou 0476642665"
Saint-Marcellin,Pharmacie Des C√®dres (Crozet),"2 Avenue de Provence, 38160 Saint-Marcellin, France",45.151512,5.3170595,"Lundi au Vendredi : 8h30-12h30 et 14h-19h30 
Samedi : 8h30-12h30 et 14h-19h"
Saint-Marcellin,Mag Presse,"63 Grande Rue, 38160 Saint-Marcellin, France",45.152687,5.320154,"Ghersinu le Jaur√®s 
En semaine 7h-19h
Le dimanche 7h-12h30"
Saint-Marcellin,Supermarch√© Colruyt,"16 Cours Vallier, 38160 Saint-Marcellin, France",45.153244,5.317053,Du lundi au samedi : 9H00-19H. Ferm√© le dimanche.
Saint-Marcellin,Mairie,"21 Place d'Armes, 38160 Saint-Marcellin, France",45.154133,5.3200116,"Accueil t√©l√©phonique : 04 76 38 41 61 / contact.ville@saint-marcellin.fr
Des rendez-vous pourront √™tre donn√©s suivant les urgences"
Saint-Marcellin,Lidl,"Avenue de Romans, 38160 Saint-Marcellin, France",45.14846,5.3125386,Lundi au samedi : 8h30 - 19h30
Saint-Marcellin,Boulangerie Lebreton,"15 Place d'Armes, 38160 Saint-Marcellin, France",45.15374,5.319887,Tous les jours de 6h √† 13h30 et de 17h √† 19h
Saint-Marcellin,Biocoop Saint-Marcellin,"Avenue du Coll√®ge, 38160 Saint-Marcellin, France",45.154263,5.3196716,Lundi 15h-19h / du mardi au samedi : 8h30 - 19h
Saint-Marcellin,bievre viande,"2 Avenue de Chatte, 38160 Saint-Marcellin, France",45.14987,5.3104606,"Mardi au samedi : 
08:00‚Äì12:30
15:00‚Äì19:00"
Saint-Marcellin,Leclerc - Chatte / Saint-Marcellin,"Chemin des Gameux, 38160 Chatte, France",45.1442,5.305501,"Du lundi au samedi de 9h √† 18h30
Dimanche de 9h √† 12h
Drive en fonctionnement"
Saint-Marcellin,Le Jardin de Beauvoir,"17 Grande Rue, 38160 Saint-Marcellin, France",45.154243,5.322135,"8 h - 12 h du mardi au dimanche"
Saint-Marcellin,VillaVerde Saint-Marcellin,"5 Rue de la Camponni√®re, 38160 Saint-Marcellin, France",45.1465,5.307703, Le magasin reste ouvert pour les rayons alimentation et alimentation animale √† fin de r√©pondre aux besoins essentiels de 9h00-12h00 du lundi au samedi ( ferm√© le dimanche)
Saint-Marcellin,Provenc'halle,"Avenue de Romans, 38160 Saint-Marcellin, France",45.145348,5.309373,"09h00 √† 12h30 - 14h30 √† 18h00
Samedi : de 9h00 √† 18h00"
Saint-Marcellin,Vival,"36 Grande Rue, 38160 Saint-Marcellin, France",45.153484,5.3209534,Tous les jours : 7h30 - 21h
Saint-Marcellin,Saint-Marcellin,"38160 Saint-Marcellin, France",45.154118,5.3199377,
Saint-Marcellin,GAEC Les Jardins de Ch√©rennes,"500 Route d'Izeron, 38160 Saint-Pierre-de-Ch√©rennes, France",45.125896,5.3658957,Vente √† la ferme le mercredi de 16h30 √† 19h
Bagn√®res-de-Luchon,Pharmacie d'Etigny,"Avenue d'Etigny, 47390 Layrac, France",44.13268,0.6620316,
Bagn√®res-de-Luchon,Bagn√®res-de-Luchon,"31110 Bagn√®res-de-Luchon, France",42.788963,0.592943,
Montpon-M√©nest√©rol,Intermarch√© HYPER Montpon-Menesterol et Drive,"Avenue Georges Pompidou Route de Bordeaux, 24700 Montpon-M√©nest√©rol, France",45.006943,0.1455031,
Montpon-M√©nest√©rol,Lidl,"7 Route de Villefranche, 24700 Montpon-M√©nest√©rol, France",45.006844,0.1406245,
Romans-sur-Is√®re,Allianz Fulvio MANNINO,"17 Cours Pierre Didier, 26100 Romans-sur-Is√®re, France",45.0454,5.0481663,"Ouverte du lundi au vendredi de 9h00 √† 12h00 et sans accueil du public.

T√©l√©phone : 04 75 02 25 60 "
Romans-sur-Is√®re,Ginet Sant√© -B√©b√©cash,"23 Place Jean Jaur√®s Bis, 26100 Romans-sur-Is√®re, France",45.045147,5.054146,"Location et vente de mat√©riel m√©dical et produit d‚Äôincontinence b√©b√©

(peut assurer les livraisons de lits, fauteuils roulants pour sortie d‚Äôh√¥pital)

Ouvert : du lundi au samedi matin : 8h30 - 12h et 13h30 ‚Äì 18h

Livraison gratuite √† domicile - Joignable non stop par t√©l√©phone au 04 75 05 37 71 ou 06 72

87 78 74 "
Romans-sur-Is√®re,Teysseire Daniel,"6 Place Presle, 26100 Romans-sur-Is√®re, France",45.042942,5.0459843,"Ouverte du mardi au dimanche de 7h30 √† 13h

Possibilit√© de livraison avec paiement en carte bleue "
Romans-sur-Is√®re,Lidl,"24 Rue Louis le Cardonnel, 26100 Romans-sur-Is√®re, France",45.054848,5.042749,‚òéÔ∏è Appeler avant de vous deplacer
Romans-sur-Is√®re,Lidl,"8 Avenue des Allobroges, 26100 Romans-sur-Is√®re, France",45.050907,5.082407,‚òéÔ∏è Appeler avant de vous deplacer
Romans-sur-Is√®re,Super U et drive,"56 Avenue Gambetta, 26100 Romans-sur-Is√®re, France",45.045963,5.0610356,‚òéÔ∏è Appeler avant de vous deplacer
Romans-sur-Is√®re,Hyper U and drive,"Route de Tain, 26100 Romans-sur-Is√®re, France",45.04435,5.0302544,"8h/18h avec acc√®s prioritaire de 8 a 8h30 pour le personnel soignant/seniors/femme enceinte"
Romans-sur-Is√®re,E.Leclerc Saint Paul Les Romans,"95 Rue Clair, 26750 Saint-Paul-l√®s-Romans, France",45.05859,5.101887,
Romans-sur-Is√®re,Utile,"18 Avenue Emile Zola, 26100 Romans-sur-Is√®re, France",45.04983,5.0575786,‚òéÔ∏è Appeler avant de vous deplacer
Romans-sur-Is√®re,Provenc'Halles,"4 Avenue de la D√©portation, 26100 Romans-sur-Is√®re, France",45.0498,5.079942,‚òéÔ∏è Appeler avant de vous deplacer
Romans-sur-Is√®re,Biocoop Ferme Bio,"5 Avenue des Allobroges, 26100 Romans-sur-Is√®re, France",45.05127,5.080525,‚òéÔ∏è Appeler avant de vous deplacer
Romans-sur-Is√®re,"Horaires exceptionnels, RDV sur notre site - Grand Frais Romans-sur-Is√®re","33 Avenue des Allobroges, 26100 Romans-sur-Is√®re, France",45.055553,5.090684,‚òéÔ∏è Appeler avant de vous deplacer
Romans-sur-Is√®re,SPAR,"7 Avenue Jean Moulin, 26100 Romans-sur-Is√®re, France",45.050556,5.0471287,
Romans-sur-Is√®re,Cadier Denis,"46 Place Jean Jaur√®s, 26100 Romans-sur-Is√®re, France",45.04608,5.0520678,"46, place Jean Jaur√®s

Horaires: du lundi au samedi de 7h30 √† 12h30 et 14h30 √† 18h30

Ferm√© (temporairement) le dimanche "
Romans-sur-Is√®re,Rayon de Vie,"11 bis Rue de la R√©publique, 26100 Romans-sur-Is√®re, France",45.046528,5.0516415,‚òéÔ∏è Appeler avant de vous deplacer 0475052367 
Romans-sur-Is√®re,Aux Galets de l'Is√®re,"7 Place Maurice Faure, 26100 Romans-sur-Is√®re, France",45.042763,5.0493193,"Ouvert du mercredi au samedi, de 7h-13h et 16h-18h et le dimanche 7h-13h"
Romans-sur-Is√®re,Lili Croustille,"41 Cours Pierre Didier, 26100 Romans-sur-Is√®re, France",45.045193,5.046584,Ouvert de 7h-15h 
Romans-sur-Is√®re,La Fabrique,"1082 Chemin de Devienne, 26100 Romans-sur-Is√®re, France",45.05791,5.064031,Ouvert de 7h-19h 
Romans-sur-Is√®re,Carrefour Express,"18 Rue Dr Perret, 26100 Romans-sur-Is√®re, France",45.045883,5.048508,
Romans-sur-Is√®re,Aux _ D√©lices de Romans,"53 Rue Saint-Nicolas, 26100 Romans-sur-Is√®re, France",45.042923,5.0520806,"7h30 - 13h (durant la crise)

du mardi au dimanche "
Romans-sur-Is√®re,Pognes Mourier,"58 Place Jean Jaur√®s, 26100 Romans-sur-Is√®re, France",45.046005,5.0511537,‚òéÔ∏è Appeler avant de vous deplacer
Romans-sur-Is√®re,Boulangerie Marie Blach√®re,"4 Avenue de la D√©portation, 26100 Romans-sur-Is√®re, France",45.049984,5.079963,Ouvert de 7h30 √† 18h 
Romans-sur-Is√®re,Breyton Et Fils Sarl,"4 Cours Pierre Didier, 26100 Romans-sur-Is√®re, France",45.045868,5.0488834,Ouvert le matin
Romans-sur-Is√®re,Boulangerie P√¢tisserie B√©douin,"64 Place Jean Jaur√®s, 26100 Romans-sur-Is√®re, France",45.04599,5.0509114,‚òéÔ∏è Appeler avant de vous deplacer
Romans-sur-Is√®re,Boucherie Du Cours,"39 Cours Pierre Didier, 26100 Romans-sur-Is√®re, France",45.04524,5.0471816,‚òéÔ∏è Appeler avant de vous deplacer
Romans-sur-Is√®re,La Petite Ferme,"26100 Romans-sur-Is√®re, France",45.046066,5.052605,"Fruits L√©gumes et Fromages

Ouverte de 8h30 √† 14h30 - Dimanche 8h30 √† 12h "
Romans-sur-Is√®re,La Mie C√¢line,"76 Place Jean Jaur√®s, 26100 Romans-sur-Is√®re, France",45.045963,5.0501895,"Pains et viennoiseries

Ouvert tous les jours de 7h √† 15h "
Romans-sur-Is√®re,La Nougatine,"26100 Romans-sur-Is√®re, France",45.045635,5.0472064,
Bourges,Lotus d'Asie,"105 Av. du G√©n√©ral Charles de Gaulle, 18000 Bourges, France",47.100346,2.407024,"√âpicerie Asiatique et Exotique 
Horaires temporaires 
Lundi au jeudi : 14h √† 17h
Vendredi et samedi : 10h √† 12h et 14h √† 17h
Dimanche : ferm√© 
Mail : lotusdasie@live.fr
T√©l : 06 50 56 80 11"
Bourges,Le Field,"91 Rue d'Auron, 18000 Bourges, France",47.08034,2.3914618,"Bureau de tabac - ouvert de 8h√† 18h du lundi au vendredi
le samedi de 8h√† 16h"
Bourges,Le bistro le bergerac,"1 Rue Jean-Jacques Rousseau, 18000 Bourges, France",47.07905,2.3897681,"Tabac 
ouvert de 8h00/13h00 et 16h00/20h00
Proposition de plateaux √† emporter : 
 entr√©e, plats, dessert . ( couverts, pain ) 
Nos plats seront chaud 
Prix : 13‚Ç¨50/ par pers 
Livraison  gratuite possible quartier : auron , Barb√®s,Rousseau , 
Commande √† partir de 10h00 livraison pour le d√©jeuner 
                     √† partir de 17h00 livraison pour le d√Æner 
Des menus seront √©labor√©s au jour le jour.
Contact : 

David 
06.98.83.09.06
E-mail : davidbonnet72@hotmail.com
Mise en place d√®s lundi 30 mars 2020

                    
                     


"
Bourges,Boucherie Chevaline,"132 Rue Edouard Vaillant, 18000 Bourges, France",47.089676,2.4011858,Ouverture du mardi au samedi 8h √† 12h30 .possibilit√© de livr√© 
Bourges,PHARMACY CHER,"23 Rue du Commerce, 18000 Bourges, France",47.085617,2.3934162,horaires √† confirmer
Bourges,La Mie C√¢line,"11 Rue Moyenne, 18000 Bourges, France",47.08441,2.3954074,ouvert de 7h30 √† 14h
Bourges,E.Leclerc Bourges,"Le Nouveau, Le Prado, 18000 Bourges, France",47.08236,2.3874376,
Bourges,Monoprix,"8 Avenue de Peterborough, 18000 Bourges, France",47.087494,2.3960896,
Bourges,Biocoop Au Bourgeon Vert,"121 Boulevard de l'Avenir, 18000 Bourges, France",47.076553,2.3841076,"horaires :  tous les jours, 9h30 - 18h30 "
Bourges,Bourges,"18000 Bourges, France",47.081013,2.398782,"Coronavirus // Les √©tablissements ouverts √† Bourges.
Pour vous soutenir et vous accompagner pendant la p√©riode de confinement, je vous propose une carte des √©tablissements ouverts (commerces alimentaires, pharmacies, stations-service‚Ä¶).
L'outil est collaboratif : je compte sur vous pour ajouter vos infos afin d‚Äôavoir une carte la plus compl√®te possible.
Si un lieux ouvert n‚Äôappara√Æt pas sur cette carte, cliquer sur le bouton ""Proposer un endroit √† ajouter"", en pr√©cisant : 
‚Ä¢ le nom de votre commerce
‚Ä¢ les horaires d‚Äôouverture (ou de livraison)
‚Ä¢ le t√©l√©phone de votre enseigne
Et surtout, n'oubliez pas #SAUVEZDESVIES #RESTEZCHEZVOUS"
Crest,Tabac Presse du Champs de Mars,"6 Bis Rue Maurice Barral, 26400 Crest, France",44.72665,5.0201354,"Horaires :
Lundi au samedi : 6h30-18h 
et Dimanche de 6h30 √† 12h    
6 bis rue Maurice Barral        
T√©l : 04 75 25 11 31 "
Crest,Aur√©l auto,"33 Rue Gustave Eiffel, 26400 Crest, France",44.732,5.0103765,"Horaires 

du lundi au vendredi : de 9h √† 18h sur RDV au 06 44 02 95 15   

Tel : 33 rue Gustave Eiffel "
Crest,Biodelys,"Place des Moulins, 26400 Crest, France",44.72904,5.027137,"Les Pains de Beaufort    

du lundi au samedi : de 8h30 √† 13h  et de 16h30 √† 18h            

Tel : 04 26 52 72 70 "
Crest,Imprimerie Papeterie Veziant,"Rue Jean Jaur√®s, 26400 Crest, France",44.7353,5.0068626," Horaires :

du lundi au vendredi : 9h-12h          

T√©l : 04 75 25 10 52"
Crest,Quai Soubeyran,"Quai Soubeyran, 26400 Crest, France",44.724617,5.0266676,"Service provisoirement suspendu.

L'AMAP de Crest, fournie par le GAEC Caetera √† Vaunavey-la-Rochette propose une distribution de produits locaux et bio devant le boulodrome de Soubeyran les jeudis de 18h √† 19h. 
"
Crest,CVIA,"8 Rue Gustave Eiffel, 26400 Crest, France",44.73178,5.0095882,"Garage CVIA - 
Ouvert du lundi au vendredi de 9h √† 12h et de 14h √† 16h 

T√©l : 04 75 25 02 82"
Crest,La Th√©i√®re Flottante,"7 Rue de la R√©publique, 26400 Crest, France",44.72852,5.023442,Ouvert uniquement les jours de march√© : les mardis et samedis de 9h √† 12h
Crest,"L'etincelle,La Plaine","120 chemin de Malastre, ZI la Plaine, 26400 Crest, France",44.732376,4.9972043," Du lundi au  samedi : de 14h30 √† 18h.

Pour avoir leur catalogue du Drive : bonjour@etincelle.bio
T√®l : 04 75 56 59 29
"
Crest,SAS FAURE ET FILS et FAURE JARDINAGE Crest - Massey Ferguson - Husqvarna - Stihl - Honda - Kubota,"Route de Mont√©limar, Les-Blaches, 26400 Crest, France",44.718662,5.011029,"Ouverture restreinte : 8h-12h / 14h-18h du lundi au vendredi. Concession Agricole ouverte, sur appel t√©l√©phonique au 0475250363 ‚Ä¢ Faure Jardinage pour l‚ÄôEspace Vert ferm√© au public mais informations par t√©l√©phone 0475250363."
Crest,Morin Mat√©riaux et Brico,"2 Rue Jean Jaur√®s, 26400 Crest, France",44.73076,5.0065475,Joignable par mail : accueil@morinsa.fr
Crest,La Civette,"15 Rue de L H√¥tel de ville, 26400 Crest, France",44.72825,5.0224223,A compter du 23 mars ouvert de 8h30 √† 14h30
Crest,Maison de la Presse - Tabac du Pont,"18 Rue Maurice Long, 26400 Crest, France",44.727726,5.0214357,"Horaires :
Lundi au Dimanche de 7h √† 13h

T√®l. 04 75 25 09 01
"
Crest,Tabac Press Du Square.Crest,"17-4 Rue Du 8 Mai 1945, 26400 Crest, France",44.731045,5.0168896,"Horaires :
Lundi au Samedi de 6h30 √† 18h
Dimanche de 6h30 √† 12h

T√®l. 04 75 83 28 69
"
Crest,Juste Tomate,"6 Quai Henri Latune, 26400 Crest, France",44.72796,5.01983,Ouvert de 18h30 √† 20h30 Nous vous proposons √† emporter : pizzas- burgers - gratins de ravioles-frites - desserts--boissons--vin- bi√®res artisanales 
Crest,"Honorin, pains, sandwichs & compagnie","26400 Crest, France",44.730186,5.0160847,"Horaires :
Lundi au Vendredi de 7h √† 14h 
Samedi de 7h √† 13h
"
Crest,Carrefour Market,"Rue Georges Bovet, 26400 Crest, France",44.72895,5.02896,"Horaires :
Lundi au Samedi : de 8h √† 19h
Dimanche : de 8h30 √† 12h

T√®l ; 04 75 25 11 40
"
Crest,Casino Supermarche,"Rue Jean Jaur√®s, 26400 Crest, France",44.738144,5.0045724,"Horaires :
Lundi, Mardi, Mercredi, Jeudi et Dimanche : de 8h  √† 20h. 
Vendredi et samedi : de 8h √† 24h
Drive possible

T√®l. 04 75 79 69 00
"
Crest,ALDI,"Avenue F√©lix Rozier, 26400 Crest, France",44.733067,5.0114126,"Horaires :
Lundi au Samedi : de 10h √† 18h
"
Crest,SCEA LA FERME DES BLACHES,"route des blaches, 26400 Crest, France",44.718014,4.9983974,Horaires habituels : Lundi 15h-19h Mardi 9h-12h30 et 15h-19h Mercredi 15h-19h Jeudi 15h-19h Vendredi 9h-12h30 et 15h-19h Samedi 15h-19h Ferm√© les dimanches et les jours f√©ri√©s 
Crest,Martin Joseph,"Les-Blaches, 26400 Crest, France",44.716576,5.003735,"Martin Fruits et L√©gumes, 88 chemin des Blaches.

Horaires:
Mardi et Vendredi de 10H √† 12h et de 14h √† 18h30

"
Crest,Fromagerie G√©rentes - Crest,"All√©e F√©lix Rozier, 26400 Crest, France",44.73337,5.011628,"Horaires :
Mardi au Samedi de 8h30 √† 13h

T√®l. 04 75 25 41 31
"
Crest,Au _ Petit Primeur,"Rue Edouard Branly, 26400 Crest, France",44.729534,5.0175433,"Horaires:
Lundi au Samedi de 7h √† 18h

Tel : 04 75 76 72 85
"
Crest,La Charrette,"188 Avenue Jean Rabot, 26400 Crest, France",44.72507,5.0216017,"Horaires :
Mardi et Vendredi de 8h30 √† 12h30
Mercredi et Jeudi de 8h30 √† 13h

T√®l. 04 27 68 92 21

"
Crest,Boucherie de la Tour,"7 Rue Lieutenant Michel Prunet, 26400 Crest, France",44.733288,5.011293,"Horaires :
Mardi au Samedi de 7h30 √† 12h30

T√©l. 04 75 57 74 18
"
Crest,Cave du Bourg,"51 Rue Emile Loubet, 26400 Crest, France",44.728764,5.0179386,"Horaires:
 les mardis et vendredis de 9h √† 12h30"
Crest,Poissonnerie du bourg,"33 Rue Emile Loubet, 26400 Crest, France",44.728912,5.018896,"Horaires :
Mardi au Samedi de 9h √† 13h
"
Crest,Epicerie nouvelle,"Rue Edouard Branly, 26400 Crest, France",44.729507,5.01728,"Horaires
Lundi au Samedi : de 7h30 √† 12h30 et de 14h30 √† 19h

T√©l. 04 75 83 19 43
"
Crest,Boucherie _ J.l.m,"25 Rue Edouard Branly, 26400 Crest, France",44.72949,5.017555,"Boucherie du Petit Primeur

Horaires
Mardi au Samedi de 7h √† 12h30 et de 14h30 √† 18h

T√®l. 04 75 25 20 98

"
Crest,Gamm vert,"Avenue Georges Clemenceau, 26400 Crest, France",44.730354,5.0175266,"Horaires :
Lundi au Samedi de 8h30 √† 12h et de 14h √† 18h
"
Crest,Petit Casino,"46-48, Rue de L'Hotel de Ville, 26400 Crest, France",44.729,5.0207043,"Horaires :
Mardi au samedi : de 8h √† 12h et de 15h √† 18h
Dimanche  : de 8h √† 12h
"
Crest,La Viennoiserie Bio Val de Drome,"49 Rue Emile Loubet, 26400 Crest, France",44.728615,5.0186725,"
Horaires :
Mardi au Vendredi de 7h √† 14h

T√©l. 09 66 92 14 73
"
Crest,SOUBEYRAND COCHET,"11 Rue Maurice Long, 26400 Crest, France",44.727737,5.0217094,"Horaires :
Mardi au Dimanche de 7h √† 12h30

Apr√®s-midis r√©serv√©es aux livraisons. Commande : patisserie.soubeyrand.cochet@gmail.com

T√®l.04 75 25 47 34
"
Crest,Boulangerie patisserie F Chastang,"Avenue F√©lix Rozier, 26400 Crest, France",44.733303,5.0113583,"Rue de Lieutenant Prunet ‚Äì Espace B√©ranger
Horaires :
Lundi au Samedi de 6h30 √† 19h
Dimanche de 7h √† 13h
"
Crest,Boulangerie Fouraison,"9 Rue de la R√©publique, 26400 Crest, France",44.72846,5.023528,"Horaires :
Lundi au Samedi de 7h √† 13h30

T√®l. 04 75 25 02 53
"
Crest,Cap Vital Sant√© Crest / Mat√©riel M√©dical du Val de Dr√¥me,"3 Rue Jean Jaur√®s, 26400 Crest, France",44.732098,5.004738,"Mat√©riel M√©dical du Val de dR√ñME

Horaires :
Lundi au Vendredi de 9h √† 12h et de 14h √† 17h

T√©l. 04 75 43 02 34


"
Crest,Pharmacie du Bourg,"7 Rue Sainte-Euph√©mie, 26400 Crest, France",44.730656,5.019262,"Horaires :
Lundi au Vendredi de 9h √† 12h15 et de 14h30 √† 19h
Samedi de 9h √† 12h

T√©l. 04 75 25 02 04
"
Crest,Angelique & Pascal,"Place de la Libert√©, 26400 Crest, France",44.72498,5.0212526,"R√©ouverture le jeudi 26 mars :

Horaires : 

Elle est ouverte tous les jours sauf le mercredi de 7h √† 13h. T√®l. 04
75 61 60 23 "
Crest,Mairie de Crest,"Place Dr Maurice Rozier, 26400 Crest, France",44.72842,5.024166,"Accueil ouvert du lundi au vendredi de 8h √† 18h et samedi de 9h √† 12h
T√©l : 04 75 76 61 10 - Fax : 04 75 25 00 63
Courriel : admin@mairie-crest.fr"
Crest,Pharmacie du Pont,"12 Rue Maurice Long, 26400 Crest, France",44.728188,5.021761,"Horaires exceptionnels (confinement)
du lundi au Vendredi : de 9h √† 12h et de 14h √† 19h
le samedi : de 9h √† 12h et de 14h30 √† 18h30

Tel : 04 75 40 66 58

Ne pas tenir compte des horaires ci-dessous."
Crest,Pharmacie Centrale,"7 Rue Lieutenant Michel Prunet, 26400 Crest, France",44.733772,5.011376,"Horaires :
Lundi au Vendredi de 9h √† 12h et de 14h30 √† 19h
Samedi de 9h √† 12h et de 14h30 √† 18h30

T√®l. 04 75 40 62 20

"
Gaillard,Casino supermarch√©,"97 Rue de Gen√®ve, 74240 Gaillard, France",46.190987,6.215096,
Gaillard,Boucherie du Bel'Os,"1 Rue des Bellosses, 74100 Ambilly, France",46.191586,6.219253,"Boucherie de quartier et proposant des produits locaux 
"
Gaillard,Costa Earl,"9 Rue de l'Industrie, 74240 Gaillard, France",46.18527,6.220279,"
COMMANDEZ MAINTENANT 
 RETIREZ VOS FRUITS ET LEGUMES JEUDI 02 AVRIL
 04 50 92 00 39  06 75 78 24 70  Messages priv√©s
VENTES A LA FERME LES VENDREDIS & SAMEDIS DU 8H A 14H !"
Gaillard,Le Savoyard Gourmand,"5 Cours de la R√©publique, 74240 Gaillard, France",46.18493,6.2082686,"Savoyard Gourmand proposes des produits locaux et de qualit√©.
"
Gaillard,Spar,"118 Rue de Gen√®ve, 74240 Gaillard, France",46.19209,6.210847,Supermarch√© de quartier
Bressuire,Les Caves de la Vallee Bressuire,"Rue des Coteaux, 79300 Bressuire, France",46.8482,-0.4992072,"Mardi, Vendredi et Samedi de 9h30 a 12h30"
Bressuire,Boulangerie Marie Blach√®re,"Espace Commercial Pont D‚ÄôOuit, 14 Rue du Pont d'Ouit, 79300 Bressuire, France",46.85033,-0.4953355, ouverte du mardi au samedi de 10h-12h30 14h30-19h
Bressuire,Bureau Vall√©e Bressuire - papeterie et photocopie,"64 Boulevard de Poitiers, 79300 Bressuire, France",46.83884,-0.484082,"Du lundi au vendredi 
9h √† 12h et de 14h √† 17h"
Bressuire,CALIPAGE PAPETERIE LE FRENEAU,"12 Rue de la Vergne, 79300 Bressuire, France",46.839184,-0.491277,"Du mardi au vendredi 9h30 ‚Äì 12h
 14h30 ‚Äì 16h
Samedi 9h30 - 12h"
Bressuire,le coin du vapoteur Cigarettes Electronique,"28 Rue Gambetta, 79300 Bressuire, France",46.840458,-0.492276,"Du mardi au samedi 10h ‚Äì 12h
 14h ‚Äì 17h30"
Bressuire,Mon Brico,"Boulevard de l'Europe, 79300 Bressuire, France",46.83287,-0.4817578,"Du lundi au vendredi 9h ‚Äì 12h15
 14h ‚Äì 18h30
Samedi 9h ‚Äì 12h15
 14h ‚Äì 18h15"
Bressuire,Le Gambetta,"4 Rue Gambetta, 79300 Bressuire, France",46.84131,-0.4921826,Du lundi au samedi 8h - 13h
Bressuire,Le Saint Jacques,"2 Place Emile Zola, 79300 Bressuire, France",46.838028,-0.4938209,"Du lundi au vendredi 6h15 ‚Äì 12
 14h-17h
Samedi 7h ‚Äì 12h
 14h - 16h"
Bressuire,Le Chene Vert,"14 Place Labate, 79300 Bressuire, France",46.84406,-0.4899857,"Du lundi au samedi 6h ‚Äì 20h
Dimanche 6h ‚Äì 13h
Restauration √† emporter le midi"
Bressuire,Landreau Fabienne,"18 Rue de l'Abb√© Cornuault, 79300 Bressuire, France",46.868515,-0.3891251,"Du mardi au vendredi  8h45 ‚Äì 13h
 16h ‚Äì 18h30
Samedi 8h45 ‚Äì 13h
Dimanche 9h - 12h15"
Bressuire,U Express,"3 Rue de la Vergne, 79300 Bressuire, France",46.839687,-0.4915333,"Du lundi au samedi 9h ‚Äì 18h30
Dimanche 9h ‚Äì 12h30"
Bressuire,La Mie C√¢line,"1 Rue Gambetta, 79300 Bressuire, France",46.84157,-0.491928,
Bressuire,SARL DAFLO,"8 All√©e du Chanoine Chollet, 79300 Bressuire, France",46.804775,-0.5096495,"Ouverte 1 jour sur 2 soit lundi/mercredi/vendredi et dimanche 6h30 - 13h
Distributeur de baguettes de Clazay : 7 jours/7"
Bressuire,Biocoop Bressuire,"2 All√©e Nicolas Copernic, 79300 Bressuire, France",46.842632,-0.5113306,lundi au samedi de 9h √† 18h30 sans interruption
Bressuire,L'Oc√©an (Sarl) poissonnerie de l 'OCEAN,"4 Rue Ernest Perochon, 79300 Bressuire, France",46.839256,-0.492728,
Bressuire,La Cuisine de Benoit,"23 Rue de la Huchette, 79300 Bressuire, France",46.839344,-0.4927628,Du mardi au samedi 8h - 14h
Bressuire,Plaisirs Fermiers Bressuire,"12 Boulevard Youri Gagarine, 79300 Bressuire, France",46.845196,-0.505763,"Du mardi au samedi 9h30 ‚Äì 12h30
 14h ‚Äì 16h30
Possibilit√© de commandes par mail : fermiersdubocage@orange.fr 
ou par t√©l√©phone au 05 49 72 15 57 (retrait en magasin)"
Bressuire,Pharmacie de Terves Aranda-Guedon,"30 Boulevard Notre Dame, 79300 Bressuire, France",46.803467,-0.5102519,"Du lundi au vendredi 9h - 12h15
14h - 15h
Samedi 9h - 12h15"
Bressuire,Pharmacie Du Progr√®s,"1 Rue Ernest Perochon, 79300 Bressuire, France",46.839226,-0.492968,"Du lundi au vendredi 9h ‚Äì 20h
Samedi 9h - 19h"
Bressuire,Pharmacie Notre Dame,"12 Place Notre Dame, 79300 Bressuire, France",46.84148,-0.492205,"Du lundi au vendredi 9h ‚Äì 12h30
 14h ‚Äì 19h15
Samedi 9h ‚Äì 12h30"
Bressuire,Pharmacie OYONO,"17 Rue Gambetta, 79300 Bressuire, France",46.841156,-0.4919255,"Du lundi au vendredi 9h ‚Äì 12h30
 14h ‚Äì 19h30
Samedi 9h ‚Äì 12h30
 14h ‚Äì 19h"
Bressuire,Pharmacie Saint-Jacques,"17 Place Emile Zola, 79300 Bressuire, France",46.837765,-0.4935505,"Du lundi au vendredi 9h ‚Äì 12h30
 14h ‚Äì 19h
Samedi 9h ‚Äì 12h30
 14h ‚Äì 18h30"
Bressuire,la bocagine,"1 Rue de la Cave, 79300 Bressuire, France",46.84342,-0.4900996,"Du mardi au samedi 8h30 ‚Äì 12h45
 15h ‚Äì 18h"
Bressuire,Boucherie d'ponpon,"38 Rue Gambetta, 79300 Bressuire, France",46.840218,-0.4923885,"Du mardi au samedi 8h30 ‚Äì 12h30
Livraison possible le matin sur le Bressuirais"
