city_name,title,address,latitude,longitude,comment
Lille,Jardin d'Ostrevant,"111 Rue Henri Bocquet, 59111 Bouchain, France",50.281654,3.3201418,
Lille,L'Oriental,"75 Avenue du Mar√©chal de Lattre de Tassigny, 59350 Saint-Andr√©-lez-Lille, France",50.657745,3.0401561,"Kebab, tacos, panini, couscous .... Ouvert du lundi au samedi 11:30-14:00 et 18:00-23:00 et dimanche de 18:00-23:00. 
Commandes en livraison sur un rayon de 4km et √† emporter. 0320066965. "
Lille,Fruits de la Terre,"65 Rue du G√©n√©ral Leclerc, 59120 Loos, France",50.610992,3.01971,"Les horaires :
dimanche - 09:30‚Äì13:00
lundi - Ferm√©
mardi- 10:00‚Äì12:30 / 15:30‚Äì19:30
mercredi - 10:00‚Äì12:30 / 15:30‚Äì19:30
jeudi - 15:30‚Äì19:30
vendredi	- 10:00‚Äì12:30 / 15:30‚Äì19:30
samedi - 09:00‚Äì13:00 / 15:30‚Äì19:30

Num√©ro de t√©l√©phone : 03 62 26 34 14

Vous pouvez √©galement commander sur notre site www.fruitsdelaterre.com et b√©n√©ficier d'une livraison gratuite dans un rayon de 20 km autour de Lille/Lomme.

Nous permettons √† notre client√®le situ√©e √† Loos, de consommer en toute confiance des fruits et l√©gumes extra frais issus de l'agriculture biologique ou raisonn√©e, dont la qualit√© vous donnera envie d'y revenir. De plus, nous developpons une large gamme de produits vrac, pour le plus grands plaisir de nos clients. La boutique √† Loos, vous offre √©galement une large gamme de produits d'√©picerie, de vins, de fromages ainsi que des produits originaux pour √©pater vos convives ! Pour nos clients partout en France, nous livrons √† domicile nos produits les plus originaux (mini-l√©gumes, micro-v√©g√©taux, fleurs comestibles, algues bio...) via notre boutique en ligne, avec l'assurance de leur fra√Æcheur tout au long du trajet."
Lille,Pacte le drive pieton des produits locaux,"46 Rue Basse, 59800 Lille, France",50.638786,3.060216,
Lille,Ma√Ætre Georges,"118 Rue Ferdinand de Lesseps, 59130 Lambersart, France",50.66016,3.0131345,Livraison √† domicile gratuite de toutes vos boissons sur la p√©riph√©rie Lambersartoise et Lilloise
Lille,On Part En Vrac,"2a Chemin de l'Ange Gardien, 59890 Quesnoy-sur-De√ªle, France",50.713116,2.9971616,Livraisons √† domicile gratuites sur la m√©tropole pour les commandes de plus de 50‚Ç¨ sur http://www.onpartenvrac-drive.com
Lille,Al Ritrovo,"43 Rue Sadi Carnot, 59320 Haubourdin, France",50.611526,2.985866,
Lille,Al Fornello,"114 Avenue Saint-Maur, 59110 La Madeleine, France",50.652134,3.0810301,"Ouvert de 10h √† 13h30 et de 18h √† 20h30 
Ferme le dimanche et lundi "
Lille,TWO D,"village des voiles, 59520 Marquette-lez-Lille, France",50.68055,3.0623186,"11h √† 13h30. 
Au 09 62 51 03 48 ou sur le site www.bistrot-two-d.com"
Lille,Carrefour City Arts Lille,"1-7 Rue des Arts, 59000 Lille, France",50.637753,3.066941,
Lille,O Ch'ti B LE COMPTOIR DES GASTRONOMES,"98 Rue Saint-Andr√©, 59800 Lille, France",50.645466,3.056555,"D√®s mardi midi, retrouvez nos üçï, ainsi qu‚Äôune carte sp√©ciale, nos fameux burgers, nos fabuleuses lasagnes aux 2 viandes, notre cochon de 9 h... etc
√Ä vous de choisir entre la livraison √† domicile via nos partenaires: @ubereats_fr ou @deliveroo_fr ou la vente √† venir chercher directement au restaurant
Sachez que nous respecterons scrupuleusement les consignes de s√©curit√© face au virus. La sant√© avant tout.
Nous vous demanderons donc de respecter les distances recommand√©es par les autorit√©s. Pour une meilleure prise en charge et fluidit√© appelez le ‚òéÔ∏è0612812786 ou 0320512502 afin de passer votre commande et √©viter l‚Äôattente."
Lille,Biola'Pizza,"8 Place Roger Salengro, 59960 Neuville-en-Ferrain, France",50.750366,3.1520216,"Vente √† emporter, appeler au  03 59 54 60 87 pour conna√Ætre les stocks."
Lille,A La Brasserie,"41 Rue d'Esquermes, 59000 Lille, France",50.623596,3.0429397,Le restaurant propose de la vente √† emporter. Appeler au 03 20 08 23 66 avant pour conna√Ætre les stocks.
Lille,Bio'Appetit !,"6 Place D√©liot, 59000 Lille, France",50.619987,3.068268,"Commandes √† emporter en respectant toutes les mesures de s√©curit√©.

Commandes √† passer par t√©l√©phone au 03 20 09 68 91."
Lille,La Fossetta Lesquin,"100 Rue du Pic au Vent, 59810 Lesquin, France",50.582314,3.110818,"La Fossetta Lesquin vous propose des plats √† emporter, le midi uniquement de 11h30 √† 14h00, dans le CRT 1-2-3-4, Ennevelin, Avelin et Pont-√†-Marcq.

üìû Commande uniquement par t√©l√©phone au 0320110435 ou par mail commande@fossetta.fr
Merci de pr√©ciser dans vos commandes mails, l'horaire de livraison, votre num√©ro de portable ainsi que l'adresse de votre soci√©t√©.

üßë‚Äçüç≥ D√©couvrez notre carte sp√©ciale :

- P√¢tes :
Spaghetti √† l‚Äôarrabiata : 12‚Ç¨
Rigatoni bolognaise : 13‚Ç¨
Rigatoni Carbonara : 13‚Ç¨

P√¢tes du jour :

Rigatoni Verselli 13‚Ç¨
Sauce cr√©m√©e, b≈ìuf hach√©, ail, cr√®me de truffe, roquette

Spaghetti Tomates semi-s√©ch√©es et jambons aux herbes : 13‚Ç¨
Sauce cr√©m√©e, ail, tomate semi-s√©ch√©es, roquette, jambon aux herbes

- Salades compos√©es
https://lafossetta.fr/specialites/

- Pizzas
https://lafossetta.fr/pizzas/

- Desserts
Tiramisu 6‚Ç¨

- Boissons
San Pellegrino 50cl 2.5‚Ç¨
Coca 33 cl 3‚Ç¨
Minute Maid Orange 33cl 3‚Ç¨
Ice Tea 25cl 3‚Ç¨
Sprite 3‚Ç¨
Fanta 33cl 3‚Ç¨
Goudale Blonde 50cl 6‚Ç¨

‚Äº Nous vous livrons pour une commande minimum de 6 plats. Pour toutes les autres commandes, notre restaurant de Lesquin vous accueille dans les meilleures conditions pour le retrait.

Pour une question de logistique, en cas de commande group√©e, nous n'acceptons qu'un seul moyen de paiement (tickets restaurant, ch√®que, CB)"
Lille,Autour de Vous Lille,"81 Rue d'Angleterre, 59800 Lille, France",50.640106,3.058205,"""Nous serons sur place demain de 11h30 √† 18h et nous verrons en fonction du stock vendu ce qui se passera les jours suivants... 
le t√©l√©phone du resto est le 0328077371 si les gens veulent savoir ce que nous proposons. 
Nous accepterons uniquement les paiement par carte bancaire! """
Lille,DREAM DINER,"248 Rue des Postes, 59000 Lille, France",50.619545,3.050772,Horaires et cartes habituels. √Ä emporter ou en livraison.
Lille,Mon Petit Tha√Ø,"228 Rue L√©on Gambetta, 59000 Lille, France",50.62878,3.0524569,"""Contactez-nous au 03.20.31.54.74 pour toute commande √† emporter ou via notre plate-forme Deliveroo pour toute commande en livraison. N'h√©sitez pas √† cocher la livraison sans contact pour une s√©curit√© maximum."""
Lille,A La Maison,"147 Rue Pierre Mauroy, 59800 Lille, France",50.633427,3.0681977,Le restaurant propose la vente √† emporter ou en livraison.
Lille,Chez Brigitte,"13 Rue des Bouchers, 59000 Lille, France",50.638382,3.0585268,"Des plats sont propos√©s √† emporter. 

Pour avoir plus d'infos sur les plats, vous pouvez appeler au 09 83 80 89 61."
Lille,Ke Tacos,"72 ter Avenue du Peuple Belge, 59800 Lille, France",50.64457,3.0623972,"Vente essentiellement de tacos 1,2 ou 3 viandes, hamburger
Paiement esp√®ce + Tr + cb en sans contact"
Lille,Pizza Gourmet,"169 Rue du G√©n√©ral de Gaulle, 59110 La Madeleine, France",50.655365,3.073421,Carte habituelle uniquement √† emporter.
Lille,IT Italian Trattoria,"65-67 Rue de B√©thune, 59800 Lille, France",50.633312,3.063156,Le restaurant propose la vente √† emporter ou en livraison.
Lille,Taobento - Lille,"8 Place de la Gare, 59800 Lille, France",50.636333,3.0689821,"Carte habituelle √† emporter ou en livraison.
De pr√©f√©rence, commander la commande sur le site internet."
Lille,Croque-Fran√ßois,"13 Rue de l'H√¥pital Militaire, 59800 Lille, France",50.633167,3.0621407,"Carte habituelle √† emporter. Paiement par carte de pr√©f√©rence.
Midi et soir √† partir de Mardi.
"
Lille,Viva Italian Pizza,"107 Rue Sadi Carnot, 59350 Saint-Andr√©-lez-Lille, France",50.661484,3.0554953,"Viva Italian Pizza

Commandes √† emporter / √Ä commander par t√©l√©phone avant : 03 20 31 70 77"
Lille,Los 3 compadres,"80 Rue Br√ªle Maison, 59000 Lille, France",50.625908,3.0611396,Toute la carte √† emporter sauf molcajete. Prix identiques.
Lille,Le Comptoir Volant,"22 Place des Patiniers, 59000 Lille, France",50.63981,3.0645936,Vente √† emporter avec paiement sans contact de pr√©f√©rence.
Lille,SPOK - Lille,"15 Rue Saint-Jacques, 59000 Lille, France",50.64057,3.065641,"Vente √† emporter et livraison.

""Sur la grande table en bois de la salle √©pur√©e ou √† emporter, des sandwiches, soupes et petits plats cr√©atifs."""
Lille,BiBoViNo Vieux-Lille,"14-16 Rue de P√©t√©rinck, 59800 Lille, France",50.641064,3.061567,"""On propose des vins de petits vignerons √† emporter en cubi ! Cela se garde deux mois apr√®s ouverture. Id√©al pour la consommation quotidienne :)
40 r√©f√©rences dispos.
Horaires : mardi au samedi : 11h-18h, dimanche 10h30-14h30"""
Lille,L'Arri√®re Pays,"47 Rue Basse, 59000 Lille, France",50.63873,3.0611904,"Vente √† emporter sur la carte du restaurant.

""Vaut mieux appeler avant pour commander, on sait pas trop ce qui sera dispo √† la carte. 0320138007"""
Lille,Daddy Cr√™pes,"32 Place de la Gare, 59800 Lille, France",50.636024,3.069528,"Bar √† Cr√™pes vente √† emporter entre 11h et 15h. 

La carte est disponible sur ce lien üôÇ https://daddycrepes.fr/creperie-lille/creperie-lille-carte/"
Lille,Sam'R√©gal,"36 Rue Saint-S√©bastien, 59800 Lille, France",50.64676,3.0576108,"Carte habituelle uniquement √† emporter.

Ouvert midi et soir sauf le lundi."
Lille,DINA LILLE Wazemmes,"19 Place Nouvelle Aventure, 59000 Lille, France",50.626637,3.049996,"Restaurant de p√¢tes fraiches.

Uniquement √† emporter."
Lille,Bierbuik- Bloemeke,"19 Rue Royale, 59000 Lille, France",50.63941,3.058262,Tous les snacks et toutes les bi√®res sont √† emporter. 
Lille,SAM & LIE,"368 Avenue du Mar√©chal de Lattre de Tassigny, 59350 Saint-Andr√©-lez-Lille, France",50.66625,3.030087,Vente √† emporter habituelle.
Lille,Pokawa Lille,"5 Rue Nationale, 59800 Lille, France",50.63691,3.0627892,Commandes √† emporter ou en livraison.
Lille,Sushi Shop,"4-6 Place Louise de Bettignies, 59000 Lille, France",50.640457,3.064681,Vente en livraison et √† emporter. Les commandes doivent √™tre r√©gl√©es avant la r√©cup√©ration.
Lille,Sushi Shop Lille Centre,"15 Place de B√©thune, 59800 Lille, France",50.632664,3.062658,Vente en livraison et √† emporter. Les commandes doivent √™tre r√©gl√©es avant la r√©cup√©ration.
Lille,Fast Pizza,"246 Rue du Faubourg d'Arras, 59000 Lille, France",50.607307,3.0589113,"Carte habituelle √† emporter.

www.fast-pizza-lille.fr"
Lille,Gusto Mio,"15 Pl. Jacquard, 59000 Lille, France",50.631504,3.0644886,Carte habituelle √† emporter ou en livraison sur Deliveroo.
Lille,Halles Modernes - Vieux Lille,"6 Rue de la Barre, 59000 Lille, France",50.639023,3.0584428,"Les halles restent ouvertes, mais information importante :

Livraison gratuite √† domicile √† partir de 19,90‚Ç¨ d'achat jusqu'√† nouvel ordre pour aider les personnes qui doivent rester √† la maison."
Lille,Pixies Bar & Burger,"33 Rue Ernest Deconynck, 59800 Lille, France",50.630604,3.056553,"Le pixies sera ouvert 7j/7 en livraison et √† emporter. 

Lundi mardi mercredi jeudi 11h30 / 14h30 - 18h3 /23h30
Vendredi 11h30 / 14h30 - 18h30 / 00h30
Samedi 12h / 00h30
Dimanche 12h / 23h"
Lille,Quai Des Bananas,"84 Rue Royale, 59800 Lille, France",50.641937,3.056636,"√Ä emporter : cocktails, bi√®res, tapas, saucisson, planche tartinable (et m√™me barman √† domicile)."
Lille,Shake'N Out Burger,"4 Rue des Manneliers, 59800 Lille, France",50.636654,3.064476,Carte habituelle √† emporter ou en livraison sur les diff√©rentes plateformes.
Lille,PANCOOK Lille,"125 Rue Colbert, 59000 Lille, France",50.631775,3.0436232,"""Pancook ouvert en carte r√©duite du lundi au vendredi midi de 11h30 √† 14h et du mercredi pour samedi soir de 19h √† 21h30.

Nous proposons √©galement un service de livraison pour toutes adresses √† 10 minutes du Pancook afin de garantir la fra√Æcheur des plats.

Pour votre choix :
‚Üí les trois 3 Pancook,
‚Üí le trio de Pancook
‚Üí le potjevleesch
‚Üí les croquettes de crevettes
‚Üí la salade du moment.

Vous pouvez √©galement passer vos commandes par avance sur le site du Pancook (https://pancook.fr/reservez-votre-table/) ou par t√©l√©phone au +33 7 82 42 24 84‚Ä¨"""
Lille,Fives Thai Coffee,"8 Rue des 7 Agaches, 59000 Lille, France",50.63716,3.064176,Vous pouvez commander les plats sur le site web : www.fivesthai.fr avant 10h30 pour le midi. Service √† emporter (devant le magasin) ou en livraison.
Lille,Fives Tha√Ø Bangkok,"186 Rue Pierre Legrand, 59800 Lille, France",50.632584,3.0915267,Vous pouvez commander les plats sur le site web : www.fivesthai.fr avant 10h30 pour le midi. Service √† emporter (devant le magasin) ou en livraison.
Lille,L'ATELIER STREET FOOD,"Stade Pierre Mauroy, Rue du Virage, 59650 Villeneuve-d'Ascq, France",50.610294,3.130603,Vente √† emporter sur la carte habituelle.
Lille,Tok Tok,"246 Rue L√©on Gambetta, 59000 Lille, France",50.628548,3.0518732,Vente √† emporter et livraison sur Deliveroo.
Lille,Wok and Sweet,"4 Rue des Ponts de Comines, 59800 Lille, France",50.636227,3.066249,Commandes √† emporter sur la carte habituelle.
Lille,Le Barboteur,"90 Quai de l'Ouest, 59000 Lille, France",50.62937,3.021381,"Une formule √† emporter √† 15‚Ç¨ : plat du jour + dessert.

Vous pouvez les appeler au 03 20 02 57 97 pour conna√Ætre les produits du jour."
Lille,L'italien,"2 Rue Faidherbe, 59136 Wavrin, France",50.573566,2.9402602,"L'italien - 2 Rue Faidherbe, 59136 Wavrin 

Ouvert pour des pizzas √† emporter (Pensez √† r√©server au 0320903641 afin d'√©viter le flux)."
