city_name,title,address,latitude,longitude,comment
Valence,Spidzza Grand'M√®re,"119 Avenue de Romans, 26000 Valence, France",44.93427,4.9050717,
Valence,Taklope Store Valence,"6 Avenue Victor Hugo, 26000 Valence, France",44.929955,4.8908997,"Horaires √† jour en temps r√©el sur Google. 
Pour tout renseignement : 0986349988
Ou valence@taklope.com"
Valence,BOUTIQUE LAURENT,"30 Rue Emile Augier, 26000 Valence, France",44.931072,4.8914523,"Nouveaux horaires : 9h-13h du mardi au samedi
Livraisons possibles
Commandes et conseils : 04 75 43 65 73 et boutique.laurent@orange.fr"
Valence,15 Avenue Pierre Semard,"15 Avenue Pierre Semard, 26000 Valence, France",44.92857,4.8917465,"tabac,vape,fdj,presse l'oriental"
Valence,LE PARKER,"29 Avenue F√©lix Faure, 26000 Valence, France",44.931236,4.895338,
Valence,Caisse d'Epargne Chateauvert,"124 Rue Ch√¢teauvert, 26000 Valence, France",44.919888,4.8991094,"Attention l'agence est ouvert au public le matin seulement.
Fermeture tous les jours √† 16h30  "
Valence,Lounge and Vap,"62 Avenue Victor Hugo, 26000 Valence, France",44.92784,4.889679,"Cigarettes √©lectroniques et e-liquides
Permanences: 
mardi / jeudi / samedi -> de 14h √† 18h"
Valence,Poissonnerie Fereyre,"11 Rue de l'Universit√©, 26000 Valence, France",44.931633,4.891228,
Valence,Fromages _ et Terroirs Valence,"206 Avenue Victor Hugo, 26000 Valence, France",44.920334,4.885746,"Fromagerie cr√®merie, glaces Terre Ad√©lice, √©picerie diverse, confitures, miels, vins, jus de fruits etc....
Horaires : du mardi au dimanche matin. Ouvert le matin et l'apr√®s-midi. Privil√©gier l'apr√®s midi car moins d'affluence. 
T√©l√©phone : 04 75 42 31 61.
Le terminal de paiement et le meuble  de caisse sont nettoy√©s √† l'alcool m√©nager apr√®s chaque client. Nettoyage des mains avant de servir chaque client. "
Valence,Clarabio,"52 Rue du Vivarais, 26320 Saint-Marcel-l√®s-Valence, France",44.96361,4.9444003,
Valence,Monop'Station,"18 Rue Denis Papin, 26000 Valence, France",44.92803,4.893295,Magasin ferm√© pour virus 
Valence,Comme Trois Pommes,"335 Chemin de l'Olagnier, 26800 Portes-l√®s-Valence, France",44.88218,4.891686,√âpicerie
Valence,G√©ant Casino,"2 Avenue de Romans, 26000 Valence, France",44.942223,4.9202776,"Ouverture 8h
Fermeture 20h30
Hypermarch√© d'alimentation "
Valence,P√¢tisserie ChocolaterieTraiteur Paris Friand Valence - Domaine des Seigneurs COLOMB Fr√©d√©ric,"7 Avenue Pierre Semard, 26000 Valence, France",44.928677,4.891197,"Horaires :
Ouvert du Mardi au Samedi de 8h00 √† 18h45 et le Dimanche de 8h00 √† 17h00
T√©l√©phone : 04 75 44 06 76"
Valence,Casino shop,"21 Rue Madier de Montjau, 26000 Valence, France",44.933285,4.892648,"Horaires exceptionnels: 
Lundi au Samedi de 7h30 √† 20h00
Dimanche de 9h00 √† 20h00
"
Valence,TABAC Presse loto,"48 Avenue Sadi Carnot, 26000 Valence, France",44.93544,4.8970037,"tel 0475409504
du lundi au samedi : 7h-18h
dimanche : 7h-12h"
Valence,Le Sun Bay Tabac Presse Loto caf√© bar,"26000 Valence, France",44.89935,4.8879323,7h - 13h
Valence,CHICKENS RUN,"47 Rue Faventines, 26000 Valence, France",44.92985,4.8979306,
Valence,Agence Dumond,"Zone Industriel des Aur√©ats, 81 Bis Rue des Mourettes, 26000 Valence, France",44.893627,4.890048,"Permanence de 9h00 √† 16h00 pour les urgences.
Evitons les d√©placements pour un entretien. Prenez soin de vous et votre familleüò∑üò∑
04 75 44 41 95"
Valence,G√©ant Casino,"Avenue de Provence Quartier, Rue de Chantecouriol, 26000 Valence, France",44.907635,4.8783174,"Ouvert 7 jours sur 7
Du lundi √† samedi de 8h √†  20h30
Le dimanche de 9h √† 21h"
Valence,Intermarch√© Super VALENCE,"362 Rue Faventines, 26000 Valence, France",44.9122,4.9130363,
Valence,L'Objectiforme,"1 Rue des Repenties, 26000 Valence, France",44.93098,4.8882885,"Ouvert de 8h30-12h.
Attention ouvert uniquement pour les compl√©ments alimentaires et nutrition sportive"
Valence,La Poste Carre Enterprises,"69 Avenue de la Marne, 26000 Valence, France",44.933647,4.897936,"ouvert aussi aux particulier
pas plus de 2 personnes dans le local "
Valence,M√âDIAPHONE DISCOUNT,"50 Rue Madier de Montjau, 26000 Valence, France",44.932774,4.893316,"Horaires exceptionnels: 
Ouverture de 14h √† 18h

Possibilit√© de se faire livrer son telephone √† domicile"
Valence,M√âDIAPHONE DISCOUNT,"116 Avenue de Provence, 26320 Saint-Marcel-l√®s-Valence, France",44.96696,4.9484234,"Horaires exceptionnels: 
Ouverture de 14h √† 18h

Possibilit√© de se faire livrer son telephone √† domicile"
Valence,M√âDIAPHONE DISCOUNT,"Centre commercial Auchan, 1449 Avenue de la R√©publique, 07500 Guilherand-Granges, France",44.937935,4.865602,"Horaires exceptionnels: 
Ouverture de 14h √† 18h

Possibilit√© de se faire livrer son telephone √† domicile"
Valence,Officiel Mobile Service,"20 Avenue Victor Hugo, 26000 Valence, France",44.929455,4.8906307,"Horaires exceptionnels: 
Ouverture de 14h √† 18h

Possibilit√© de se faire livrer son telephone √† domicile"
Valence,La Tartine,"210 Avenue Victor Hugo, 26000 Valence, France",44.92008,4.8857036,Matin jusqu'√† 12h30 sauf le mercredi 
Valence,Auchan GUILHERAND-GRANGES,"1449 Avenue de la R√©publique, 07500 Guilherand-Granges, France",44.937653,4.86527,
Valence,ALDI,"Angle 331 Avenue Victor Hugo et, Rue Benjamin Franklin, 26000 Valence, France",44.91621,4.8858366,10h 13h et 14h -18h 
Valence,Cr√©dit Mutuel,"28 Avenue Victor Hugo, 26000 Valence, France",44.929207,4.890364,"CR√âDIT MUTUEL, Banque, assurances, t√©l√©phonie. ouvert du mardi au vendredi de 9h √† 12h et de 14h √† 17h, le samedi de 9h √† 12h. Vous pouvez nous contacter par mail 08903@creditmutuel.fr, t√©l√©phone 04 75 80 37 76."
Valence,Boucherie le Mistral,"126 Rue Louis Pasteur, 07500 Guilherand-Granges, France",44.933247,4.8807964,"Changement d'horaires √† partir de Lundi 23:
Boucherie charcuterie traiteur "
Valence,Au Comptoir Fruitier,"19 Place Europe, 26000 Valence, France",44.930725,4.9238353,
Valence,Super Qi,"36 Rue Bouffier, 26000 Valence, France",44.933395,4.894732,"Horaires: 15H00-18H30
Livraison √† domicile possible sur Valence et dans un rayon de 15 kms autour de Valence.
T√©l: 04 75 55 50 67 
NB: Pour laisser un message afin d'√™tre recontact√© : 06 08 99 69 59"
Valence,Boulangerie P√¢tisserie Serre SARL,"13 Grande Rue, 26000 Valence, France",44.933716,4.891087,"Horaires exceptionnels: 
Matin de 7h15 √† 13h15
Apr√®s-midi 16h15 √† 17h15"
Valence,Boucherie Simonian,"Place du Pr√©sidial, 26000 Valence, France",44.932014,4.8895564,"Horaires exceptionnels: FERME APRESMIDI 
Ouverture de 7h √† 12h30"
Valence,Merveill'Home,"5 Rue Jeu de Paume, 26000 Valence, France",44.932377,4.894222,"Commande en ligne sur le eshop www.merveill-home.com/shop
Livraison √† domicile (d√©p√¥t des commandes dans le hall de votre immeuble ou derri√®re votre portail en maison individuelle sur rdv, envoi de sms une fois le d√©p√¥t effectu√© pour que vous r√©cup√©riez votre colis)"
Valence,Carbone Z√©ro,"24 Rue Denis Papin, 26000 Valence, France",44.928673,4.893174,"Horaires exceptionnels: 
Mardi au Vendredi de 9h √† 12h00"
Valence,day by day - Mon √©picerie en vrac,"48 Rue Madier de Montjau, 26000 Valence, France",44.93272,4.893242,
Valence,O'CANEO,"124 Avenue de la Lib√©ration, 26000 Valence, France",44.906498,4.885457,"Alimentation chiens et chats et accessoires chiens, acc√®s r√©duit au magasin pour limiter les risques. 
Horaires du lundi au vendredi 10h-13h // 16h-19h
Samedi 10h-15h"
Valence,KALAO,"Plateau des Couleures, Place Jean Rostand, 26000 Valence, France",44.950417,4.926188,"Lundi de 14h √† 19h
Du mardi au samedi de 9h √† 19h
04 75 56 94 20"
Valence,Carrefour Express,"122 Rue Ch√¢teauvert, 26000 Valence, France",44.9201,4.8990483,
Valence,Mairie de Valence,"1 Place de la Libert√©, 26000 Valence, France",44.933163,4.892158,"L‚ÄôH√¥tel de ville et le service d'√©tat civil sont ouverts du lundi au vendredi de 9h00 √† 17h00. Merci de privil√©gier les √©changes t√©l√©phoniques et les formulaires du site internet.
Contact : 04 75 79 20 00
Les actes trait√©s en priorit√© : actes de naissance, d√©c√®s et mariage.
+ d‚Äôinfos sur www.valence.fr et facebook
 
+ les plages horaires √† modifier :
lundi 9h ‚Äì 17h
mardi 9h ‚Äì 17h
mercredi 9h ‚Äì 17h
jeudi 9h ‚Äì 17h
vendredi 9h ‚Äì 17h"
Valence,My Little Warung Valence,"4 Grande Rue, 26000 Valence, France",44.93405,4.8909516,"PROVISOIREMENT FERME
"
Valence,"La Valentinoise, Brasserie artisanale de Valence","11 Rue Sabaterie, 26000 Valence, France",44.933723,4.890467,"Pendant la p√©riode de confinement, La Brasserie propose un service gratuit de livraison des bi√®res √† domicile pour l'agglom√©ration de Valence. Vous pouvez passer commande via le site internet : www.brasserielavalentinoise.fr ou sur FB : La Valentinoise, bi√®re de Valence."
Valence,La Ferme Maubourg,"Rue Servan, 26000 Valence, France",44.933147,4.9015517,Horaires d‚Äôouverture de 9h00 √† 19h00
Valence,Lidl,"153 Avenue de Romans, 26000 Valence, France",44.93481,4.9067645,
Valence,Chez Gayane,"97 Rue Denis Papin, 26000 Valence, France",44.92212,4.890659,"OUVERT DU LUNDI AU SAMEDI SOIR A PARTIR DE 18H 30
SPECIALITE LIBANO ARMENIENNE A EMPORTER OU LIVRER A DOMICILE SUR UBER EAT
TEL 09 50 89 22 41 OU 06 64 09 63 66"
Valence,P√¢tisserie Chocolaterie Traiteur Paris Friand COLOMB Fr√©d√©ric Valence,"5 Rue des Alpes, 26000 Valence, France",44.92982,4.8955874,"Horaires d'ouverture:
Ouvert du Mardi au Samedi de 8h15 √† 13h30 et de 15h15 √† 19h00 et le Dimanche de 8h15 √† 13h00
T√©l√©phone : 04 75 42 37 82"
Valence,P√¢tisserie Boulangerie MOUGEL,"22 Avenue Pierre Semard, 26000 Valence, France",44.92822,4.89187,"Horaires exceptionnels: 
Ouverture de 7h √† 12h30"
Valence,Green'Box,"15 Place St Jean, 26000 Valence, France",44.93412,4.891269,Pour l'instant pas de changement. 
Valence,Carrefour City,"58 Rue Madier de Montjau, 26000 Valence, France",44.932636,4.893808,"Horaires exceptionnels: 
Ouverture de 7h √† 19h45"
Valence,Le Pain de Sucre,"95 Avenue Sadi Carnot, 26000 Valence, France",44.932964,4.8963423,"Horaires exceptionnels: 
Ouverture de 6h √† 13h tous les jours"
Valence,Carrefour City,"164 Avenue Victor Hugo, 26000 Valence, France",44.922253,4.8864355,"Horaires exceptionnels: 
Ouverture de 9h √† 20h"
Valence,Smokys Pizza,"28 Avenue Pierre Semard, 26000 Valence, France",44.92818,4.892267,"Ouverture jusqu'a minuit:
Choisissez en ligne et commandez par t√©l au 04.75.44.26.26 ou passes par les plateformes de livraisons UberEats Delivroo

"
Valence,Biocoop Victor Hugo,"333 Avenue Victor Hugo, 26000 Valence, France",44.915623,4.885506,"Nous restons OUVERT avec les m√™mes horaires!
Contact: 04 75 85 61 87"
Valence,Maison de la Presse Valence,"8 Place Aristide Briand, 26000 Valence, France",44.92876,4.8896823,"Nouveaux horaires 
Ouverture de 6h00 √† 15h00"
Valence,MONOPRIX,"2 Avenue Pierre Semard, 26000 Valence, France",44.928493,4.8907866,Pas de changement d'horaires pour le moment
Valence,Honorin Boulangerie,"10 Place Aristide Briand, 26000 Valence, France",44.92872,4.889835,Fermeture √† 15h00
Valence,Maison Pognes Nivon,"17 Avenue Pierre Semard, 26000 Valence, France",44.928505,4.891897,"Changement d'horaires
Ouverture de 6h00 √† 13h00"
Valence,gramme et kilogramme,"6 Grande Rue, 26000 Valence, France",44.93385,4.8908362," INFO - Gramme et Kilogramme reste ouvert mais sera ferm√© d√®s 18h00 !! tous les soirs (pas d'autre changement d'horaire pour le moment)
- Privil√©giez le paiement CB et sans contact.
- Pensez √† apporter vos sacs/paniers/cabas dans la mesure du possible.
- Laissez une distance d'au moins 1 m entre chaque personne.
- L'acc√®s au magasin sera limit√© sur les p√©riodes d'affluence, nous vous demanderons peut-√™tre d'attendre un peu dehors.
Il n'y a aucune rupture annonc√©e, donc pas besoin de trop stocker...
Soyons toutes et tous responsables les uns des autres pour passer ce moment difficile et nous avons confiance en vous pour que cela se fasse dans les meilleures conditions possibles.
"
Valence,Chamas Tacos¬Æ Valence,"7 Avenue du Champ de Mars, 26000 Valence, France",44.928463,4.889071,Fonctionne seulement avec les plateformes de livraisons (UberEats / Delivroo)
Valence,"Office Notarial de Ma√Ætre C√©dric VALHIER, Notaire √† VALENCE","82 Avenue de Romans, 26000 Valence, France",44.934036,4.9053593,Disponible par email & telephone
