city_name,title,address,latitude,longitude,comment
MontÃ©limar,La FABrique - Brasserie Artisanale & Bar,"Face Truffaut, 206 Route de Marseille, 26200 MontÃ©limar, France",44.532967,4.7450824,"""Livraison du MARDI au SAMEDI, de 17h Ã  19h en rÃ©pondant Ã  cette feuille de commande, Ã  envoyer par mail (lafabriquemontelimar@gmail.com) ou en MP Facebook sur notre page (La FABrique).
Livraison dans la limite des STOCKS DISPONIBLES aux alentours de MontÃ©limar pour toute commande d'un minimum de 25 euros.ğŸ»
Choses moins rigolotes :
â­•ï¸ Paiement au maximum en CB, pour Ã©viter tout contact et Ã©change de monnaie.
â­•ï¸ RÃ©ception de votre commande Ã  lâ€™extÃ©rieur (nous nâ€™entrerons dans aucune maison, ni hall dâ€™immeuble)
â­•ï¸ DÃ©sinfection des mains obligatoire avant paiement
â­•ï¸ Respecter 1 mÃ¨tre de distance
Nous ferons de notre mieux. 
MERCI Ã€ TOUS pour votre comprÃ©hension ğŸ˜‰ğŸ¤˜"""
MontÃ©limar,American Street,"41 Boulevard Meynot, 26200 MontÃ©limar, France",44.555923,4.75187,"""Votre restaurant reste ouvert pour les livraisons Uber et les ventes Ã  emporter.
Appelez au : 04 75 46 88 02. """
MontÃ©limar,GÃ©ant Casino,"24 Avenue John Kennedy, 26200 MontÃ©limar, France",44.556107,4.7377353,Pas de changement au niveau des horaires d'ouverture pour le moment
MontÃ©limar,Aprium Grande Pharmacie de l'Europe,"1 Route de Saint-Gervais, 26200 MontÃ©limar, France",44.555435,4.7589254,Pas de changement au niveau des horaires d'ouverture pour le moment
MontÃ©limar,Market,"Route de Dieulefit, 26200 MontÃ©limar, France",44.551815,4.7696548,Pas de changement au niveau des horaires d'ouverture pour le moment
MontÃ©limar,Carrefour City,"4 Boulevard Meynot, 26200 MontÃ©limar, France",44.55542,4.7514033,"Horaires exceptionnels: 
Lundi au Samedi de 7h Ã  19h30 
Dimanche de 9h Ã  12h30"
MontÃ©limar,"Livraison de pizza, de tacos, de burgers sur MontÃ©limar - AlloPizza26.frâ„¢","1 Rue MarÃ©chal Leclerc, 26200 MontÃ©limar, France",44.556946,4.749496,"ğŸš¨ğŸš¨ğŸš¨ Suite Ã  la disposition du gouvernement, ALLOPIZZA26 vous propose la livraison Ã  domicile ğŸ›µou Ã  emporter   ğŸ¥¡en respectant les normes sanitaires conseillÃ©es par l'Ã‰tat.
Commander en ligne 7j/7 de 11h Ã  14h et de 18h Ã  23h
ou au : 04 75 54 48 36"
MontÃ©limar,Pizza Laurent,"2 Avenue de Rochemaure, 26200 MontÃ©limar, France",44.560585,4.7476463,"Le camion Pizza Laurent 26 de nouveau prÃ©sent  mercredi au dimanche soir dÃ¨s 18h.... Penser Ã  venir avec votre attestation....  Ã  MontÃ©limar.
"
MontÃ©limar,Star Kebab,"12 Avenue Charles de Gaulle, 26200 MontÃ©limar, France",44.556507,4.7484593,"A emporter ğŸ¥¡ ou  Livraison  en passant par UberEat
Numero pour commande 04 75 51 01 96"
